locality,state,location,lon,lat
Eufaula,AK,"Eufaula, AK",-85.1454876,31.8912717
Libbysville,AK,"Libbysville, AK",NA,NA
Sitka,AK,"Sitka, AK",-135.33,57.0530556
Auburn,AL,"Auburn, AL",-85.48078249999999,32.6098566
Birmingham,AL,"Birmingham, AL",-86.80248999999999,33.5206608
Florence,AL,"Florence, AL",-87.677251,34.79981
Gainesville,AL,"Gainesville, AL",-88.158914,32.8209639
Greensboro,AL,"Greensboro, AL",-87.59583959999999,32.7045753
Huntsville,AL,"Huntsville, AL",-86.5861037,34.7303688
La Grange,AL,"La Grange, AL",-85.0322444,33.0362218
Marion,AL,"Marion, AL",-87.3191655,32.6323536
Mobile,AL,"Mobile, AL",-88.0398912,30.6953657
Montgomery,AL,"Montgomery, AL",-86.2999689,32.3668052
Selma,AL,"Selma, AL",-87.02110069999999,32.4073589
Talladaga,AL,"Talladaga, AL",-86.1058048,33.4359416
Talladega,AL,"Talladega, AL",-86.1058048,33.4359416
Tuscaloosa,AL,"Tuscaloosa, AL",-87.56917349999999,33.2098407
Eagletown,AR,"Eagletown, AR",-94.5749348,34.0342782
Eldorado,AR,"Eldorado, AR",-92.6662674,33.20763
Fayetteville,AR,"Fayetteville, AR",-94.1574263,36.0625795
Fort Smith,AR,"Fort Smith, AR",-94.39854749999999,35.3859242
Little Rock,AR,"Little Rock, AR",-92.28959479999999,34.7464809
Van Buren,AR,"Van Buren, AR",-94.34826799999999,35.436756
NA,AR,"NA, AR",-91.8318334,35.20105
Arivaca,AZ,"Arivaca, AZ",-111.3314522,31.5773351
Camp McDowell,AZ,"Camp McDowell, AZ",-111.6925465,33.7160203
Ft Grant,AZ,"Ft Grant, AZ",-109.943428,32.6227492
Ft. Bowie,AZ,"Ft. Bowie, AZ",-109.452661,32.156556
Ft. Buchanan,AZ,"Ft. Buchanan, AZ",-110.8628859,32.2995648
Ft. Crittenden,AZ,"Ft. Crittenden, AZ",-110.69535,31.6660113
Ft. Lowell,AZ,"Ft. Lowell, AZ",-110.874732,32.2596871
Ft. Mojave,AZ,"Ft. Mojave, AZ",-114.5892703,35.0224848
Ft. Whipple,AZ,"Ft. Whipple, AZ",-112.4552462,34.5527787
St. Joseph,AZ,"St. Joseph, AZ",-112.0793603,33.4819191
Tucson,AZ,"Tucson, AZ",-110.926479,32.2217429
NA,AZ,"NA, AZ",-111.0937311,34.0489281
Alameda,CA,"Alameda, CA",-122.2416355,37.7652065
Alvarado,CA,"Alvarado, CA",-96.99618129999999,48.19414769999999
Anaheim,CA,"Anaheim, CA",-117.9145036,33.8352932
Angel Island,CA,"Angel Island, CA",-122.4325682,37.860909
Antioch,CA,"Antioch, CA",-121.805789,38.0049214
Arcata,CA,"Arcata, CA",-124.0828396,40.8665166
Auburn,CA,"Auburn, CA",-121.0768901,38.8965654
Bend City,CA,"Bend City, CA",-121.5041491,38.6595769
Benicia,CA,"Benicia, CA",-122.1585777,38.049365
Benicio,CA,"Benicio, CA",-122.1585777,38.049365
Berkeley,CA,"Berkeley, CA",-122.272747,37.8715926
Bodega,CA,"Bodega, CA",-122.9738259,38.3454326
Camp Gaston,CA,"Camp Gaston, CA",-120.889834,39.38855470000001
Can Carlos,CA,"Can Carlos, CA",-122.2605222,37.5071591
Cold Spring,CA,"Cold Spring, CA",-120.053241,38.162418
Cold Springs,CA,"Cold Springs, CA",-120.053241,38.162418
Colorna,CA,"Colorna, CA",-117.5664384,33.8752935
Columbia,CA,"Columbia, CA",-120.4013061,38.0363119
Colusa,CA,"Colusa, CA",-122.0094175,39.2143343
Cooperpolis,CA,"Cooperpolis, CA",-120.6418716,37.9810358
Crescent City,CA,"Crescent City, CA",-124.2025913,41.7557501
Davies,CA,"Davies, CA",-121.7405167,38.5449065
Dolores,CA,"Dolores, CA",-118.2264595,33.8330727
Downieville,CA,"Downieville, CA",-120.8276966,39.5595198
Dutch Flat,CA,"Dutch Flat, CA",-120.8378103,39.2059586
El Dorado,CA,"El Dorado, CA",-120.8412807,38.6801437
Eureka,CA,"Eureka, CA",-124.1636729,40.8020712
Fresno,CA,"Fresno, CA",-119.7725868,36.7468422
Ft. Yuma,CA,"Ft. Yuma, CA",-114.6341196,32.7583794
Grass Valley,CA,"Grass Valley, CA",-121.0610606,39.2190608
Hawkin's Bar,CA,"Hawkin's Bar, CA",-123.5228235,40.8701359
Heldsburg,CA,"Heldsburg, CA",-122.8691609,38.6104658
Jackson,CA,"Jackson, CA",-120.7741018,38.3488023
Jenny Lind,CA,"Jenny Lind, CA",-120.8699371,38.0949216
Knight's Ferry,CA,"Knight's Ferry, CA",-120.6721494,37.8196499
Lafayette,CA,"Lafayette, CA",-122.1180201,37.8857582
Locklord,CA,"Locklord, CA",-121.5014287,38.5780494
Los Angeles,CA,"Los Angeles, CA",-118.2436849,34.0522342
Marysville,CA,"Marysville, CA",-121.5913547,39.1457253
Maryville,CA,"Maryville, CA",-121.5913547,39.1457253
Mattole,CA,"Mattole, CA",-124.3539389,40.3023576
Mendocino,CA,"Mendocino, CA",-123.79945910000001,39.3076744
Merkleville?,CA,"Merkleville?, CA",-119.7796826,38.6937227
Mokelumne Hill,CA,"Mokelumne Hill, CA",-120.7063219,38.3004709
Monterey,CA,"Monterey, CA",-121.8946761,36.6002378
napa,CA,"napa, CA",-122.286865,38.2975381
Napa,CA,"Napa, CA",-122.286865,38.2975381
Napa City,CA,"Napa City, CA",-122.286865,38.2975381
Nevada City,CA,"Nevada City, CA",-121.0160594,39.2615606
North San Juan,CA,"North San Juan, CA",-121.1038655,39.3700973
Oakland,CA,"Oakland, CA",-122.2711137,37.8043637
Orange,CA,"Orange, CA",-117.8531119,33.7877944
Oroville,CA,"Oroville, CA",-121.556359,39.5137752
Orville,CA,"Orville, CA",-121.556359,39.5137752
Pacheco,CA,"Pacheco, CA",-122.0752413,37.9835331
Petaluma,CA,"Petaluma, CA",-122.6366524,38.232417
Pine Grove,CA,"Pine Grove, CA",-120.6591314,38.4133517
Placerville,CA,"Placerville, CA",-120.798546,38.7296252
Red Bluff,CA,"Red Bluff, CA",-122.2358302,40.1784886
Redwood City,CA,"Redwood City, CA",-122.2363548,37.48521520000001
Rio Vista,CA,"Rio Vista, CA",-121.6913439,38.1557502
Sacramento,CA,"Sacramento, CA",-121.4943996,38.5815719
San Andreas,CA,"San Andreas, CA",-120.6804872,38.1960298
San Antonio,CA,"San Antonio, CA",-122.59028,38.18389
San Bernardino,CA,"San Bernardino, CA",-117.2897652,34.1083449
San Buenaventura,CA,"San Buenaventura, CA",-119.2290316,34.274646
San Diego,CA,"San Diego, CA",-117.1610838,32.715738
San Fernando,CA,"San Fernando, CA",-118.4389719,34.2819461
San Francisco,CA,"San Francisco, CA",-122.4194155,37.7749295
San Jose,CA,"San Jose, CA",-121.8863286,37.3382082
San Juan Bautista,CA,"San Juan Bautista, CA",-121.5379974,36.8455108
San Juan Capistrano,CA,"San Juan Capistrano, CA",-117.6625509,33.5016932
San Lorenzo,CA,"San Lorenzo, CA",-122.1244088,37.6810422
San Luis Obispo,CA,"San Luis Obispo, CA",-120.6596156,35.2827524
San Luis Rey,CA,"San Luis Rey, CA",-117.3322661,33.2319758
San Quentin,CA,"San Quentin, CA",-122.4898472,37.9386291
San Rafael,CA,"San Rafael, CA",-122.5310874,37.9735346
San Raphael,CA,"San Raphael, CA",-122.5310874,37.9735346
San Solano,CA,"San Solano, CA",-122.4559599,38.2937679
Santa Barbara,CA,"Santa Barbara, CA",-119.6981901,34.4208305
Santa Clara,CA,"Santa Clara, CA",-121.9552356,37.3541079
Santa Cruz,CA,"Santa Cruz, CA",-122.0307963,36.9741171
Santa Ine's,CA,"Santa Ine's, CA",-120.079868,34.6144313
Santa Inez,CA,"Santa Inez, CA",-120.079868,34.6144313
Santa Rosa,CA,"Santa Rosa, CA",-122.7140548,38.440429
Sarcamento,CA,"Sarcamento, CA",-121.4943996,38.5815719
Sawyer's Bar,CA,"Sawyer's Bar, CA",-123.1303203,41.2973586
Scott River,CA,"Scott River, CA",-123.0350393,41.7790209
shasta,CA,"shasta, CA",-122.4907566,40.598119
Shasta,CA,"Shasta, CA",-122.4907566,40.598119
Soledad,CA,"Soledad, CA",-121.3263187,36.424687
Sonoma,CA,"Sonoma, CA",-122.4580356,38.291859
Sonora,CA,"Sonora, CA",-120.3821724,37.9829496
Spanish Flat,CA,"Spanish Flat, CA",-122.2249751,38.5351852
St. Louis,CA,"St. Louis, CA",-120.9249514,39.6985046
Stables' Ranch,CA,"Stables' Ranch, CA",-119.1659331,34.3447117
Stockton,CA,"Stockton, CA",-121.2907796,37.9577016
Suisun,CA,"Suisun, CA",-122.040244,38.2382474
Tomales,CA,"Tomales, CA",-122.9055518,38.246307
Ukiah,CA,"Ukiah, CA",-123.2077831,39.1501709
Uniontown,CA,"Uniontown, CA",-120.943969,38.8084378
Vacaville,CA,"Vacaville, CA",-121.9877444,38.3565773
Vallejo,CA,"Vallejo, CA",-122.2566367,38.1040864
Visalia,CA,"Visalia, CA",-119.2920585,36.3302284
Volcano,CA,"Volcano, CA",-120.6307628,38.4429658
Watsonville,CA,"Watsonville, CA",-121.7568946,36.910231
Weaverville,CA,"Weaverville, CA",-122.94197080000001,40.7309778
"Whiskey Diggings, Sierra County",CA,"Whiskey Diggings, Sierra County, CA",-120.8816166,39.7529495
Woodland,CA,"Woodland, CA",-121.7732971,38.67851570000001
Woodside,CA,"Woodside, CA",-122.2538557,37.4299388
Yreka,CA,"Yreka, CA",-122.6344708,41.7354186
NA,CA,"NA, CA",-109.9481297,31.3353801
Colorado Springs,CO,"Colorado Springs, CO",-104.8213634,38.8338816
Denver,CO,"Denver, CO",-104.990251,39.7392358
Ft. Garland,CO,"Ft. Garland, CO",-105.4338999,37.4288973
Ft. Lyon,CO,"Ft. Lyon, CO",-103.1248283,38.1005174
Ft. Sedgwick,CO,"Ft. Sedgwick, CO",-102.2616377,40.9870206
Golden,CO,"Golden, CO",-105.2210997,39.755543
Greeley,CO,"Greeley, CO",-104.7091322,40.4233142
Greeley (Union Colony),CO,"Greeley (Union Colony), CO",-104.694841,40.42597600000001
Longmont,CO,"Longmont, CO",-105.1019275,40.1672068
Pueblo,CO,"Pueblo, CO",-104.6091409,38.2544472
NA,CO,"NA, CO",-77.00967,38.898571
Abington,CT,"Abington, CT",-72.0067411,41.8606533
Ansonia,CT,"Ansonia, CT",-73.07899689999999,41.34620779999999
Ashford,CT,"Ashford, CT",-72.1216163,41.8730657
Avon,CT,"Avon, CT",-72.8305154,41.8096201
Barkhamstead,CT,"Barkhamstead, CT",-72.9139904,41.9292629
Barkhamsted,CT,"Barkhamsted, CT",-72.9139904,41.9292629
Berlin,CT,"Berlin, CT",-72.7456519,41.621488
Bethany,CT,"Bethany, CT",-72.9970496,41.4217637
Bethel,CT,"Bethel, CT",-73.41396209999999,41.3712283
Birmingham,CT,"Birmingham, CT",-88.1138606,41.9864773
Bloomfield,CT,"Bloomfield, CT",-72.73009449999999,41.826488
Bolton,CT,"Bolton, CT",-72.4334173,41.7689878
Bozrah,CT,"Bozrah, CT",-72.16359589999999,41.5604427
Branford,CT,"Branford, CT",-72.81411849999999,41.2799027
Bridgeport,CT,"Bridgeport, CT",-73.19517669999999,41.1865478
Bristol,CT,"Bristol, CT",-72.9492703,41.67176480000001
Brookfield,CT,"Brookfield, CT",-73.4095652,41.4825947
Brooklyn,CT,"Brooklyn, CT",-71.9497216,41.7881236
Buckingham,CT,"Buckingham, CT",-88.4155712,42.1959439
Burlington,CT,"Burlington, CT",-72.9648388,41.7691235
Canaan,CT,"Canaan, CT",-73.3001233,41.9640877
Canterbury,CT,"Canterbury, CT",-71.9709075,41.6984319
Canton,CT,"Canton, CT",-72.8956177,41.8247572
Chatham,CT,"Chatham, CT",-72.5026249,41.5757748
Cheshire,CT,"Cheshire, CT",-72.9106202,41.5083668
Chesire,CT,"Chesire, CT",-72.9106202,41.5083668
Chester,CT,"Chester, CT",-72.4824991,41.4022081
Clinton,CT,"Clinton, CT",-72.5288034,41.2882208
Colchester,CT,"Colchester, CT",-72.3320051,41.5756728
Colebrook,CT,"Colebrook, CT",-73.0956765,41.991407100000004
Columbia,CT,"Columbia, CT",-72.30119169999999,41.7020432
Cornwall,CT,"Cornwall, CT",-73.3292848,41.8437058
Coventry,CT,"Coventry, CT",-72.3393021,41.78468
Danbury,CT,"Danbury, CT",-73.4540111,41.394817
Danielsonville,CT,"Danielsonville, CT",-83.281168,34.1674502
Darien,CT,"Darien, CT",-73.4686858,41.0771914
Derby,CT,"Derby, CT",-73.0889973,41.3206523
Durham,CT,"Durham, CT",-72.6812582,41.4817822
East Guilford,CT,"East Guilford, CT",-72.674364,41.288906
East Haddam,CT,"East Haddam, CT",-72.4757767,41.5034351
East Hampton,CT,"East Hampton, CT",-72.5026249,41.5757748
East Hartford,CT,"East Hartford, CT",-72.6128339,41.7634219
East Haven,CT,"East Haven, CT",-72.8684565,41.2841687
East Lebanon,CT,"East Lebanon, CT",-72.21272549999999,41.636391
East River,CT,"East River, CT",-72.660969,41.279271
East Windsor,CT,"East Windsor, CT",-72.5578799,41.9161361
Ellington,CT,"Ellington, CT",-72.458236,41.91728260000001
Enfield,CT,"Enfield, CT",-72.5441445,42.0027181
Fairfield,CT,"Fairfield, CT",-73.2612615,41.1408363
Farmington,CT,"Farmington, CT",-72.79502699999999,41.7360305
Franklin,CT,"Franklin, CT",-72.145997499999993,41.6090041
Glastonbury,CT,"Glastonbury, CT",-72.5450779,41.6861794
Goshen,CT,"Goshen, CT",-73.2248946,41.8315187
Goshen and Nelson,CT,"Goshen and Nelson, CT",-85.7669532,41.5139079
Granby,CT,"Granby, CT",-72.7887705,41.9540614
Greens Farms,CT,"Greens Farms, CT",-73.31739619999999,41.1254494
Greenwich,CT,"Greenwich, CT",-73.6281964,41.0262417
Griswold,CT,"Griswold, CT",-71.9282781,41.5961439
Groton,CT,"Groton, CT",-72.0790717,41.3497456
Guildford,CT,"Guildford, CT",-72.674364,41.288906
Guilford,CT,"Guilford, CT",-72.674364,41.288906
"Guilford, Saybrook, Killingworth, and Lyme",CT,"Guilford, Saybrook, Killingworth, and Lyme, CT",NA,NA
Haddam,CT,"Haddam, CT",-72.5122763,41.4771433
Hadlyme,CT,"Hadlyme, CT",-72.4064743,41.4203766
Hamden,CT,"Hamden, CT",-72.9026064,41.3838782
Hampton,CT,"Hampton, CT",-72.0547977,41.7839873
hartford,CT,"hartford, CT",-72.6850932,41.76371109999999
Hartford,CT,"Hartford, CT",-72.6850932,41.76371109999999
Harwinton,CT,"Harwinton, CT",-73.0598438,41.7712762
Hebron,CT,"Hebron, CT",-72.36591609999999,41.6578767
Kensington,CT,"Kensington, CT",-72.7687083,41.6353769
Kent,CT,"Kent, CT",-73.47696429999999,41.7247554
Killingly,CT,"Killingly, CT",-71.8334145,41.8122401
Killingworth,CT,"Killingworth, CT",-72.5645602,41.3581869
Lakeville,CT,"Lakeville, CT",-73.4408034,41.9644861
Lebanon,CT,"Lebanon, CT",-72.21272549999999,41.636391
Ledyard,CT,"Ledyard, CT",-72.0181743,41.4456444
Lisbon,CT,"Lisbon, CT",-72.01125979999999,41.5998861
Litchfield,CT,"Litchfield, CT",-73.1887165,41.7472642
Lyme,CT,"Lyme, CT",-72.3429525,41.40081199999999
Madison,CT,"Madison, CT",-72.5754149,41.2959908
Mancheser,CT,"Mancheser, CT",-72.52150089999999,41.7759301
Mansfield,CT,"Mansfield, CT",-72.2292913,41.788489
Meriden,CT,"Meriden, CT",-72.80704349999999,41.5381535
Middle Haddam,CT,"Middle Haddam, CT",-72.55008959999999,41.5539879
Middlebury,CT,"Middlebury, CT",-73.12761069999999,41.5278742
Middlefield,CT,"Middlefield, CT",-72.71204019999999,41.5173203
Middletown,CT,"Middletown, CT",-72.6506488,41.5623209
Milford,CT,"Milford, CT",-73.064036,41.2306979
Montville,CT,"Montville, CT",-72.1556189,41.4639922
Moodus,CT,"Moodus, CT",-72.4500867,41.5028768
Mount Pleasant,CT,"Mount Pleasant, CT",-73.1591924,41.8336878
Naugatuck,CT,"Naugatuck, CT",-73.0506972,41.485921
New Britain,CT,"New Britain, CT",-72.7795419,41.6612104
New Cambridge,CT,"New Cambridge, CT",-72.9044598,41.6972972
New Fairfield,CT,"New Fairfield, CT",-73.48564610000001,41.4660993
New Hartford,CT,"New Hartford, CT",-72.97516929999999,41.87932139999999
New Haven,CT,"New Haven, CT",-72.9278835,41.308274
New London,CT,"New London, CT",-72.0995209,41.3556539
New Milford,CT,"New Milford, CT",-73.4085463,41.5770433
New Preston,CT,"New Preston, CT",-73.3517858,41.6750953
New Stratford,CT,"New Stratford, CT",-73.1331651,41.18454149999999
Newfield,CT,"Newfield, CT",-73.5535234,41.0919065
Newington,CT,"Newington, CT",-72.7228293,41.6972996
Newtown,CT,"Newtown, CT",-73.3035651,41.4141172
Norfolk,CT,"Norfolk, CT",-73.2020577,41.9939828
North Coventry,CT,"North Coventry, CT",-72.3393021,41.78468
North Guilford,CT,"North Guilford, CT",-72.674364,41.288906
North Haven,CT,"North Haven, CT",-72.8595447,41.39091390000001
North Killingworth,CT,"North Killingworth, CT",-72.5645602,41.3581869
North Stonington,CT,"North Stonington, CT",-71.8811827,41.4409323
Northfield,CT,"Northfield, CT",-73.1106655,41.6948193
Northford,CT,"Northford, CT",-72.7673198,41.3275971
Norwalk,CT,"Norwalk, CT",-73.4081575,41.11774399999999
Norwich,CT,"Norwich, CT",-72.07591049999999,41.5242649
Oxford,CT,"Oxford, CT",-73.1168393,41.4338203
Pawcatuck,CT,"Pawcatuck, CT",-71.8336802,41.3773218
Plainfield,CT,"Plainfield, CT",-71.91507299999999,41.6764876
Plainville,CT,"Plainville, CT",-72.86336349999999,41.6757457
Plantsville,CT,"Plantsville, CT",-72.89036449999999,41.5824016
Plymouth,CT,"Plymouth, CT",-73.0528853,41.6720418
Pomfret,CT,"Pomfret, CT",-71.9625736,41.8975977
Poquetanock,CT,"Poquetanock, CT",-72.0557049,41.4884639
Putnam,CT,"Putnam, CT",-71.8689917,41.90460119999999
Reading,CT,"Reading, CT",-77.1312647,39.3678613
Ridgefield,CT,"Ridgefield, CT",-73.4975412,41.28406349999999
Ripon,CT,"Ripon, CT",-122.065744,37.5789639
Rocky Hill,CT,"Rocky Hill, CT",-72.66557569999999,41.6572525
Roxbury,CT,"Roxbury, CT",-73.3087285,41.5564843
Salisbury,CT,"Salisbury, CT",-73.4212318,41.983426
Saybrook,CT,"Saybrook, CT",-72.38453009999999,41.2960159
Seymour,CT,"Seymour, CT",-73.07475339999999,41.397146
Sharon,CT,"Sharon, CT",-73.4768697,41.8793754
Simsbury,CT,"Simsbury, CT",-72.82791499999999,41.8540094
Somers,CT,"Somers, CT",-72.44607979999999,41.9851929
South Conventry,CT,"South Conventry, CT",-72.3050803,41.7700987
South Manchester,CT,"South Manchester, CT",-72.52150089999999,41.7759301
Southbury,CT,"Southbury, CT",-73.2133715,41.4793072
Southington,CT,"Southington, CT",-72.8776013,41.5964869
Stafford,CT,"Stafford, CT",-72.3162523,41.984407
Stamford,CT,"Stamford, CT",-73.5387341,41.0534302
Sterling,CT,"Sterling, CT",-71.8290112,41.7073744
Stonington,CT,"Stonington, CT",-71.9058854,41.3358915
Stratford,CT,"Stratford, CT",-73.1331651,41.18454149999999
Suffield,CT,"Suffield, CT",-72.7017741,41.9915062
Terryville,CT,"Terryville, CT",-73.01093929999999,41.6781533
Thomaston,CT,"Thomaston, CT",-73.0724037,41.6743343
Thompson,CT,"Thompson, CT",-71.8792264,41.9840732
Tolland,CT,"Tolland, CT",-72.3686931,41.8714865
Topsham,CT,"Topsham, CT",-121.8707049,37.7146799
Torrington,CT,"Torrington, CT",-73.1211715,41.8003049
Voluntown,CT,"Voluntown, CT",-71.8683346,41.5725461
Wallingford,CT,"Wallingford, CT",-72.8230736,41.4570108
Warren,CT,"Warren, CT",-73.3487303,41.7428733
Washington Point,CT,"Washington Point, CT",-90.975318,38.526847
Waterbury,CT,"Waterbury, CT",-73.0514965,41.5581525
Watertown,CT,"Watertown, CT",-73.11833969999999,41.6062042
Wauregan,CT,"Wauregan, CT",-71.9092393,41.7442655
West Greenwich,CT,"West Greenwich, CT",-73.6558544,41.0022329
West Hartford,CT,"West Hartford, CT",-72.7420151,41.7620842
West Haven,CT,"West Haven, CT",-72.9469711,41.2705484
West Killingly,CT,"West Killingly, CT",-71.8334145,41.8122401
West Meridan,CT,"West Meridan, CT",-72.80704349999999,41.5381535
West Suffield,CT,"West Suffield, CT",-72.74665929999999,42.0185603
West Winsted,CT,"West Winsted, CT",-73.0601078,41.9212066
Weston,CT,"Weston, CT",-73.3806748,41.2009294
Wethersfield,CT,"Wethersfield, CT",-72.6596244,41.7063537
Williamantic,CT,"Williamantic, CT",-72.2081338,41.7106543
Willington,CT,"Willington, CT",-72.2600655,41.8809434
Wilton,CT,"Wilton, CT",-73.4378988,41.1953739
Winchester,CT,"Winchester, CT",-73.111356,41.9357632
Windham,CT,"Windham, CT",-72.1570219,41.6998208
Windsor,CT,"Windsor, CT",-72.64370219999999,41.8525984
Windsor Locks,CT,"Windsor Locks, CT",-72.6454469,41.9242917
Wolcott,CT,"Wolcott, CT",-72.9867718,41.6023196
Wolcottville,CT,"Wolcottville, CT",NA,NA
Woodbridge,CT,"Woodbridge, CT",-73.0084385,41.352597
Woodbury,CT,"Woodbury, CT",-73.2090025,41.5445404
Woodstock,CT,"Woodstock, CT",-71.9739625,41.9484307
Woodstock and Killingly,CT,"Woodstock and Killingly, CT",-71.9124629,41.9215008
D.C.,DC,"D.C., DC",-77.0368707,38.9071923
Georgetown,DC,"Georgetown, DC",-77.06535650000001,38.9097057
washington,DC,"washington, DC",-77.0368707,38.9071923
Washington,DC,"Washington, DC",-77.0368707,38.9071923
Washington D.C.,DC,"Washington D.C., DC",-77.0368707,38.9071923
Dover,DE,"Dover, DE",-75.5243682,39.158168
Fort Delaware,DE,"Fort Delaware, DE",-75.587367,39.578484
Georgetown,DE,"Georgetown, DE",-75.38547280000002,38.6901134
Lewes,DE,"Lewes, DE",-75.13934979999999,38.7745565
Lincoln,DE,"Lincoln, DE",-75.4229746,38.8698352
Milton,DE,"Milton, DE",-75.3099136,38.7776124
New Castle,DE,"New Castle, DE",-75.5668166,39.6620397
Newark,DE,"Newark, DE",-75.74965720000002,39.6837226
Odessa,DE,"Odessa, DE",-75.6613184,39.457334
Smyrna,DE,"Smyrna, DE",-75.6046494,39.2998339
Wilmington,DE,"Wilmington, DE",-75.5397878,39.7390721
Chattahoochee,FL,"Chattahoochee, FL",-84.8429759,30.7051916
Grand Key,FL,"Grand Key, FL",-82.5075478,27.9042476
Jacksonville,FL,"Jacksonville, FL",-81.65565099999999,30.3321838
Key West,FL,"Key West, FL",-81.7799871,24.5550593
Pensacola,FL,"Pensacola, FL",-87.2169149,30.42130899999999
St. Augustine,FL,"St. Augustine, FL",-81.31243409999999,29.9012437
Tallahasee,FL,"Tallahasee, FL",-84.28073289999999,30.4382559
Worthington,FL,"Worthington, FL",-81.7304267,26.3277979
Athens,GA,"Athens, GA",-83.357567,33.9519347
Atlanta,GA,"Atlanta, GA",-84.3879824,33.7489954
Augusta,GA,"Augusta, GA",-82.0105148,33.4734978
Bowden,GA,"Bowden, GA",-85.2532818,33.5378885
Bowdon,GA,"Bowdon, GA",-85.2532818,33.5378885
Cassville,GA,"Cassville, GA",-84.85216199999999,34.2448172
Cave Spring,GA,"Cave Spring, GA",-85.33634339999999,34.1075975
Cedartown,GA,"Cedartown, GA",-85.25658229999999,34.0112715
Columbus,GA,"Columbus, GA",-84.9877094,32.4609764
Dahlonega,GA,"Dahlonega, GA",-83.9843953,34.5261465
Fort Pulaski,GA,"Fort Pulaski, GA",-80.89048679999999,32.02706
Greene County,GA,"Greene County, GA",-83.1649001,33.5186591
Greenville,GA,"Greenville, GA",-84.7129848,33.0287373
Griffin,GA,"Griffin, GA",-84.2640904,33.2467807
Holton,GA,"Holton, GA",-82.47721720000001,31.5456221
La Grange,GA,"La Grange, GA",-85.0322444,33.0362218
Macon,GA,"Macon, GA",-83.6324022,32.8406946
Medway,GA,"Medway, GA",-81.177323,31.7166093
Milledgeville,GA,"Milledgeville, GA",-83.2320991,33.0801429
Oxford,GA,"Oxford, GA",-83.8674051,33.6190031
Pope's Ferry,GA,"Pope's Ferry, GA",-83.7319337,32.9943853
Savanah,GA,"Savanah, GA",-81.09983419999999,32.0835407
Savannah,GA,"Savannah, GA",-81.09983419999999,32.0835407
West Point,GA,"West Point, GA",-85.18327459999999,32.8779056
Honolulu,HI,"Honolulu, HI",-157.8583333,21.3069444
Lahaina,HI,"Lahaina, HI",-156.6825,20.8783333
Oahu,HI,"Oahu, HI",-158.0000565,21.4389123
Albia,IA,"Albia, IA",-92.811307,41.0300078
Almoral,IA,"Almoral, IA",-91.2898613,42.5355463
Ames,IA,"Ames, IA",-93.63191309999999,42.0307812
Amitx,IA,"Amitx, IA",-95.0806918,40.6246316
Anamosa,IA,"Anamosa, IA",-91.28515940000001,42.1083371
Bellevue,IA,"Bellevue, IA",-90.4257531,42.25889360000001
Burlington,IA,"Burlington, IA",-91.1128901,40.8076529
Cedar Falls,IA,"Cedar Falls, IA",-92.4453161,42.5348993
Cedar Rapids,IA,"Cedar Rapids, IA",-91.6656232,41.9778795
Chariton,IA,"Chariton, IA",-93.31409850000001,41.0199996
Clarinda,IA,"Clarinda, IA",-95.038313,40.7419352
Clarksville,IA,"Clarksville, IA",-92.6676907,42.7847
Clinton,IA,"Clinton, IA",-90.1887379,41.8444735
Davenport,IA,"Davenport, IA",-90.5776367,41.5236437
Decorah,IA,"Decorah, IA",-91.7857092,43.30330559999999
Decorsh,IA,"Decorsh, IA",-91.7857092,43.30330559999999
Denver,IA,"Denver, IA",-92.3374045,42.6713718
Des Moines,IA,"Des Moines, IA",-93.6091064,41.6005448
Dubuque,IA,"Dubuque, IA",-90.66457179999999,42.5005583
Durant,IA,"Durant, IA",-90.9107037,41.5997498
Eldora,IA,"Eldora, IA",-93.10575759999999,42.3680382
Fairfield,IA,"Fairfield, IA",-91.9636914,41.00761139999999
Fayette,IA,"Fayette, IA",-91.8021071,42.84192549999999
Ft. Dodge,IA,"Ft. Dodge, IA",-94.16801579999999,42.4974694
Ft. Madison,IA,"Ft. Madison, IA",-91.31453499999999,40.6297634
Grinnell,IA,"Grinnell, IA",-92.7232456,41.74340919999999
Hamlin,IA,"Hamlin, IA",-94.9078352,41.6648173
Humboldt,IA,"Humboldt, IA",-94.2152402,42.7208047
Ida,IA,"Ida, IA",-95.4777811,42.3418685
Independence,IA,"Independence, IA",-91.8893386,42.4685978
Indianola,IA,"Indianola, IA",-93.5574376,41.3580484
Iowa City,IA,"Iowa City, IA",-91.5301683,41.6611277
Keokuk,IA,"Keokuk, IA",-91.3963966,40.4044731
Keosanqua,IA,"Keosanqua, IA",-91.96239489999999,40.7303057
Keosaugua,IA,"Keosaugua, IA",-91.96239489999999,40.7303057
Little Rock,IA,"Little Rock, IA",-95.88335239999999,43.44413530000001
Logan,IA,"Logan, IA",-95.7891614,41.6430472
Lott's Creek,IA,"Lott's Creek, IA",-94.36635849999999,43.1566312
Low Moor,IA,"Low Moor, IA",-90.35485349999999,41.8016967
Lyons,IA,"Lyons, IA",-96.15269850000001,43.3954333
Manchester,IA,"Manchester, IA",-91.4579698,42.4857853
Maquoketa,IA,"Maquoketa, IA",-90.6656914,42.0689088
Marchalltown,IA,"Marchalltown, IA",-92.90803749999999,42.0494674
Marshalltown,IA,"Marshalltown, IA",-92.90803749999999,42.0494674
Mason City,IA,"Mason City, IA",-93.20103669999999,43.1535728
McGregor,IA,"McGregor, IA",-91.1812468,43.0246813
McGuire,IA,"McGuire, IA",-95.54456049999999,42.49021399999999
Miescatine,IA,"Miescatine, IA",-91.0432051,41.424473
Monticello,IA,"Monticello, IA",-91.18709369999999,42.23833510000001
Mt. Pleasant,IA,"Mt. Pleasant, IA",-91.54877139999999,40.9716959
Mt. Vernon,IA,"Mt. Vernon, IA",-91.4168371,41.9219522
Nevada,IA,"Nevada, IA",-93.4523014,42.0227184
Onawa,IA,"Onawa, IA",-96.0972376,42.0266548
Osage,IA,"Osage, IA",-92.8190838,43.2841382
Oskaloosa,IA,"Oskaloosa, IA",-92.6493595,41.2916728
Oswego,IA,"Oswego, IA",-76.543438,43.450851
Ottumwa,IA,"Ottumwa, IA",-92.40830220000001,41.01602930000001
Pella,IA,"Pella, IA",-92.91640500000001,41.4080327
Salem,IA,"Salem, IA",-91.6201612,40.85280849999999
Sandyville,IA,"Sandyville, IA",-93.38632199999999,41.3708263
Sigourney,IA,"Sigourney, IA",-92.20462549999999,41.3333445
Sioux City,IA,"Sioux City, IA",-96.40030689999999,42.4999942
St. Sebald,IA,"St. Sebald, IA",-91.54597869999999,42.7383174
Tabor,IA,"Tabor, IA",-95.6713891,40.8983329
Trenton,IA,"Trenton, IA",-91.63738599999999,41.0616912
Vinton,IA,"Vinton, IA",-92.01856509999999,42.1646477
Waterloo,IA,"Waterloo, IA",-92.34257749999999,42.492786
Waukon,IA,"Waukon, IA",-91.47569500000002,43.2694208
Waverly,IA,"Waverly, IA",-92.4668511,42.7272032
West Point,IA,"West Point, IA",-91.4501542,40.71670390000001
Western college,IA,"Western college, IA",-95.801108,41.272829
Western College,IA,"Western College, IA",-95.801108,41.272829
Western College?,IA,"Western College?, IA",-95.801108,41.272829
Wilton,IA,"Wilton, IA",-91.01681789999999,41.5889154
Boise City,ID,"Boise City, ID",-116.2146068,43.6187102
Ft. Boise,ID,"Ft. Boise, ID",-116.1919373,43.6146909
Ft. Hall,ID,"Ft. Hall, ID",-112.4383131,43.0332482
Ft. Lapwai,ID,"Ft. Lapwai, ID",-116.8227368,46.4475305
Abingdon,IL,"Abingdon, IL",-90.4017954,40.8044833
Albany,IL,"Albany, IL",-90.2192941,41.78947480000001
Albion,IL,"Albion, IL",-88.0561465,38.37754839999999
Alton,IL,"Alton, IL",-90.1842764,38.8906038
Amboy,IL,"Amboy, IL",-89.3287061,41.71419969999999
Anna,IL,"Anna, IL",-89.2470282,37.4603274
Asbley,IL,"Asbley, IL",-89.19090969999999,38.3294942
Atlanta,IL,"Atlanta, IL",-89.2334236,40.2594846
Atlas,IL,"Atlas, IL",-90.9695778,39.5139357
Aurora,IL,"Aurora, IL",-88.32007150000001,41.7605849
Batavia,IL,"Batavia, IL",-88.3125738,41.8500284
Belleville,IL,"Belleville, IL",-89.9839935,38.5200504
Belvidere,IL,"Belvidere, IL",-88.84426739999999,42.2639098
Bement,IL,"Bement, IL",-88.572008,39.9219782
Bloomington,IL,"Bloomington, IL",-88.99368729999999,40.4842027
Bourbonnais Grove,IL,"Bourbonnais Grove, IL",-87.88675049999999,41.1580951
Buda,IL,"Buda, IL",-89.6789874,41.3261476
Bunker Hill,IL,"Bunker Hill, IL",-89.951769,39.04282389999999
Bushnell,IL,"Bushnell, IL",-90.50624,40.5528183
Cairo,IL,"Cairo, IL",-89.1764608,37.0053293
Cambridge,IL,"Cambridge, IL",-90.1928971,41.3036472
Canton,IL,"Canton, IL",-90.03511669999999,40.5580945
Carbandale,IL,"Carbandale, IL",-89.2167501,37.7272727
Carbondale,IL,"Carbondale, IL",-89.2167501,37.7272727
Carlinville,IL,"Carlinville, IL",-89.8817662,39.27976990000001
Carlyle,IL,"Carlyle, IL",-89.3725796,38.6103264
Carpentersville,IL,"Carpentersville, IL",-88.2578582,42.1211364
Carrollton,IL,"Carrollton, IL",-90.4070632,39.3022693
Carthage,IL,"Carthage, IL",-91.1362537,40.416433
Cedarville,IL,"Cedarville, IL",-89.6331727,42.3758493
Centralia,IL,"Centralia, IL",-89.1316944,38.5285169
Champaign,IL,"Champaign, IL",-88.2433829,40.1164204
chicago,IL,"chicago, IL",-87.6297982,41.8781136
Chicago,IL,"Chicago, IL",-87.6297982,41.8781136
Clay City,IL,"Clay City, IL",-88.35421199999999,38.6886589
Columbia,IL,"Columbia, IL",-90.2012239,38.44366369999999
Danvers,IL,"Danvers, IL",-89.1773055,40.5294818
Danville,IL,"Danville, IL",-87.6300207,40.124481
Decatur,IL,"Decatur, IL",-88.9548001,39.8403147
Dixon,IL,"Dixon, IL",-89.47954779999999,41.8389213
Don Quoin,IL,"Don Quoin, IL",-89.2366679,37.9952147
Dwight,IL,"Dwight, IL",-88.42505969999999,41.0944767
E. St. Louis,IL,"E. St. Louis, IL",-90.1506465,38.624514
Earlville,IL,"Earlville, IL",-88.9220265,41.5894754
East Cambridge,IL,"East Cambridge, IL",-90.1928971,41.3036472
East St. Louis,IL,"East St. Louis, IL",-90.1506465,38.624514
Eden,IL,"Eden, IL",-89.667598,38.1206055
Edgington,IL,"Edgington, IL",-90.763753,41.3869765
Edwardsville,IL,"Edwardsville, IL",-89.95315699999999,38.8114364
El Paso,IL,"El Paso, IL",-89.0164626,40.7392017
Elgin,IL,"Elgin, IL",-88.2825668,42.0354084
Elmhurst,IL,"Elmhurst, IL",-87.9403418,41.8994744
Elmira,IL,"Elmira, IL",-89.83177099999999,41.1797593
Elmore,IL,"Elmore, IL",-89.97705649999999,40.9567039
Elmwood,IL,"Elmwood, IL",-89.9665017,40.7778151
Erving,IL,"Erving, IL",-89.4045304,39.2058801
Ethel,IL,"Ethel, IL",-89.68321639999999,38.7392056
Eureka,IL,"Eureka, IL",-89.2728627,40.7214251
Evanston,IL,"Evanston, IL",-87.68769689999999,42.0450722
Fayetteville,IL,"Fayetteville, IL",-89.7953771,38.3775489
Flora,IL,"Flora, IL",-88.4856042,38.6689364
Freeburg,IL,"Freeburg, IL",-89.913714,38.4275499
Freedom,IL,"Freedom, IL",-89.9066314,42.1374707
Freeport,IL,"Freeport, IL",-89.6212271,42.2966861
Friendsville,IL,"Friendsville, IL",-87.8164189,38.5031038
Fulton,IL,"Fulton, IL",-90.1595705,41.8672508
Galena,IL,"Galena, IL",-90.4290168,42.4166744
Galesburg,IL,"Galesburg, IL",-90.3712395,40.94781580000001
Galessburg,IL,"Galessburg, IL",-90.3712395,40.94781580000001
Genesco,IL,"Genesco, IL",-90.1542848,41.4480902
Genesee,IL,"Genesee, IL",-89.7942892,41.899614
Geneseo,IL,"Geneseo, IL",-90.1542848,41.4480902
Geneva,IL,"Geneva, IL",-88.3053525,41.8875281
Gilman,IL,"Gilman, IL",-87.992262,40.7667015
Greenville,IL,"Greenville, IL",-89.41313559999999,38.8922687
Griggsville,IL,"Griggsville, IL",-90.7245722,39.7089361
Havana,IL,"Havana, IL",-90.0609506,40.3000428
Highlang,IL,"Highlang, IL",-89.6712008,38.7394918
Hillsboro,IL,"Hillsboro, IL",-89.4936989,39.1611586
Hoopeston,IL,"Hoopeston, IL",-87.6683573,40.4672587
Hyde Park,IL,"Hyde Park, IL",-87.590701,41.794295
Irvington,IL,"Irvington, IL",-89.16285119999999,38.4392162
Jacksonville,IL,"Jacksonville, IL",-90.2290098,39.733936
Joliet,IL,"Joliet, IL",-88.0817251,41.525031
Joliet?,IL,"Joliet?, IL",-88.0817251,41.525031
Kankakee,IL,"Kankakee, IL",-87.8611531,41.1200325
Kaskaskia,IL,"Kaskaskia, IL",-89.91316429999999,37.9214413
Kewanee,IL,"Kewanee, IL",-89.9248303,41.2455927
Knoxville,IL,"Knoxville, IL",-90.28484759999999,40.9083715
La Salle,IL,"La Salle, IL",-89.0418249,41.3621503
LaSalle,IL,"LaSalle, IL",-89.0418249,41.3621503
Lawrence County,IL,"Lawrence County, IL",-87.77633329999999,38.7157534
Lebanon,IL,"Lebanon, IL",-89.80731949999999,38.6039375
Leroy,IL,"Leroy, IL",-88.764237,40.3519795
Lewistown?,IL,"Lewistown?, IL",-90.1548421,40.3930973
Lincoln,IL,"Lincoln, IL",-89.3648183,40.1483768
Lincoln?,IL,"Lincoln?, IL",-89.3648183,40.1483768
Loda,IL,"Loda, IL",-88.0719857,40.5175349
Maroa,IL,"Maroa, IL",-88.957026,40.0364257
Mascoutah,IL,"Mascoutah, IL",-89.793154,38.490327
Maywood,IL,"Maywood, IL",-87.8431155,41.8791979
McLeansboro,IL,"McLeansboro, IL",-88.53560759999999,38.0933811
Mendota,IL,"Mendota, IL",-89.11758510000001,41.5472547
Metamora,IL,"Metamora, IL",-89.36064329999999,40.7905919
Metropolis,IL,"Metropolis, IL",-88.73199790000001,37.1511655
Moline,IL,"Moline, IL",-90.51513419999999,41.5067003
Monmouth,IL,"Monmouth, IL",-90.64735759999999,40.9114271
Monticello,IL,"Monticello, IL",-88.57339789999999,40.0278116
Morgan Park,IL,"Morgan Park, IL",-87.6690026,41.6878395
Morris,IL,"Morris, IL",-88.4211785,41.357254
Mount Carroll,IL,"Mount Carroll, IL",-89.9781797,42.0950233
Mount Morris,IL,"Mount Morris, IL",-89.43122009999999,42.0503062
Mt. Carmel,IL,"Mt. Carmel, IL",-87.7614174,38.4108801
Mt. Vernon,IL,"Mt. Vernon, IL",-88.9031201,38.3172714
Nashville,IL,"Nashville, IL",-89.3806398,38.3436612
Nauvoo,IL,"Nauvoo, IL",-91.3848749,40.550042
Neponset,IL,"Neponset, IL",-89.7903802,41.29587
New Athens,IL,"New Athens, IL",-89.8770468,38.3264383
Normal,IL,"Normal, IL",-88.9906312,40.5142026
Olney,IL,"Olney, IL",-88.0853154,38.7308811
Onarga,IL,"Onarga, IL",-88.0061509,40.71503500000001
Onargo,IL,"Onargo, IL",-88.0061509,40.71503500000001
Oquawka,IL,"Oquawka, IL",-90.9470863,40.931982
Origon,IL,"Origon, IL",-89.3323279,42.0147513
Ottawa,IL,"Ottawa, IL",-88.8425769,41.3455892
Ouimay?,IL,"Ouimay?, IL",-88.07505239999999,41.7601214
Paddock's Grove,IL,"Paddock's Grove, IL",-88.2194786,42.450301
Pana,IL,"Pana, IL",-89.0800809,39.3889311
Paxton,IL,"Paxton, IL",-88.0953201,40.4603125
Pekin,IL,"Pekin, IL",-89.640658,40.5675388
Pekin?,IL,"Pekin?, IL",-89.640658,40.5675388
Peoria,IL,"Peoria, IL",-89.5889864,40.6936488
Peru,IL,"Peru, IL",-89.1289728,41.3275349
Petersburg,IL,"Petersburg, IL",-89.8481652,40.0117151
Pittsfield,IL,"Pittsfield, IL",-90.8051289,39.6078254
Plainfield / Napierville,IL,"Plainfield / Napierville, IL",-88.1673015,41.7161312
Polo,IL,"Polo, IL",-89.57927819999999,41.986141
Pontiac,IL,"Pontiac, IL",-88.62978389999999,40.8808666
Quincy,IL,"Quincy, IL",-91.4098726,39.9356016
Randolph County,IL,"Randolph County, IL",-89.77553379999999,38.0629321
Rantoul,IL,"Rantoul, IL",-88.1558785,40.3083672
Renault,IL,"Renault, IL",-90.13400229999999,38.1536637
Ridge Farm,IL,"Ridge Farm, IL",-87.65196689999999,39.8955918
Robin's Nest,IL,"Robin's Nest, IL",-89.067905,37.7518999
Rock Island,IL,"Rock Island, IL",-90.5787476,41.5094771
Rockford,IL,"Rockford, IL",-89.0939952,42.2711311
Roseville,IL,"Roseville, IL",-90.6645784,40.7322617
Rushville,IL,"Rushville, IL",-90.56318290000002,40.1211577
Salem,IL,"Salem, IL",-88.9456158,38.6269929
Salena,IL,"Salena, IL",-90.4290168,42.4166744
Salina,IL,"Salina, IL",-88.0705319,41.1642751
Sandwich,IL,"Sandwich, IL",-88.6217432,41.6458634
Seales Mound?,IL,"Seales Mound?, IL",-90.2528701,42.47588229999999
Shawneetown,IL,"Shawneetown, IL",-88.1867027,37.713102
Smithton,IL,"Smithton, IL",-89.9920501,38.40866159999999
Sparta,IL,"Sparta, IL",-89.70176579999999,38.1231053
Spring Bay,IL,"Spring Bay, IL",-89.5223152,40.8244814
Springfield,IL,"Springfield, IL",-89.6501481,39.78172130000001
St. Anne,IL,"St. Anne, IL",-87.7181619,41.0229518
St. Charles,IL,"St. Charles, IL",-88.3086867,41.9141945
Sterling,IL,"Sterling, IL",-89.69621939999999,41.788642
Streator,IL,"Streator, IL",-88.835352,41.12086679999999
Sycamore,IL,"Sycamore, IL",-88.6867538,41.9889173
Teutapolis,IL,"Teutapolis, IL",-88.4719918,39.1330967
Tiskilwa,IL,"Tiskilwa, IL",-89.506204,41.292259
Tuscola,IL,"Tuscola, IL",-88.28310379999999,39.7991985
Upper Alton,IL,"Upper Alton, IL",-90.1576276,38.91448219999999
Urbana,IL,"Urbana, IL",-88.2072697,40.1105875
Vila Ridge,IL,"Vila Ridge, IL",-89.1947983,37.1586618
Villa Ridge,IL,"Villa Ridge, IL",-89.1947983,37.1586618
Virginia,IL,"Virginia, IL",-90.2123426,39.9511595
Warsaw,IL,"Warsaw, IL",-91.43459779999999,40.35921099999999
Washington,IL,"Washington, IL",-89.4073123,40.7036482
Waterloo,IL,"Waterloo, IL",-90.14983409999999,38.3358857
Watseka,IL,"Watseka, IL",-87.7364218,40.7761465
Waukegan,IL,"Waukegan, IL",-87.84479379999999,42.3636331
Westfield,IL,"Westfield, IL",-87.996146,39.4564247
Wheaton,IL,"Wheaton, IL",-88.1070127,41.8661403
Woodstock,IL,"Woodstock, IL",-88.44870209999999,42.3147436
Yorkville,IL,"Yorkville, IL",-88.44729480000001,41.6411409
NA,IL,"NA, IL",-87.6284094,41.8977357
Abilene,KS,"Abilene, KS",-97.2139094,38.9172216
Atchison,KS,"Atchison, KS",-95.12163559999999,39.5630521
Balwin City,KS,"Balwin City, KS",-95.1863603,38.775007
Blue Rapids,KS,"Blue Rapids, KS",-96.65973869999999,39.6819447
Burlingame,KS,"Burlingame, KS",-95.8349868,38.7538946
Burlington,KS,"Burlington, KS",-95.74276410000002,38.1944667
Cawker City,KS,"Cawker City, KS",-98.4343907,39.5094301
Chetopa City,KS,"Chetopa City, KS",-95.0899613,37.0372916
Coal Creek,KS,"Coal Creek, KS",-97.47348319999999,39.060431
Emporia,KS,"Emporia, KS",-96.18166260000001,38.403903
Eudora,KS,"Eudora, KS",-95.09858070000001,38.9433372
Fort Riley,KS,"Fort Riley, KS",-96.80997719999999,39.110058
Fort Wallace,KS,"Fort Wallace, KS",-101.582818,38.910241
Ft. Dodge,KS,"Ft. Dodge, KS",-99.9354098,37.7319646
Ft. Harken,KS,"Ft. Harken, KS",NA,NA
Ft. Hays,KS,"Ft. Hays, KS",-99.341484,38.862995
Ft. Leavenworth,KS,"Ft. Leavenworth, KS",-94.9201422,39.3615792
Gardner,KS,"Gardner, KS",-94.9271868,38.8108408
Girard,KS,"Girard, KS",-94.8380215,37.5111596
Highland,KS,"Highland, KS",-95.26969849999999,39.8597208
Junction City,KS,"Junction City, KS",-96.83139779999999,39.0286093
Keavenworth,KS,"Keavenworth, KS",-94.9224637,39.3111112
Lansing,KS,"Lansing, KS",-94.90024129999999,39.2486126
Lawrence,KS,"Lawrence, KS",-95.2352501,38.9716689
Leavenworth,KS,"Leavenworth, KS",-94.9224637,39.3111112
Manhattan,KS,"Manhattan, KS",-96.57166939999999,39.18360819999999
Marysville,KS,"Marysville, KS",-96.64724199999999,39.8411129
Olathe,KS,"Olathe, KS",-94.81912849999999,38.8813958
Ottawa,KS,"Ottawa, KS",-95.2686366,38.615768
Paola,KS,"Paola, KS",-94.8791294,38.5722353
Peabody Twp.,KS,"Peabody Twp., KS",-97.10638399999999,38.1670918
Seneca,KS,"Seneca, KS",-96.06416759999999,39.834165
St. Mary's,KS,"St. Mary's, KS",-96.0711041,39.194164
Topeka,KS,"Topeka, KS",-95.68901849999999,39.0558235
Vimland,KS,"Vimland, KS",-95.18219350000001,38.83945
Wathena,KS,"Wathena, KS",-94.94969069999999,39.7591606
Wyandotte,KS,"Wyandotte, KS",-94.7691586,39.0986811
NA,KS,"NA, KS",-98.4842465,39.011902
Ashland,KY,"Ashland, KY",-82.63793869999999,38.4784144
Augusta,KY,"Augusta, KY",-84.0057628,38.7717376
Bardstown,KY,"Bardstown, KY",-85.46690249999999,37.8092279
Berea,KY,"Berea, KY",-84.2963223,37.568694
Bowling Green,KY,"Bowling Green, KY",-86.4808043,36.9685219
Burlington,KY,"Burlington, KY",-84.7241133,39.02756
Campbellsville,KY,"Campbellsville, KY",-85.3419069,37.3433974
Carrollton,KY,"Carrollton, KY",-85.1793979,38.68089579999999
Carrolton,KY,"Carrolton, KY",-85.1793979,38.68089579999999
Catlettsburg,KY,"Catlettsburg, KY",-82.60043689999999,38.4048042
Cecilian,KY,"Cecilian, KY",-85.9566304,37.6658962
Clinton,KY,"Clinton, KY",-88.9933965,36.6672813
Columbia,KY,"Columbia, KY",-85.3063504,37.102841
Covington,KY,"Covington, KY",-84.5085536,39.0836712
Cynthiana,KY,"Cynthiana, KY",-84.2941013,38.3903526
Danville,KY,"Danville, KY",-84.77217019999999,37.6456329
Elizabethtown,KY,"Elizabethtown, KY",-85.8649408,37.7030646
Eminence,KY,"Eminence, KY",-85.1805105,38.3700683
Falmouth,KY,"Falmouth, KY",-84.3302142,38.6767372
Farmdale,KY,"Farmdale, KY",-84.91661769999999,38.1095175
Frankfort,KY,"Frankfort, KY",-84.87328350000001,38.2009055
Frankfort?,KY,"Frankfort?, KY",-84.87328350000001,38.2009055
Frankfurt,KY,"Frankfurt, KY",-84.87328350000001,38.2009055
Fredericksburg,KY,"Fredericksburg, KY",-84.89290729999999,38.7795634
Garnettsville,KY,"Garnettsville, KY",-86.0280868,37.9230993
Georgetown,KY,"Georgetown, KY",-84.55883109999999,38.2097967
Germantown,KY,"Germantown, KY",-83.9646491,38.65479500000001
Glascow,KY,"Glascow, KY",-85.91192149999999,36.9958839
Glasgow,KY,"Glasgow, KY",-85.91192149999999,36.9958839
Greenville,KY,"Greenville, KY",-87.1788854,37.2011539
Harrodsburg,KY,"Harrodsburg, KY",-84.8432852,37.762298
Harrodsbury,KY,"Harrodsbury, KY",-84.8432852,37.762298
Henderson,KY,"Henderson, KY",-87.59001339999999,37.8361538
Hopkinsvile,KY,"Hopkinsvile, KY",-87.4886186,36.8656008
Hopkinsville,KY,"Hopkinsville, KY",-87.4886186,36.8656008
Howlett,KY,"Howlett, KY",-86.4282633,36.9671412
Jeffersontown,KY,"Jeffersontown, KY",-85.5644033,38.1942356
Lagrange,KY,"Lagrange, KY",-85.37884679999999,38.4075666
Lancaster,KY,"Lancaster, KY",-84.5779957,37.6195246
Lebanon,KY,"Lebanon, KY",-85.2527381,37.5697868
Leesburg,KY,"Leesburg, KY",-84.4182714,38.2945189
Lexington,KY,"Lexington, KY",-84.5037164,38.0405837
London,KY,"London, KY",-84.08326459999999,37.1289771
Louisville,KY,"Louisville, KY",-85.7584557,38.2526647
Louisvillle,KY,"Louisvillle, KY",-85.7584557,38.2526647
Madison,KY,"Madison, KY",-84.3121264,37.7143001
Manchester,KY,"Manchester, KY",-83.7618641,37.1537007
Maysville,KY,"Maysville, KY",-83.744365,38.6411854
Millersburg,KY,"Millersburg, KY",-84.14742969999999,38.30202
Morganfield,KY,"Morganfield, KY",-87.9166915,37.6833776
Mount Sterling,KY,"Mount Sterling, KY",-83.9432556,38.0564679
Mount Vernon,KY,"Mount Vernon, KY",-84.3404919,37.3528615
Mt. Sterling,KY,"Mt. Sterling, KY",-83.9432556,38.0564679
Munfordsville,KY,"Munfordsville, KY",-85.8910819,37.2722751
Murray,KY,"Murray, KY",-88.31476099999999,36.6103334
Near Princeton,KY,"Near Princeton, KY",-87.8819594,37.1092162
New Castle,KY,"New Castle, KY",-85.16967679999999,38.4334003
New Liberty,KY,"New Liberty, KY",-84.9066156,38.6158987
Newport,KY,"Newport, KY",-84.4957757,39.091449
Paducah,KY,"Paducah, KY",-88.6000478,37.0833893
Paintsville,KY,"Paintsville, KY",-82.8071054,37.814538400000004
Paris,KY,"Paris, KY",-84.2529869,38.2097987
Pervee? Valley,KY,"Pervee? Valley, KY",NA,NA
Pewee Valley,KY,"Pewee Valley, KY",-85.4874595,38.3106248
Princeton,KY,"Princeton, KY",-87.8819594,37.1092162
Rabbit Hash,KY,"Rabbit Hash, KY",-84.8471711,38.9414494
Richmond,KY,"Richmond, KY",-84.2946539,37.7478572
Russellville,KY,"Russellville, KY",-86.887219,36.8453199
Shelbyville,KY,"Shelbyville, KY",-85.2235666,38.2120144
South Union,KY,"South Union, KY",-86.6563839,36.8764307
Speedwell,KY,"Speedwell, KY",-84.17520739999999,37.6742481
Springfield,KY,"Springfield, KY",-85.2221819,37.6853413
Stanford,KY,"Stanford, KY",-84.6618876,37.5311901
Versailles,KY,"Versailles, KY",-84.7299464,38.05257599999999
Washington,KY,"Washington, KY",-83.80849719999999,38.6161549
Winchester,KY,"Winchester, KY",-84.17965029999999,37.990079
Alexandria,LA,"Alexandria, LA",-92.4451371,31.3112936
Algiers,LA,"Algiers, LA",-90.0139908,29.9220105
Baton Rouge,LA,"Baton Rouge, LA",-91.1403196,30.4582829
Bellview,LA,"Bellview, LA",-118.266839,34.0730461
Bringiers,LA,"Bringiers, LA",-90.02155739999999,29.9373651
Donaldsonville,LA,"Donaldsonville, LA",-90.9928773,30.1010323
Fort Pike,LA,"Fort Pike, LA",-89.7371155,30.1662457
Franklin,LA,"Franklin, LA",-91.5015002,29.7960399
Grand Coteau,LA,"Grand Coteau, LA",-92.04650869999999,30.4199203
Jackson,LA,"Jackson, LA",-91.2176087,30.8374036
Mansfield,LA,"Mansfield, LA",-93.70018189999999,32.0376629
Monroe,LA,"Monroe, LA",-92.1193012,32.5093109
Mt. Lebanon,LA,"Mt. Lebanon, LA",-93.04905079999999,32.5037644
new orleans,LA,"new orleans, LA",-90.0715323,29.95106579999999
New Orleans,LA,"New Orleans, LA",-90.0715323,29.95106579999999
Osyka,LA,"Osyka, LA",-90.4723178,31.0068453
St. James,LA,"St. James, LA",-90.7913227,30.0179292
Thibodaux,LA,"Thibodaux, LA",-90.82287099999999,29.7957633
Washington,LA,"Washington, LA",-92.057063,30.6163073
NA,LA,"NA, LA",-95.8897216,36.0736331
Abington,MA,"Abington, MA",-70.9453218,42.1048228
Adams,MA,"Adams, MA",-73.1174344,42.6242251
Amesbury,MA,"Amesbury, MA",-70.93003759999999,42.85839250000001
Amherst,MA,"Amherst, MA",-72.5198537,42.3732216
Andover,MA,"Andover, MA",-71.1367953,42.6583356
Arlington,MA,"Arlington, MA",-71.1564729,42.4153925
Ashburnham,MA,"Ashburnham, MA",-71.90973939999999,42.635545
Ashby,MA,"Ashby, MA",-71.81871389999999,42.6772767
Ashfield,MA,"Ashfield, MA",-72.788426,42.5264745
Athol,MA,"Athol, MA",-72.2267383,42.59593290000001
Attleboro,MA,"Attleboro, MA",-71.2856082,41.94454409999999
Attleborough,MA,"Attleborough, MA",-71.2856082,41.94454409999999
Auburn,MA,"Auburn, MA",-71.8356271,42.1945385
Ayer,MA,"Ayer, MA",-71.58990539999999,42.5611947
Barnstable,MA,"Barnstable, MA",-70.3002024,41.7003208
Barre,MA,"Barre, MA",-72.10510020000001,42.4229047
Belchertown,MA,"Belchertown, MA",-72.4008884,42.2770346
Belmont,MA,"Belmont, MA",-71.1776114,42.3956405
Berkley,MA,"Berkley, MA",-71.08282220000001,41.8459347
Berlin,MA,"Berlin, MA",-71.63701209999999,42.3812039
Bernardston,MA,"Bernardston, MA",-72.5483277,42.6710048
Beverly,MA,"Beverly, MA",-70.880049,42.5584283
Beverly Farms,MA,"Beverly Farms, MA",-70.81060289999999,42.5639842
Billerica,MA,"Billerica, MA",-71.2689461,42.5584218
Blackinton,MA,"Blackinton, MA",-71.28987699999999,41.950382
Blackstone,MA,"Blackstone, MA",-71.53678599999999,42.0418415
Bolton,MA,"Bolton, MA",-71.6078449,42.43342579999999
Boston,MA,"Boston, MA",-71.0588801,42.3600825
Boxford,MA,"Boxford, MA",-70.996726,42.6611604
Boylston Centre,MA,"Boylston Centre, MA",-71.7350703,42.35287049999999
Bradford,MA,"Bradford, MA",-71.0758905,42.7695348
Braintree,MA,"Braintree, MA",-71.0040013,42.2079017
Brewster,MA,"Brewster, MA",-70.0827905,41.7600902
Bridgewater,MA,"Bridgewater, MA",-70.9750541,41.9903519
Brighton,MA,"Brighton, MA",-71.1626756,42.3463503
Brimfield,MA,"Brimfield, MA",-72.2005059,42.1225482
Brockton,MA,"Brockton, MA",-71.0183787,42.0834335
Brookfield,MA,"Brookfield, MA",-72.1022991,42.2139817
Brookline,MA,"Brookline, MA",-71.1211635,42.33176419999999
Burlington,MA,"Burlington, MA",-71.1956205,42.5047161
Cambridge,MA,"Cambridge, MA",-71.10973349999999,42.3736158
Cambridgeport,MA,"Cambridgeport, MA",-71.1077157,42.3595761
Canton,MA,"Canton, MA",-71.1447732,42.1584324
Carlisle,MA,"Carlisle, MA",-71.3495046,42.5292597
Charleston,MA,"Charleston, MA",-71.0602131,42.3782065
Charlestown,MA,"Charlestown, MA",-71.0602131,42.3782065
Charlton,MA,"Charlton, MA",-71.970074,42.13565
Chatham,MA,"Chatham, MA",-69.95976639999999,41.6820897
Chelmsford,MA,"Chelmsford, MA",-71.3672838,42.5998139
Chelsea,MA,"Chelsea, MA",-71.0328284,42.3917638
Cheshire,MA,"Cheshire, MA",-73.162881,42.5620278
Chesterfield,MA,"Chesterfield, MA",-72.8398172,42.3917541
Chicopee,MA,"Chicopee, MA",-72.6078672,42.1487043
Clinton,MA,"Clinton, MA",-71.68290809999999,42.41676349999999
Cohasset,MA,"Cohasset, MA",-70.8036544,42.24176749999999
College Hill,MA,"College Hill, MA",-71.80672899999999,42.2369376
Concord,MA,"Concord, MA",-71.3489484,42.4603719
Conway,MA,"Conway, MA",-72.6995349,42.5098085
Cummington,MA,"Cummington, MA",-72.8913714,42.459188
Curtisville,MA,"Curtisville, MA",-70.917542,42.0223234
Dalton,MA,"Dalton, MA",-73.1662138,42.4736959
Danvers,MA,"Danvers, MA",-70.93212199999999,42.5750009
Danversport,MA,"Danversport, MA",-70.91744960000001,42.5578637
Dedham,MA,"Dedham, MA",-71.1676536,42.2436085
Deerfield,MA,"Deerfield, MA",-72.6056435,42.5445588
Dennis,MA,"Dennis, MA",-70.1939429,41.7353062
Dighton,MA,"Dighton, MA",-71.15673439999999,41.84385899999999
Dorchester,MA,"Dorchester, MA",-71.067605,42.30163049999999
Dorchester and Milton,MA,"Dorchester and Milton, MA",-71.054733,42.282974
Douglas,MA,"Douglas, MA",-71.739379,42.0543449
Dover,MA,"Dover, MA",-71.2828719,42.2458749
Dunstable,MA,"Dunstable, MA",-71.4828433,42.67508979999999
E. Cambridge,MA,"E. Cambridge, MA",-71.08246129999999,42.3683353
East Attleboro,MA,"East Attleboro, MA",-71.2856082,41.94454409999999
East Boston,MA,"East Boston, MA",-71.0388601,42.37021370000001
East Bridgewater,MA,"East Bridgewater, MA",-70.9592096,42.0334341
East Cambridge,MA,"East Cambridge, MA",-71.08246129999999,42.3683353
East Dennis,MA,"East Dennis, MA",-70.1619638,41.7426094
East Hampton,MA,"East Hampton, MA",-72.66897999999999,42.266757
East Sudbury,MA,"East Sudbury, MA",-71.4161725,42.3834278
East Walpole,MA,"East Walpole, MA",-71.21010679999999,42.1614952
Easthampton,MA,"Easthampton, MA",-72.66897999999999,42.266757
Easton,MA,"Easton, MA",-71.1286594,42.0245442
Edgartown,MA,"Edgartown, MA",-70.5133599,41.3890052
Erving,MA,"Erving, MA",-72.3981416,42.6000863
Essex,MA,"Essex, MA",-70.7829315,42.63195820000001
Fairhaven,MA,"Fairhaven, MA",-70.90364869999999,41.6376043
Fall River,MA,"Fall River, MA",-71.1550451,41.7014912
Falmouth,MA,"Falmouth, MA",-70.60858859999999,41.5532208
Fells,MA,"Fells, MA",-71.0913224,42.4555047
Fitchburg,MA,"Fitchburg, MA",-71.8022955,42.5834228
Fitchburg (Worcester County),MA,"Fitchburg (Worcester County), MA",-71.8022955,42.5834228
Fort Independence,MA,"Fort Independence, MA",-71.01182969999999,42.3385285
Foxboro,MA,"Foxboro, MA",-71.2478251,42.0653812
Framingham,MA,"Framingham, MA",-71.4161565,42.279286
Franingham,MA,"Franingham, MA",-71.4161565,42.279286
Franklin,MA,"Franklin, MA",-71.396725,42.0834313
Freetown,MA,"Freetown, MA",-71.014118,41.7619708
Gardner,MA,"Gardner, MA",-71.998133,42.5750883
Georgetown,MA,"Georgetown, MA",-70.99116590000001,42.7250918
Gill,MA,"Gill, MA",-72.4996367,42.6408105
Globe Village,MA,"Globe Village, MA",-71.18560149999999,41.6820467
Gloucester,MA,"Gloucester, MA",-70.6619888,42.6159285
Gloucester?,MA,"Gloucester?, MA",-70.6619888,42.6159285
Glouchester,MA,"Glouchester, MA",-70.6619888,42.6159285
Goshen,MA,"Goshen, MA",-72.7993986,42.4407187
Grafton,MA,"Grafton, MA",-71.6856236,42.2070391
Great Barrington,MA,"Great Barrington, MA",-73.362008,42.1959798
Greenfield,MA,"Greenfield, MA",-72.5994104,42.587915
Groton,MA,"Groton, MA",-71.5745152,42.6112018
Groton Centre,MA,"Groton Centre, MA",-71.5745152,42.6112018
Hadley,MA,"Hadley, MA",-72.58842220000001,42.3417565
Hardwick,MA,"Hardwick, MA",-72.1986558,42.3490548
Harvard,MA,"Harvard, MA",-71.5828444,42.5000919
Hatfield,MA,"Hatfield, MA",-72.5981843,42.3709761
Hathorne,MA,"Hathorne, MA",-70.97449639999999,42.5862053
Havenhill,MA,"Havenhill, MA",-71.0772796,42.7762015
Haverhill,MA,"Haverhill, MA",-71.0772796,42.7762015
Hingham,MA,"Hingham, MA",-70.889759,42.2418172
Hingham Centre (Plymouth County),MA,"Hingham Centre (Plymouth County), MA",-70.8802164,42.28998050000001
Hinsdale,MA,"Hinsdale, MA",-73.1253799,42.4386967
Holbrook,MA,"Holbrook, MA",-71.014118,42.144846
Holden,MA,"Holden, MA",-71.8634062,42.3517585
Holland,MA,"Holland, MA",-72.15728849999999,42.0639524
Holliston,MA,"Holliston, MA",-71.4245049,42.20009659999999
Holyoke,MA,"Holyoke, MA",-72.6162009,42.2042586
Hopkinton,MA,"Hopkinton, MA",-71.5225646,42.22869540000001
Housatonic,MA,"Housatonic, MA",-73.3662214,42.2542548
Hubbardston,MA,"Hubbardston, MA",-72.0061877,42.4737009
Hudson,MA,"Hudson, MA",-71.56613899999999,42.39173599999999
Hyde Park,MA,"Hyde Park, MA",-71.1240559,42.2565289
Ipowich?,MA,"Ipowich?, MA",-70.8411558,42.6791832
Ipswich,MA,"Ipswich, MA",-70.8411558,42.6791832
Iswich,MA,"Iswich, MA",-70.8411558,42.6791832
Jamaica Plain,MA,"Jamaica Plain, MA",-71.1151431,42.3097365
Kingston,MA,"Kingston, MA",-70.7284785,41.9932752
Lakeville,MA,"Lakeville, MA",-70.9495226,41.8459169
Lancaster,MA,"Lancaster, MA",-71.6731242,42.4556452
Lanesborough,MA,"Lanesborough, MA",-73.2281596,42.5173058
Lawrence,MA,"Lawrence, MA",-71.1631137,42.7070354
Lechmere Point,MA,"Lechmere Point, MA",-71.0774009,42.37151679999999
Lee,MA,"Lee, MA",-73.2481951,42.3042151
Leicester,MA,"Leicester, MA",-71.90868429999999,42.245926
Lennox,MA,"Lennox, MA",-73.2848762,42.35646089999999
Lenox,MA,"Lenox, MA",-73.2848762,42.35646089999999
Leominster,MA,"Leominster, MA",-71.759794,42.5250906
Lexington,MA,"Lexington, MA",-71.2289641,42.4430372
Lincoln,MA,"Lincoln, MA",-71.3039469,42.4259283
Littleton,MA,"Littleton, MA",-71.5128022,42.5372893
Longmeadow,MA,"Longmeadow, MA",-72.5828642,42.0501022
Lowell,MA,"Lowell, MA",-71.31617179999999,42.6334247
Ludburg,MA,"Ludburg, MA",-71.4270342,42.1469235
Lunenburg,MA,"Lunenburg, MA",-71.7245035,42.5945273
Lynn,MA,"Lynn, MA",-70.9494938,42.46676300000001
Malden,MA,"Malden, MA",-71.066163,42.4250964
Manchester,MA,"Manchester, MA",-70.7675967,42.577834
Marblehead,MA,"Marblehead, MA",-70.8578024,42.49995819999999
Marion,MA,"Marion, MA",-70.7525299,41.697719
Marlboro,MA,"Marlboro, MA",-71.5522874,42.3459271
Marlborough,MA,"Marlborough, MA",-71.5522874,42.3459271
Medfield,MA,"Medfield, MA",-71.30645969999999,42.18758260000001
Medford,MA,"Medford, MA",-71.1061639,42.4184296
Medway,MA,"Medway, MA",-71.3967256,42.1417641
Melrose,MA,"Melrose, MA",-71.0661633,42.4584292
Methuen,MA,"Methuen, MA",-71.1908924,42.7262016
Middleborough,MA,"Middleborough, MA",-70.9107708,41.8929942
Middlefield,MA,"Middlefield, MA",-73.01510110000001,42.3484207
Middlesex,MA,"Middlesex, MA",-71.2874209,42.467206
Middleton,MA,"Middleton, MA",-71.0161643,42.59509389999999
Milford,MA,"Milford, MA",-71.5163049,42.1398577
Millbury,MA,"Millbury, MA",-71.761522,42.19207189999999
Milton,MA,"Milton, MA",-71.0661653,42.2495321
Monson,MA,"Monson, MA",-72.3189519,42.1042451
Montague,MA,"Montague, MA",-72.5353437,42.5355277
Nahant,MA,"Nahant, MA",-70.922279,42.4265633
Nantucket,MA,"Nantucket, MA",-70.099451,41.2834704
Natick,MA,"Natick, MA",-71.3468091,42.2775281
Needham,MA,"Needham, MA",-71.23775479999999,42.2809285
New Bedford,MA,"New Bedford, MA",-70.93420499999999,41.6362152
New Boston,MA,"New Boston, MA",-73.076407,42.0936945
Newbury,MA,"Newbury, MA",-70.8714528,42.7649497
Newburyport,MA,"Newburyport, MA",-70.87727509999999,42.8125913
Newton,MA,"Newton, MA",-71.20922139999999,42.3370413
Newton Centre,MA,"Newton Centre, MA",-71.1948255,42.3300503
Newton Lower Falls,MA,"Newton Lower Falls, MA",-71.25923399999999,42.3306044
Norfolk,MA,"Norfolk, MA",-71.3250563,42.1195426
North Adams,MA,"North Adams, MA",-73.1087148,42.70091499999999
North Amherst,MA,"North Amherst, MA",-72.53092099999999,42.410367
North Andover,MA,"North Andover, MA",-71.1350575,42.69870239999999
North Attleborough,MA,"North Attleborough, MA",-71.35654389999999,41.9695516
North Bridgewater,MA,"North Bridgewater, MA",-70.9750541,41.9903519
North Brookfield,MA,"North Brookfield, MA",-72.08503999999999,42.2685574
North Chelmsford,MA,"North Chelmsford, MA",-71.383617,42.63960549999999
North Danvers,MA,"North Danvers, MA",-70.9635406,42.5976627
North Reading,MA,"North Reading, MA",-71.0786653,42.5750939
North Woburn,MA,"North Woburn, MA",-71.1522765,42.4792618
North Wrentham,MA,"North Wrentham, MA",-71.3281114,42.0667652
Northampton,MA,"Northampton, MA",-72.64120129999999,42.3250896
Northborough,MA,"Northborough, MA",-71.6411997,42.3195556
Northbridge,MA,"Northbridge, MA",-71.6494407,42.1516323
Northfield,MA,"Northfield, MA",-72.4528885,42.6959093
Northhampton,MA,"Northhampton, MA",-72.64120129999999,42.3250896
Norton,MA,"Norton, MA",-71.1869963,41.9667703
Norwook,MA,"Norwook, MA",-71.19896949999999,42.19439089999999
Oakham,MA,"Oakham, MA",-72.0449783,42.35271050000001
Orange,MA,"Orange, MA",-72.3097914,42.590354
Orleans,MA,"Orleans, MA",-69.9897323,41.7898354
Oxford,MA,"Oxford, MA",-71.8647577,42.1167606
Palmer,MA,"Palmer, MA",-72.3286869,42.1584103
Paxton,MA,"Paxton, MA",-71.9278427,42.3114889
Peabody,MA,"Peabody, MA",-70.9286609,42.5278731
Pepperell,MA,"Pepperell, MA",-71.5884363,42.66592319999999
Phillipston,MA,"Phillipston, MA",-72.1328582,42.5486993
Pittsfield,MA,"Pittsfield, MA",-73.2453824,42.4500845
Plainfield,MA,"Plainfield, MA",-72.9162075,42.5153633
Plymouth,MA,"Plymouth, MA",-70.6672621,41.9584457
Princeton,MA,"Princeton, MA",-71.877296,42.4487019
Provincetown,MA,"Provincetown, MA",-70.1786425,42.0584412
Quincy,MA,"Quincy, MA",-71.0022705,42.2528772
Randolph,MA,"Randolph, MA",-71.042551,42.1619739
Reading,MA,"Reading, MA",-71.0952891,42.5256563
Readville,MA,"Readville, MA",-71.1299976,42.2384918
Revere,MA,"Revere, MA",-71.0119948,42.4084302
Rhees,MA,"Rhees, MA",-71.0674787,42.3623996
Richmond,MA,"Richmond, MA",-73.3676804,42.3729519
Rockland,MA,"Rockland, MA",-70.9161551,42.1306563
Rockport,MA,"Rockport, MA",-70.620363,42.6556505
Rowe,MA,"Rowe, MA",-72.899542,42.6934166
Rowley,MA,"Rowley, MA",-70.8787277,42.7167483
Roxbury,MA,"Roxbury, MA",-71.0913748,42.3151978
Royalston,MA,"Royalston, MA",-72.18786039999999,42.6775856
Ruthland,MA,"Ruthland, MA",-71.9481211,42.3695086
Rutland,MA,"Rutland, MA",-71.9481211,42.3695086
Salem,MA,"Salem, MA",-70.8967155,42.51954
Salisbury,MA,"Salisbury, MA",-70.8605982,42.84172299999999
Sandisfield,MA,"Sandisfield, MA",-73.1431637,42.1125914
Sandwich,MA,"Sandwich, MA",-70.49393169999999,41.7589615
Saugus,MA,"Saugus, MA",-71.0110473,42.4651421
Saultborough,MA,"Saultborough, MA",-71.5245087,42.3056501
Scituate,MA,"Scituate, MA",-70.7258633,42.195929
Sheffield,MA,"Sheffield, MA",-73.35514359999999,42.1099885
Shelburne,MA,"Shelburne, MA",-72.6884244,42.5898074
Shelburne Centre,MA,"Shelburne Centre, MA",-72.6906022,42.5860198
Sherborn,MA,"Sherborn, MA",-71.3697813,42.23898570000001
Shirley,MA,"Shirley, MA",-71.6495176,42.5437035
Shrewsbury,MA,"Shrewsbury, MA",-71.71284709999999,42.2959267
Somerville,MA,"Somerville, MA",-71.0994968,42.3875968
South Boston,MA,"South Boston, MA",-71.0475773,42.3381437
South Chatham,MA,"South Chatham, MA",-70.02419309999999,41.6795364
South Danvers,MA,"South Danvers, MA",-70.93212199999999,42.5750009
South Dedham,MA,"South Dedham, MA",-71.1676536,42.2436085
South Dennis,MA,"South Dennis, MA",-70.1515342,41.7020781
South Farmington,MA,"South Farmington, MA",-71.4161565,42.279286
South Gardner,MA,"South Gardner, MA",-71.998133,42.5750883
South Hadley,MA,"South Hadley, MA",-72.57479339999999,42.2591729
South Natick,MA,"South Natick, MA",-71.3161688,42.2737081
South Reading,MA,"South Reading, MA",-71.0723391,42.5039395
South Scituate,MA,"South Scituate, MA",-70.7258633,42.195929
South Sudbury,MA,"South Sudbury, MA",-71.4161725,42.3834278
South Yarmouth,MA,"South Yarmouth, MA",-70.1847413,41.6667779
Southborough,MA,"Southborough, MA",-71.5245087,42.3056501
Southbridge,MA,"Southbridge, MA",-72.0333905,42.0751065
Spencer,MA,"Spencer, MA",-71.9922867,42.2439682
Springboro,MA,"Springboro, MA",NA,NA
Springfield,MA,"Springfield, MA",-72.589811,42.1014831
Sterling,MA,"Sterling, MA",-71.76062929999999,42.4374156
Stockbridge,MA,"Stockbridge, MA",-73.3203862,42.2875874
Stoneham,MA,"Stoneham, MA",-71.0999719,42.4802469
Stoughton,MA,"Stoughton, MA",-71.10920120000002,42.1229099
Stow,MA,"Stow, MA",-71.5056199,42.4370374
Sturbridge,MA,"Sturbridge, MA",-72.0787059,42.1084122
Sunderland,MA,"Sunderland, MA",-72.5795115,42.4663727
Sutton,MA,"Sutton, MA",-71.7632878,42.1500353
Swampscott,MA,"Swampscott, MA",-70.91755619999999,42.47094370000001
Swansea,MA,"Swansea, MA",-71.1895617,41.748162
Tannton,MA,"Tannton, MA",-71.0897674,41.900101
Taunton,MA,"Taunton, MA",-71.0897674,41.900101
Templeton,MA,"Templeton, MA",-72.06757900000001,42.555644
Tewksbury,MA,"Tewksbury, MA",-71.23422479999999,42.6106478
Topsfield,MA,"Topsfield, MA",-70.9495053,42.6375941
Townsend,MA,"Townsend, MA",-71.70512649999999,42.6667718
Tyngsborough,MA,"Tyngsborough, MA",-71.4244224,42.6766696
Upton,MA,"Upton, MA",-71.6022583,42.1744878
Uxbridge,MA,"Uxbridge, MA",-71.6302532,42.07724289999999
Vineyard Haven,MA,"Vineyard Haven, MA",-70.6036395,41.4542786
Wakefield,MA,"Wakefield, MA",-71.0723391,42.5039395
Wales,MA,"Wales, MA",-72.22230069999999,42.0695393
Walpole,MA,"Walpole, MA",-71.2495096,42.1417442
Waltham,MA,"Waltham, MA",-71.2356113,42.3764852
Ware,MA,"Ware, MA",-72.2398566,42.2598457
Wareham,MA,"Wareham, MA",-70.71973419999999,41.7614511
Warwick,MA,"Warwick, MA",-72.33897429999999,42.6820293
Watertown,MA,"Watertown, MA",-71.1828321,42.3709299
Wayland,MA,"Wayland, MA",-71.3614484,42.3625953
Webster,MA,"Webster, MA",-71.88006279999999,42.05009099999999
Wellesley,MA,"Wellesley, MA",-71.29238769999999,42.296797
Wellfleet,MA,"Wellfleet, MA",-70.03097530000001,41.93054679999999
Wendell,MA,"Wendell, MA",-72.396722,42.5481852
Wenham,MA,"Wenham, MA",-70.8911612,42.604261
West,MA,"West, MA",-71.3824374,42.4072107
West Boylston,MA,"West Boylston, MA",-71.78562699999999,42.3667589
West Brookfield,MA,"West Brookfield, MA",-72.14116419999999,42.2353463
West Cambridge,MA,"West Cambridge, MA",-71.13593929999999,42.3774469
West Dennis,MA,"West Dennis, MA",-70.17279669999999,41.6645557
West Medway,MA,"West Medway, MA",-71.3967256,42.1417641
West Newbury,MA,"West Newbury, MA",-70.989778,42.8014795
West Roxbury,MA,"West Roxbury, MA",-71.1626756,42.2797554
West Scituate,MA,"West Scituate, MA",-70.7258633,42.195929
West Springfield,MA,"West Springfield, MA",-72.6203675,42.1070383
West Tisbury,MA,"West Tisbury, MA",-70.6744723,41.38122449999999
Westboro,MA,"Westboro, MA",-71.61612939999999,42.2695216
Westborough,MA,"Westborough, MA",-71.61612939999999,42.2695216
Westfield,MA,"Westfield, MA",-72.749538,42.1250929
Westford,MA,"Westford, MA",-71.4378411,42.5792583
Westminster,MA,"Westminster, MA",-71.91063079999999,42.5459227
Weston,MA,"Weston, MA",-71.3031132,42.3667625
Weymouth,MA,"Weymouth, MA",-70.94103559999999,42.2180724
Whately,MA,"Whately, MA",-72.6348118,42.4398101
Whitinsville,MA,"Whitinsville, MA",-71.6661783,42.1112075
Wilbraham,MA,"Wilbraham, MA",-72.431586,42.1237206
Williamstown,MA,"Williamstown, MA",-73.20368979999999,42.7120196
Wilmington,MA,"Wilmington, MA",-71.1724467,42.5481714
Winchendon,MA,"Winchendon, MA",-72.0439529,42.6871009
Winchester,MA,"Winchester, MA",-71.1369959,42.452303
Woburn,MA,"Woburn, MA",-71.1522765,42.4792618
Worcester,MA,"Worcester, MA",-71.8022934,42.2625932
Wrentham,MA,"Wrentham, MA",-71.3281114,42.0667652
Yarmouth,MA,"Yarmouth, MA",-70.2286681,41.7056291
All Hallows?,MD,"All Hallows?, MD",-76.5812207,38.9106343
Ann Arundel County,MD,"Ann Arundel County, MD",-76.5488232,38.9530109
Annapolis,MD,"Annapolis, MD",-76.4921829,38.9784453
baltimore,MD,"baltimore, MD",-76.6121893,39.2903848
Baltimore,MD,"Baltimore, MD",-76.6121893,39.2903848
Calvert Co.,MD,"Calvert Co., MD",-76.5025742,38.49495030000001
Calvert County,MD,"Calvert County, MD",-76.5025742,38.49495030000001
Cambridge,MD,"Cambridge, MD",-76.0788292,38.5631744
Carroll,MD,"Carroll, MD",-77.0564464,39.5423418
Carrollton,MD,"Carrollton, MD",-76.91692379999999,39.5570469
Charles County,MD,"Charles County, MD",-77.10249019999999,38.5221781
Charlotte Hall,MD,"Charlotte Hall, MD",-76.778021999999993,38.4809565
Chestertown,MD,"Chestertown, MD",-76.0690036,39.21886629999999
Chestertown?,MD,"Chestertown?, MD",-76.0690036,39.21886629999999
Church Creek,MD,"Church Creek, MD",-76.1521643,38.5020649
College Station,MD,"College Station, MD",-96.289794,30.581083
Cumberland,MD,"Cumberland, MD",-78.7625185,39.6528654
Dorchester,MD,"Dorchester, MD",-76.17837390000001,38.4152819
Dorchester County,MD,"Dorchester County, MD",-76.17837390000001,38.4152819
Durham?,MD,"Durham?, MD",-75.05239329999999,39.7783543
Easton,MD,"Easton, MD",-76.0763305,38.7742826
Ellicot City,MD,"Ellicot City, MD",-76.7983067,39.2673283
Ellicott City,MD,"Ellicott City, MD",-76.7983067,39.2673283
Ellicott Mills,MD,"Ellicott Mills, MD",-76.7983067,39.2673283
Ellicott's Mills,MD,"Ellicott's Mills, MD",-76.7983067,39.2673283
Emmetsburg,MD,"Emmetsburg, MD",-77.32693069999999,39.7045417
Emmettsburg,MD,"Emmettsburg, MD",-77.32693069999999,39.7045417
Frederick,MD,"Frederick, MD",-77.4105409,39.41426879999999
Hagerstown,MD,"Hagerstown, MD",-77.71999319999999,39.6417629
Herring Creek,MD,"Herring Creek, MD",-76.54134479999999,38.1862382
Ilchester,MD,"Ilchester, MD",-76.7640977,39.2507307
Kent County,MD,"Kent County, MD",-76.1319953,39.2713804
Lonacoming,MD,"Lonacoming, MD",-78.98030399999999,39.5659228
New Windsor,MD,"New Windsor, MD",-77.1080376,39.5420455
Oakland,MD,"Oakland, MD",-79.4067116,39.4078747
Pickamaxon,MD,"Pickamaxon, MD",NA,NA
Rockville,MD,"Rockville, MD",-77.1527578,39.0839973
Salisbury,MD,"Salisbury, MD",-75.5993692,38.3606736
Sandy Spring,MD,"Sandy Spring, MD",-77.0262286,39.1495278
Snow Hill?,MD,"Snow Hill?, MD",-75.39269589999999,38.1770634
Somerset,MD,"Somerset, MD",-77.0960893,38.9659438
Somerset Co.,MD,"Somerset Co., MD",-75.8533954,38.0862333
South River?,MD,"South River?, MD",-76.5352094,38.9357449
South Sassafres?,MD,"South Sassafres?, MD",-75.7738473,39.3752128
Stepney?,MD,"Stepney?, MD",-76.5608955,38.9282896
Talbot County,MD,"Talbot County, MD",-76.1319953,38.7803973
Westminster,MD,"Westminster, MD",-76.9958149,39.5753791
Woodstock,MD,"Woodstock, MD",-76.872796,39.328064
NA,MD,"NA, MD",-76.64127119999999,39.0457549
Acton (York County),ME,"Acton (York County), ME",-70.9277544,43.5233821
Alfred,ME,"Alfred, ME",-70.7161687,43.4764994
Allen's Mills,ME,"Allen's Mills, ME",-70.08117279999999,44.7161706
Andover,ME,"Andover, ME",-70.7511813,44.63561660000001
Atkinson,ME,"Atkinson, ME",-69.0910809,45.1868588
Auburn,ME,"Auburn, ME",-70.2311655,44.0978509
Augusta,ME,"Augusta, ME",-69.7794897,44.3106241
Bangor,ME,"Bangor, ME",-68.77781379999999,44.80118210000001
Bar Harbor,ME,"Bar Harbor, ME",-68.2039123,44.3876119
Bath,ME,"Bath, ME",-69.82060229999999,43.9106353
Belfast,ME,"Belfast, ME",-69.0064234,44.4259092
Bethel,ME,"Bethel, ME",-70.7898806,44.4044586
Biddeford,ME,"Biddeford, ME",-70.45338439999999,43.4925843
Biddleford,ME,"Biddleford, ME",-70.45338439999999,43.4925843
Blue Hill,ME,"Blue Hill, ME",-68.5866904,44.4139662
Bolster's Mills,ME,"Bolster's Mills, ME",-70.59728280000002,44.1156261
Boothbay,ME,"Boothbay, ME",-69.6337364,43.8762865
Brewer,ME,"Brewer, ME",-68.7614246,44.7967378
Bristol,ME,"Bristol, ME",-69.4954131,43.9248053
Brunswick,ME,"Brunswick, ME",-69.9669961,43.9140162
Bucksport,ME,"Bucksport, ME",-68.7701225,44.6289696
Buckstown,ME,"Buckstown, ME",NA,NA
Buxton,ME,"Buxton, ME",-70.5189422,43.6378583
Calais,ME,"Calais, ME",-67.27860380000001,45.1889633
Camden,ME,"Camden, ME",-69.0647838,44.2097928
Cape Elizabeth,ME,"Cape Elizabeth, ME",-70.2000467,43.563696
Castine,ME,"Castine, ME",-68.7989582,44.3888609
Cherryfield,ME,"Cherryfield, ME",-67.9258366,44.6072991
Chesterville,ME,"Chesterville, ME",-70.0861692,44.55117449999999
Corinna,ME,"Corinna, ME",-69.2617131,44.921174
Cornish,ME,"Cornish, ME",-70.8011731,43.80479769999999
Danforth,ME,"Danforth, ME",-67.86834499999999,45.6603404
Danville,ME,"Danville, ME",-70.2656097,44.02229639999999
Deering,ME,"Deering, ME",-70.2983825,43.6759147
Dexter,ME,"Dexter, ME",-69.2898156,45.02391799999999
Dirigo,ME,"Dirigo, ME",-70.4521048,44.5405302
Dover,ME,"Dover, ME",-69.22708209999999,45.1833421
Dresden,ME,"Dresden, ME",-69.7242215,44.1070945
East Machias,ME,"East Machias, ME",-67.3900603,44.7391789
East Wilton,ME,"East Wilton, ME",-70.19283899999999,44.6158945
Eastbrook,ME,"Eastbrook, ME",-68.26446179999999,44.6786857
Eastport,ME,"Eastport, ME",-66.98997849999999,44.9061906
Eliot,ME,"Eliot, ME",-70.8000544,43.1531427
Ellsworth,ME,"Ellsworth, ME",-68.4194641,44.5434095
Fairfield,ME,"Fairfield, ME",-69.59864689999999,44.5884052
Falmouth,ME,"Falmouth, ME",-70.2601759,43.7435343
Farmington,ME,"Farmington, ME",-70.1512169,44.67049979999999
Fort Preble,ME,"Fort Preble, ME",-70.2259813,43.6491177
Foxcroft,ME,"Foxcroft, ME",-69.22708209999999,45.1833421
Freeport,ME,"Freeport, ME",-70.1031201,43.8570065
Fryeburg,ME,"Fryeburg, ME",-70.9806357,44.0164329
Gardiner,ME,"Gardiner, ME",-69.77532219999999,44.2300698
Gardner,ME,"Gardner, ME",-69.77532219999999,44.2300698
Gorham,ME,"Gorham, ME",-70.44422519999999,43.67953139999999
Greathouse?,ME,"Greathouse?, ME",-77.24662210000001,17.9317723
Hallowell,ME,"Hallowell, ME",-69.7908786,44.2859022
Harrison,ME,"Harrison, ME",-70.6792289,44.1103479
Houlton,ME,"Houlton, ME",-67.8402316,46.1261806
Kennebunk,ME,"Kennebunk, ME",-70.54399,43.3845306
Kittery,ME,"Kittery, ME",-70.73613700000001,43.0881256
Kittery and York,ME,"Kittery and York, ME",-70.73613700000001,43.0881256
Lewiston,ME,"Lewiston, ME",-70.21477639999999,44.100351
Lewiston and Danville,ME,"Lewiston and Danville, ME",-70.25821839999999,44.0420735
Lewiston Falls,ME,"Lewiston Falls, ME",-70.2227211,44.0978181
Lewsiton,ME,"Lewsiton, ME",-70.21477639999999,44.100351
Lisbon,ME,"Lisbon, ME",-70.1043704,44.0316013
Livermore,ME,"Livermore, ME",-70.2081176,44.4078297
Machias,ME,"Machias, ME",-67.461376,44.71507889999999
New Gloucester,ME,"New Gloucester, ME",-70.2825536,43.962853
New Sharon,ME,"New Sharon, ME",-70.0154885,44.6393784
Newport,ME,"Newport, ME",-69.2444565,44.8557175
Norridgewock,ME,"Norridgewock, ME",-69.7905955,44.7130794
North Yarmouth,ME,"North Yarmouth, ME",-70.2388706,43.85735
Norway,ME,"Norway, ME",-70.5448096,44.2139566
Orno,ME,"Orno, ME",-68.6719411,44.8831125
Ossington,ME,"Ossington, ME",NA,NA
Paris,ME,"Paris, ME",-70.5006152,44.2597917
Parsonsfield,ME,"Parsonsfield, ME",-70.9286755,43.72702140000001
Pembroke,ME,"Pembroke, ME",-67.1619293,44.9536891
Portland,ME,"Portland, ME",-70.2553259,43.66147100000001
Prentiss,ME,"Prentiss, ME",-68.081681,45.4917309
Presque Isle,ME,"Presque Isle, ME",-68.0158615,46.68115299999999
Richmond,ME,"Richmond, ME",-69.80257879999999,44.0880682
Robbinston,ME,"Robbinston, ME",-67.10942829999999,45.0781324
Rockland,ME,"Rockland, ME",-69.1089293,44.1036914
Saccarappa,ME,"Saccarappa, ME",-70.3711617,43.6770252
Saco,ME,"Saco, ME",-70.4428286,43.5009176
Saco-Biddeford,ME,"Saco-Biddeford, ME",-70.4497928,43.4921364
Sanford,ME,"Sanford, ME",-70.7742804,43.4391627
Sangerville,ME,"Sangerville, ME",-69.357317,45.1645956
Searsport,ME,"Searsport, ME",-68.9241744,44.4583848
Sedgewick,ME,"Sedgewick, ME",-68.6155184,44.3040651
Sidney,ME,"Sidney, ME",-69.72262479999999,44.4530868
Skowhegan,ME,"Skowhegan, ME",-69.7193803,44.76503659999999
South Berwick,ME,"South Berwick, ME",-70.80950179999999,43.2345292
Thomaston,ME,"Thomaston, ME",-69.1816955,44.0789574
Togus,ME,"Togus, ME",-69.7030994,44.2745139
Turner,ME,"Turner, ME",-70.2561671,44.2564588
Union,ME,"Union, ME",-69.293927,44.2296917
Waldoboro,ME,"Waldoboro, ME",-69.37560169999999,44.0952725
"Waldoboro, Warren and Thomaston",ME,"Waldoboro, Warren and Thomaston, ME",-69.1603092,44.0647028
Warren,ME,"Warren, ME",-69.25314639999999,44.116967
Warren and Thomaston,ME,"Warren and Thomaston, ME",-69.10887699999999,44.1132883
Washburn,ME,"Washburn, ME",-68.1567015,46.7882172
Washington,ME,"Washington, ME",-69.3676576,44.2735583
Waterville,ME,"Waterville, ME",-69.6317121,44.5520105
Waverly,ME,"Waverly, ME",-69.38060349999999,44.7950639
Wayne,ME,"Wayne, ME",-70.06616489999999,44.3486793
Wells,ME,"Wells, ME",-70.5805209,43.3222329
Westbrook,ME,"Westbrook, ME",-70.3711617,43.6770252
Winterport,ME,"Winterport, ME",-68.8449792,44.6377864
Winthrop,ME,"Winthrop, ME",-69.9769721,44.3050332
Wiscasset,ME,"Wiscasset, ME",-69.665583,44.0028921
Yarmouth,ME,"Yarmouth, ME",-70.18672269999999,43.8006208
NA,ME,"NA, ME",-104.9923025,39.7413684
Ada,MI,"Ada, MI",-85.4954803,42.960727
Adams,MI,"Adams, MI",-84.52578299999999,41.9708795
Addison,MI,"Addison, MI",-84.3471684,41.986434
Adgansee,MI,"Adgansee, MI",-84.87763919999999,41.8651724
Adrian,MI,"Adrian, MI",-84.03716589999999,41.8975471
Adrian City,MI,"Adrian City, MI",-84.03716589999999,41.8975471
Advian,MI,"Advian, MI",-84.03716589999999,41.8975471
Akron,MI,"Akron, MI",-83.5141259,43.5680758
Alaiedon,MI,"Alaiedon, MI",-84.41726659999999,42.630465
Alamo,MI,"Alamo, MI",-85.7051116,42.3725805
Albion,MI,"Albion, MI",-84.7530304,42.243097
Albion College,MI,"Albion College, MI",-84.7451775,42.2440064
Algoma,MI,"Algoma, MI",-85.62292959999999,43.1492928
Allegan,MI,"Allegan, MI",-85.8553031,42.5291989
Allen,MI,"Allen, MI",-84.7677394,41.9569915
Allendale,MI,"Allendale, MI",-85.9540407,42.97219339999999
Allison,MI,"Allison, MI",-83.34024749999999,42.52044739999999
Alma,MI,"Alma, MI",-84.6597274,43.3789199
Almena,MI,"Almena, MI",-85.8281458,42.2984842
Almer,MI,"Almer, MI",-83.4003037,43.5431537
Almont,MI,"Almont, MI",-83.0449347,42.92058420000001
Alpena,MI,"Alpena, MI",-83.4327528,45.0616794
Alpine,MI,"Alpine, MI",-85.71438529999999,43.0662253
Amboy,MI,"Amboy, MI",-84.59557319999999,41.7233115
Ann Arbor,MI,"Ann Arbor, MI",-83.7430378,42.2808256
Ann Arbor City,MI,"Ann Arbor City, MI",-83.7430378,42.2808256
Antrim,MI,"Antrim, MI",-85.1769095,44.9730441
Antwerp,MI,"Antwerp, MI",-85.80766,42.1992857
Arbela,MI,"Arbela, MI",-83.6561215,43.2502773
Arcadia,MI,"Arcadia, MI",-86.2353862,44.4919144
Argentine,MI,"Argentine, MI",-83.8685072,42.8361329
Arlington,MI,"Arlington, MI",-86.05296039999999,42.2867499
Armada,MI,"Armada, MI",-82.8843722,42.8441964
Ash,MI,"Ash, MI",-83.2265961,42.5804438
Ashland,MI,"Ashland, MI",-85.8690933,43.3515379
Assyria,MI,"Assyria, MI",-85.1271907,42.4672272
Athens,MI,"Athens, MI",-85.2347051,42.0886576
Atkins,MI,"Atkins, MI",-82.5768666,43.0630836
Atlas,MI,"Atlas, MI",-83.528342,42.9338612
Attica,MI,"Attica, MI",-83.1434573,43.0276207
Augusta,MI,"Augusta, MI",-85.35222189999999,42.3364294
Aurelius,MI,"Aurelius, MI",-84.54318669999999,42.55838019999999
Austin,MI,"Austin, MI",-82.994114,44.04612530000001
Avon,MI,"Avon, MI",-85.69018059999999,43.0483065
Bainbridge,MI,"Bainbridge, MI",-86.2767995,42.1167965
Baltimore,MI,"Baltimore, MI",-82.7368616,42.6811436
Bangor,MI,"Bangor, MI",-86.11307939999999,42.3125355
Bartlett,MI,"Bartlett, MI",-85.0941229,45.1381416
Batavia,MI,"Batavia, MI",-85.1271907,41.9552253
Bath,MI,"Bath, MI",-84.4485591,42.8187367
Battle Creek,MI,"Battle Creek, MI",-85.17971419999999,42.3211522
Bay City,MI,"Bay City, MI",-83.8888647,43.5944677
Bear Lake,MI,"Bear Lake, MI",-86.14814299999999,44.4208349
Bedford,MI,"Bedford, MI",-83.5885144,41.760608
Bellevue,MI,"Bellevue, MI",-85.0180464,42.4433716
Bengal,MI,"Bengal, MI",-84.6688348,42.9926576
Bennington,MI,"Bennington, MI",-84.2278796,42.9130799
Benona,MI,"Benona, MI",-86.4794359,43.6026691
Benton,MI,"Benton, MI",-83.7049498,42.7978061
Berlin,MI,"Berlin, MI",-82.9164749,42.9384066
Berrien,MI,"Berrien, MI",-86.7416374,42.0320742
Bertrand,MI,"Bertrand, MI",-86.3680869,41.7929019
Bethany,MI,"Bethany, MI",-84.54318669999999,43.411528
Bethel,MI,"Bethel, MI",-85.1271907,41.8363717
Big Prairie,MI,"Big Prairie, MI",-85.62292959999999,43.4963468
Big Rapids,MI,"Big Rapids, MI",-85.4836557,43.6980782
Bingham,MI,"Bingham, MI",-85.6640365,44.899234
Birch,MI,"Birch, MI",-83.7941309,43.2508585
Birmingham,MI,"Birmingham, MI",-83.21131919999999,42.5467012
Blackman,MI,"Blackman, MI",-84.4592701,42.2799168
Blendon,MI,"Blendon, MI",-85.95089229999999,42.8897472
Blissfield,MI,"Blissfield, MI",-83.8624411,41.8325486
Bloomer,MI,"Bloomer, MI",-84.87763919999999,43.1570732
Bloomfield,MI,"Bloomfield, MI",-83.2827093,42.5793103
Bloomingdale,MI,"Bloomingdale, MI",-85.95696749999999,42.3828129
Blumfield,MI,"Blumfield, MI",-83.7411631,43.4472926
Boston,MI,"Boston, MI",-83.4027844,42.1626843
Bowen Mills,MI,"Bowen Mills, MI",-85.5188184,42.6553368
Bowne,MI,"Bowne, MI",-85.37562489999999,42.8290778
Brady,MI,"Brady, MI",-85.45818589999999,42.1268486
Brant,MI,"Brant, MI",-84.2489525,43.2430662
Bridgehampton,MI,"Bridgehampton, MI",-82.713132,43.4630538
Bridgeport,MI,"Bridgeport, MI",-83.88163639999999,43.3594696
Bridgewater,MI,"Bridgewater, MI",-83.9532571,42.1363172
Brighton,MI,"Brighton, MI",-83.7802214,42.5294773
Brockway,MI,"Brockway, MI",-82.8425216,43.1250863
Bronson,MI,"Bronson, MI",-85.19469629999999,41.8722716
Brookfield,MI,"Brookfield, MI",-84.79420909999999,42.4526037
Brooks,MI,"Brooks, MI",-85.7461548,43.4240742
Brown,MI,"Brown, MI",-82.9896604,43.2122486
Brownstown,MI,"Brownstown, MI",-83.2572332,42.1261157
Bruce,MI,"Bruce, MI",-83.03613759999999,42.8467589
Buchanan,MI,"Buchanan, MI",-86.3611248,41.8272684
Buel,MI,"Buel, MI",-82.713132,43.3095052
Buena,MI,"Buena, MI",-83.8863428,43.4508281
Bunkerhill,MI,"Bunkerhill, MI",-84.2910759,42.4678405
Burch Run,MI,"Burch Run, MI",-83.7941309,43.2508585
Burchville,MI,"Burchville, MI",-82.50775929999999,43.1132642
Burlington,MI,"Burlington, MI",-85.07969880000002,42.1067125
Burns,MI,"Burns, MI",-83.9744262,42.8223201
Burnside,MI,"Burnside, MI",-83.05761559999999,43.2154902
Burr,MI,"Burr, MI",-85.31858989999999,41.8472719
Burton,MI,"Burton, MI",-83.6163423,42.99947179999999
Bushnell,MI,"Bushnell, MI",-85.0025539,43.1625919
Butler,MI,"Butler, MI",-84.87763919999999,42.02346319999999
Byron,MI,"Byron, MI",-83.9444027,42.8228091
Caledonia,MI,"Caledonia, MI",-85.5166864,42.7891985
California,MI,"California, MI",-84.87763919999999,41.78585289999999
Calumet,MI,"Calumet, MI",-88.45400599999999,47.24659219999999
Calvin,MI,"Calvin, MI",-85.95089229999999,41.8683095
Cambria,MI,"Cambria, MI",-84.6688348,41.8556792
Cambridge,MI,"Cambridge, MI",-84.20679919999999,42.0310851
Camden,MI,"Camden, MI",-84.7577335,41.7522716
Campbell,MI,"Campbell, MI",-85.2515482,42.8240067
Cannon,MI,"Cannon, MI",-85.49941919999999,43.0670601
Canton,MI,"Canton, MI",-83.48211599999999,42.3086444
Capac,MI,"Capac, MI",-82.93447909999999,43.0125509
Carlton,MI,"Carlton, MI",-83.3907658,42.0592101
Carmel,MI,"Carmel, MI",-84.9193082,42.5365399
Cascade,MI,"Cascade, MI",-85.5296527,42.9129268
Casco,MI,"Casco, MI",-82.669947,42.76561299999999
Casinovia,MI,"Casinovia, MI",-85.79060059999999,43.2347449
Cassopolis,MI,"Cassopolis, MI",-86.0100068,41.9117133
Castleton,MI,"Castleton, MI",-85.1271907,42.623771
Cato,MI,"Cato, MI",-85.2515482,43.443107
Cazenovia,MI,"Cazenovia, MI",-75.8336952,42.9462929
Centreville,MI,"Centreville, MI",-85.5283225,41.9233827
Charleston,MI,"Charleston, MI",-85.37562489999999,42.2811597
Charleviox,MI,"Charleviox, MI",-85.2584004,45.3180632
Charlotte,MI,"Charlotte, MI",-84.83582109999999,42.5636478
Cheshire,MI,"Cheshire, MI",-85.95089229999999,42.4600216
Chesseming,MI,"Chesseming, MI",NA,NA
Chester,MI,"Chester, MI",-85.8690933,43.158429
Chesterfield,MI,"Chesterfield, MI",-82.79941939999999,42.6960659
Chickaming,MI,"Chickaming, MI",-86.61734469999999,41.8564175
China,MI,"China, MI",-82.5402275,42.7572207
Chippewa,MI,"Chippewa, MI",-84.59320939999999,46.3117082
Clarence,MI,"Clarence, MI",-84.79420909999999,42.3741594
Clarendon,MI,"Clarendon, MI",-84.87763919999999,42.1024341
Clay,MI,"Clay, MI",-82.5918153,42.6107495
Clayton,MI,"Clayton, MI",-84.2363347,41.8633809
Climax,MI,"Climax, MI",-85.33499479999999,42.2383765
Clinton,MI,"Clinton, MI",-83.9716095,42.0719866
Coe,MI,"Coe, MI",-84.6688348,43.4943005
Cohoctah (Cohocta),MI,"Cohoctah (Cohocta), MI",-83.99558789999999,42.7261394
Coldwater,MI,"Coldwater, MI",-85.00052149999999,41.9403263
Colon,MI,"Colon, MI",-85.3249817,41.9583822
Columbia,MI,"Columbia, MI",-92.3340724,38.9517053
Columbus,MI,"Columbus, MI",-82.669947,42.8432693
Commerce,MI,"Commerce, MI",-83.48823469999999,42.5750853
Comstock,MI,"Comstock, MI",-85.45818589999999,42.2844539
Concord,MI,"Concord, MI",-84.6430206,42.1778187
Constantine,MI,"Constantine, MI",-85.6686026,41.8411603
Convis,MI,"Convis, MI",-85.0025539,42.3834206
Conway,MI,"Conway, MI",-84.0801613,42.7305418
Cooper,MI,"Cooper, MI",-85.58179109999999,42.3679028
Cooper Harbor,MI,"Cooper Harbor, MI",-87.8903203,47.4683113
Corunna,MI,"Corunna, MI",-84.117745,42.98197280000001
Cotterville,MI,"Cotterville, MI",-82.53703010000001,42.6923207
Courtland,MI,"Courtland, MI",-85.49941919999999,43.144509
Crockery,MI,"Crockery, MI",-86.0733498,43.0881546
Croton,MI,"Croton, MI",-85.62292959999999,43.4194319
Crystal,MI,"Crystal, MI",-84.87763919999999,43.2343398
Dallas,MI,"Dallas, MI",-84.79420909999999,42.998424
Danby,MI,"Danby, MI",-84.87763919999999,42.8079095
Davison,MI,"Davison, MI",-83.5180063,43.0347491
Dearborn,MI,"Dearborn, MI",-83.17631449999999,42.3222599
Decatur,MI,"Decatur, MI",-85.97445689999999,42.1080979
Deerfield,MI,"Deerfield, MI",-83.77882830000001,41.888936
Delhi,MI,"Delhi, MI",-84.5327038,42.6262669
Delta,MI,"Delta, MI",-84.6620322,42.7265775
Denmark,MI,"Denmark, MI",-83.6561215,43.4426042
Denver,MI,"Denver, MI",-85.9917437,43.58664419999999
Detriot,MI,"Detriot, MI",-83.0457538,42.331427
Detroit,MI,"Detroit, MI",-83.0457538,42.331427
Dewitt,MI,"Dewitt, MI",-84.56914870000001,42.842256
Dexter,MI,"Dexter, MI",-83.8885552,42.33836970000001
Donn,MI,"Donn, MI",-83.7276716,42.2843246
Dover,MI,"Dover, MI",-84.16461629999999,41.87079440000001
Dowagiac,MI,"Dowagiac, MI",-86.10862279999999,41.9842123
Dryden,MI,"Dryden, MI",-83.12382649999999,42.9461395
Dundee,MI,"Dundee, MI",-83.6596596,41.9572676
Duplain,MI,"Duplain, MI",-84.41726659999999,43.05817039999999
Dwight,MI,"Dwight, MI",-82.92864279999999,43.9723794
Eagle,MI,"Eagle, MI",-84.7902953,42.810055
East Saginaw,MI,"East Saginaw, MI",-83.9508068,43.4194699
Easton,MI,"Easton, MI",-85.1375645,43.0038138
Eaton,MI,"Eaton, MI",-84.7733325,42.5886496
Eaton Rapids,MI,"Eaton Rapids, MI",-84.65581399999999,42.5092039
Eckford,MI,"Eckford, MI",-84.87763919999999,42.2206719
Ecorse,MI,"Ecorse, MI",-83.1457569,42.2444833
Elba,MI,"Elba, MI",-83.4003037,43.0040349
Elk Rapids,MI,"Elk Rapids, MI",-85.4164605,44.8955578
Emerson,MI,"Emerson, MI",-84.54318669999999,43.3345606
Emmet,MI,"Emmet, MI",-82.7649266,42.9905832
Ensley,MI,"Ensley, MI",-85.62292959999999,43.34239789999999
Erie,MI,"Erie, MI",-83.4968452,41.7939829
Erin,MI,"Erin, MI",-84.162165,42.013863
Essex,MI,"Essex, MI",-84.6688348,43.0701592
Essexville,MI,"Essexville, MI",-83.8419193,43.6153004
Eureka,MI,"Eureka, MI",-85.26189869999999,43.1446062
Everett,MI,"Everett, MI",-85.7461548,43.5009898
Evergreen,MI,"Evergreen, MI",-83.05761559999999,43.5611218
Exeter,MI,"Exeter, MI",-83.4856913,42.03188249999999
Fabius,MI,"Fabius, MI",-85.7051116,41.9386707
Fair Grove,MI,"Fair Grove, MI",-83.54329249999999,43.5236323
Fairfield,MI,"Fairfield, MI",-84.0801613,41.7475551
Fairplan,MI,"Fairplan, MI",-86.455855,42.0869852
Farmington,MI,"Farmington, MI",-83.37632180000001,42.4644795
Fawn River,MI,"Fawn River, MI",-85.6603739,41.8457601
Fayette,MI,"Fayette, MI",-86.6689968,45.7178999
Fenton,MI,"Fenton, MI",-83.7049498,42.7978061
Fillmore,MI,"Fillmore, MI",-86.0631561,42.7085272
Flint,MI,"Flint, MI",-83.6874562,43.0125274
Flint City,MI,"Flint City, MI",-83.6874562,43.0125274
Florence,MI,"Florence, MI",-85.58179109999999,41.8547298
Flowerfield,MI,"Flowerfield, MI",-85.7051116,42.0178261
Flushing,MI,"Flushing, MI",-83.8510732,43.0630833
Forest,MI,"Forest, MI",-83.528342,43.165979
Forester,MI,"Forester, MI",-82.6159271,43.5238342
Frankenmuth,MI,"Frankenmuth, MI",-83.7380194,43.331691
Frankfort,MI,"Frankfort, MI",-86.23453959999999,44.6336096
Franklin,MI,"Franklin, MI",-83.30604319999999,42.5222567
Fredonia,MI,"Fredonia, MI",-85.0025539,42.1867919
Freedom,MI,"Freedom, MI",-83.9532571,42.2150427
Fremon,MI,"Fremon, MI",-85.9420013,43.4675173
Fremont,MI,"Fremont, MI",-85.9420013,43.4675173
Ft. Brady,MI,"Ft. Brady, MI",-84.3634015,46.4921067
Fulton,MI,"Fulton, MI",-85.3536207,42.114957
Gaines,MI,"Gaines, MI",-83.9141254,42.8725303
Galien,MI,"Galien, MI",-86.4991852,41.7981008
Ganges,MI,"Ganges, MI",-86.210319,42.5769685
Genesee,MI,"Genesee, MI",-83.6135572,43.0935147
Georgetown,MI,"Georgetown, MI",-85.8299053,42.8999725
Gilead,MI,"Gilead, MI",-85.116815,41.7863322
Gilford,MI,"Gilford, MI",-83.6561215,43.5193276
Girard,MI,"Girard, MI",-85.0025539,42.0289635
Glen Arbor,MI,"Glen Arbor, MI",-85.98885279999999,44.8977314
Goodland,MI,"Goodland, MI",-83.05761559999999,43.0997482
Grand  Blanc,MI,"Grand  Blanc, MI",-83.6299518,42.9275277
Grand Blanc,MI,"Grand Blanc, MI",-83.6299518,42.9275277
Grand Rapids,MI,"Grand Rapids, MI",-85.6680863,42.9633599
Grand Rapids City,MI,"Grand Rapids City, MI",-85.6680863,42.9633599
Grass Lake,MI,"Grass Lake, MI",-84.20395429999999,42.2548238
Grattan,MI,"Grattan, MI",-85.37562489999999,43.062132
Green,MI,"Green, MI",-83.76728299999999,42.443471
Green Oak,MI,"Green Oak, MI",-83.7411631,42.4782758
Greenbush,MI,"Greenbush, MI",-83.357567,44.56395939999999
Greenfield,MI,"Greenfield, MI",-83.23420589999999,42.3034513
Greenland,MI,"Greenland, MI",-89.05569940000001,46.8020307
Greenville,MI,"Greenville, MI",-85.2527987,43.1775314
Greenwood,MI,"Greenwood, MI",-82.713132,43.1169057
Grosssepoint,MI,"Grosssepoint, MI",-82.9118591,42.3861485
Groveland,MI,"Groveland, MI",-83.528342,42.8174048
Gun Plain,MI,"Gun Plain, MI",-85.58179109999999,42.4856255
Hadley,MI,"Hadley, MI",-83.4003037,42.9265459
Hagan,MI,"Hagan, MI",-84.4715045,42.7321343
Hamburg,MI,"Hamburg, MI",-83.8510786,42.4641977
Hamilton,MI,"Hamilton, MI",-85.9987285,42.671257
Hampton,MI,"Hampton, MI",-83.7836403,43.6411989
Hamtramck,MI,"Hamtramck, MI",-83.0496438,42.3928151
Hancock,MI,"Hancock, MI",-88.5809563,47.1268714
Handy,MI,"Handy, MI",-84.0801613,42.6525748
Hanover,MI,"Hanover, MI",-84.5519003,42.1011532
Harrison,MI,"Harrison, MI",-84.7994675,44.0191862
Harrisville,MI,"Harrisville, MI",-83.2946891,44.6564022
Hartford,MI,"Hartford, MI",-86.1666876,42.2067051
Hartland,MI,"Hartland, MI",-83.7507315,42.6315066
Harvey,MI,"Harvey, MI",-87.3543071,46.4946573
Hazleton,MI,"Hazleton, MI",-75.9671199,40.9613814
Heath,MI,"Heath, MI",-85.9987285,42.671257
Henrietta,MI,"Henrietta, MI",-84.2910759,42.3894607
Hickory Corners,MI,"Hickory Corners, MI",-85.3760882,42.4415829
Highland,MI,"Highland, MI",-83.6175677,42.6380014
Hillsdale,MI,"Hillsdale, MI",-84.6305101,41.9200472
Holland,MI,"Holland, MI",-86.1089301,42.7875235
Holland City,MI,"Holland City, MI",-86.1089301,42.7875235
Holley,MI,"Holley, MI",-83.6277255,42.7919727
Holmes,MI,"Holmes, MI",-87.6920967,45.5396966
Homer,MI,"Homer, MI",-84.80886,42.145877
Hope,MI,"Hope, MI",-84.3331694,43.784365
Hopkins,MI,"Hopkins, MI",-85.7603024,42.6236425
Houghton,MI,"Houghton, MI",-88.5694182,47.12113309999999
Howard,MI,"Howard, MI",-85.467815,43.3955831
Howell,MI,"Howell, MI",-83.9293952,42.6072552
Hudson,MI,"Hudson, MI",-84.35383589999999,41.8550479
Huron,MI,"Huron, MI",-82.82097399999999,43.9466791
Ida,MI,"Ida, MI",-83.57096399999999,41.8786731
Imlay,MI,"Imlay, MI",-83.01465259999999,43.0198219
Independence,MI,"Independence, MI",-83.3830529,42.7400888
Indian Fields,MI,"Indian Fields, MI",-83.4003037,43.46649170000001
Ingersoll,MI,"Ingersoll, MI",-84.2489525,43.51234059999999
Ingham,MI,"Ingham, MI",-84.3542049,42.6468943
Ionia,MI,"Ionia, MI",-85.07111739999999,42.9872547
Iosco,MI,"Iosco, MI",-83.63862259999999,44.3340462
Ira,MI,"Ira, MI",-82.669947,42.6878396
Irving,MI,"Irving, MI",-85.37562489999999,42.712152
Ishpeming,MI,"Ishpeming, MI",-87.6676358,46.4885469
Jackson,MI,"Jackson, MI",-84.40134619999999,42.245869
Jackson City,MI,"Jackson City, MI",-84.40134619999999,42.245869
Jamestown,MI,"Jamestown, MI",-85.8425336,42.82558239999999
Jefferson,MI,"Jefferson, MI",-84.54318669999999,41.849783
Jerome,MI,"Jerome, MI",-84.4693935,42.0269888
Johnstown,MI,"Johnstown, MI",-85.2515482,42.4724397
Jonesville,MI,"Jonesville, MI",-84.6619015,41.9842131
Juniatta,MI,"Juniatta, MI",-83.528342,43.4354397
Kalamazoo,MI,"Kalamazoo, MI",-85.5872286,42.2917069
Kalamo,MI,"Kalamo, MI",-85.0025539,42.5401965
Keeler,MI,"Keeler, MI",-86.15482689999999,42.1127832
Keene,MI,"Keene, MI",-85.2515482,42.9794925
Kenockee,MI,"Kenockee, MI",-82.713132,43.03965970000001
Kimball,MI,"Kimball, MI",-82.5402275,42.9511374
Kinderhook,MI,"Kinderhook, MI",-84.9921549,41.7809727
La Grange,MI,"La Grange, MI",-86.0325629,41.9504291
Lacota,MI,"Lacota, MI",-86.1297501,42.4136434
Lafayette,MI,"Lafayette, MI",-84.41726659999999,43.3284866
Lake,MI,"Lake, MI",-87.22201869999999,43.4501005
Lansing,MI,"Lansing, MI",-84.5555347,42.732535
Lapeer,MI,"Lapeer, MI",-83.31883409999999,43.0514161
LaSalle,MI,"LaSalle, MI",-83.45215549999999,41.8678237
Lawrence,MI,"Lawrence, MI",-86.051408,42.2192056
Lebanon,MI,"Lebanon, MI",-92.6637865,37.6805967
Lee,MI,"Lee, MI",-86.0908621,42.450865
Leelanaw,MI,"Leelanaw, MI",-86.07336339999999,45.0821226
Leighton,MI,"Leighton, MI",-85.62292959999999,42.7218544
Lenox,MI,"Lenox, MI",-82.79941939999999,42.7738411
Leoni,MI,"Leoni, MI",-84.31184209999999,42.2545116
Leonidas,MI,"Leonidas, MI",-85.3342973,42.0429093
LeRoy,MI,"LeRoy, MI",-85.4539403,44.03806890000001
Leslie,MI,"Leslie, MI",-84.4324695,42.4514252
Lexington,MI,"Lexington, MI",-82.530757499999993,43.268082
Liberty,MI,"Liberty, MI",-84.41726659999999,42.1204171
Lima,MI,"Lima, MI",-83.9532571,42.2936518
Lindon,MI,"Lindon, MI",-83.7824526,42.8144731
Litchfield,MI,"Litchfield, MI",-84.7574647,42.0439345
Livonia,MI,"Livonia, MI",-83.35270969999999,42.36837
Locke,MI,"Locke, MI",-84.20679919999999,42.7370163
Lodi,MI,"Lodi, MI",-83.8260884,42.2082681
London,MI,"London, MI",-83.6135572,42.039072
Lowell,MI,"Lowell, MI",-85.34196089999999,42.9336426
Ludington,MI,"Ludington, MI",-86.4525831,43.9552825
Lynn,MI,"Lynn, MI",-82.92864279999999,43.1304493
Lyon,MI,"Lyon, MI",-83.6135572,42.4712338
Lyons,MI,"Lyons, MI",-84.9469455,42.9819772
Mackinak,MI,"Mackinak, MI",-84.6275658,45.8683129
Macomb,MI,"Macomb, MI",-82.92864279999999,42.6651965
Manchester,MI,"Manchester, MI",-84.037723,42.1503177
Manistee,MI,"Manistee, MI",-86.324253,44.2444473
Manlius,MI,"Manlius, MI",-86.0733498,42.6209518
Maple Grove,MI,"Maple Grove, MI",-85.1271907,42.5455578
Marathon,MI,"Marathon, MI",-83.4003037,43.1972421
Marcellus,MI,"Marcellus, MI",-85.81555759999999,42.0258779
Marengo,MI,"Marengo, MI",-84.87763919999999,42.2993512
Marion,MI,"Marion, MI",-85.14698349999999,44.1025148
Marquette,MI,"Marquette, MI",-87.39559539999999,46.5475825
Marshall,MI,"Marshall, MI",-84.96331479999999,42.2722641
Martin,MI,"Martin, MI",-85.64168459999999,42.5369783
Mason,MI,"Mason, MI",-84.4435845,42.5792027
Matteson,MI,"Matteson, MI",-85.2308414,41.9397806
Medina,MI,"Medina, MI",-84.2910759,41.75822489999999
Megeezee,MI,"Megeezee, MI",NA,NA
Mendon,MI,"Mendon, MI",-85.44998869999999,42.0064378
Meridian,MI,"Meridian, MI",-84.41506439999999,42.7265389
Metamora,MI,"Metamora, MI",-83.2891092,42.9414173
Middlebury,MI,"Middlebury, MI",-84.3331694,43.0153041
Midland,MI,"Midland, MI",-84.2472116,43.6155825
Milan,MI,"Milan, MI",-83.6824384,42.0853204
Milford,MI,"Milford, MI",-83.6003703,42.5916684
Milton,MI,"Milton, MI",-85.3312715,44.923442
Monguagon,MI,"Monguagon, MI",-83.20712859999999,42.0845244
Monroe,MI,"Monroe, MI",-83.3977101,41.9164343
Monroe City,MI,"Monroe City, MI",-83.3977101,41.9164343
Montcalm,MI,"Montcalm, MI",-85.1894045,43.3057341
Monterey,MI,"Monterey, MI",-85.8281458,42.6513977
Montrose,MI,"Montrose, MI",-83.8927439,43.1766935
Moscow,MI,"Moscow, MI",-84.54318669999999,42.0475624
Mottville,MI,"Mottville, MI",-85.7051116,41.78001099999999
Mount Clemens,MI,"Mount Clemens, MI",-82.8779754,42.5972563
Mount Morris,MI,"Mount Morris, MI",-83.6949583,43.1186374
Mundy,MI,"Mundy, MI",-83.7411631,42.9069105
Muskegon,MI,"Muskegon, MI",-86.24839209999999,43.2341813
Mussey,MI,"Mussey, MI",-82.92864279999999,43.0145327
Nankin,MI,"Nankin, MI",-83.37016779999999,42.3487847
Napoleon,MI,"Napoleon, MI",-84.2460616,42.1605944
Neguanee,MI,"Neguanee, MI",-87.60687209999999,46.5090928
Nelson,MI,"Nelson, MI",-85.49941919999999,43.2604599
New Buffalo,MI,"New Buffalo, MI",-86.74391539999999,41.7939302
New Haven,MI,"New Haven, MI",-82.8013107,42.7294758
Newark,MI,"Newark, MI",-84.7097259,43.2486435
Newburgh,MI,"Newburgh, MI",-83.4236632,42.36564600000001
Newton,MI,"Newton, MI",-85.1271907,42.1921471
Niles,MI,"Niles, MI",-86.2541768,41.829769400000004
Niles City,MI,"Niles City, MI",-86.2541768,41.829769400000004
Noble,MI,"Noble, MI",-85.2411958,41.7915445
North Branch,MI,"North Branch, MI",-83.19661169999999,43.2294705
North Plains,MI,"North Plains, MI",-84.87763919999999,43.0796882
North Shade,MI,"North Shade, MI",-84.79420909999999,43.153311
North Star,MI,"North Star, MI",-84.54318669999999,43.25747440000001
Northfield,MI,"Northfield, MI",-83.7433813,42.4003857
Northport,MI,"Northport, MI",-85.6167509,45.1313875
Novi,MI,"Novi, MI",-83.4754913,42.48059
Oakfield,MI,"Oakfield, MI",-85.37562489999999,43.1782596
Oakland,MI,"Oakland, MI",-83.1434573,42.7561109
Oceana,MI,"Oceana, MI",-86.2895052,43.643476
Odessa,MI,"Odessa, MI",-85.1271907,42.818789
Ogden,MI,"Ogden, MI",-83.9532571,41.7806149
Olive,MI,"Olive, MI",-86.1239988,42.8852254
Olivet,MI,"Olivet, MI",-84.92415419999999,42.4414273
Oneida,MI,"Oneida, MI",-84.79420909999999,42.7262349
Onondaga,MI,"Onondaga, MI",-84.5621963,42.4442037
Ontwa,MI,"Ontwa, MI",-86.0427626,41.7821811
Orange,MI,"Orange, MI",-85.0025539,42.8912233
Orangeville,MI,"Orangeville, MI",-85.49941919999999,42.5607601
Oranokogo,MI,"Oranokogo, MI",NA,NA
Orchard Lake,MI,"Orchard Lake, MI",-83.3735966,42.5894857
Oregon,MI,"Oregon, MI",-83.4003037,43.081406200000004
Orion,MI,"Orion, MI",-83.2720082,42.7637431
Orleans,MI,"Orleans, MI",-85.1271907,43.090575
Osceola,MI,"Osceola, MI",-85.35496499999999,43.92572790000001
Oshtemo,MI,"Oshtemo, MI",-85.7051116,42.293951
Otisco,MI,"Otisco, MI",-85.2627949,43.0594759
Otsego,MI,"Otsego, MI",-85.696406,42.4605904
Ottawa,MI,"Ottawa, MI",-86.0937312,42.95302299999999
Overisel,MI,"Overisel, MI",-85.95089229999999,42.7338962
Ovid,MI,"Ovid, MI",-84.3716438,43.0058618
Owasso,MI,"Owasso, MI",-84.1766358,42.9978049
Owosso,MI,"Owosso, MI",-84.1766358,42.9978049
Oxford,MI,"Oxford, MI",-83.26466239999999,42.8247524
Palmyra,MI,"Palmyra, MI",-83.9532571,41.8598626
Paris,MI,"Paris, MI",-82.79941939999999,43.7361035
Park,MI,"Park, MI",-85.04380979999999,45.23560579999999
Parma,MI,"Parma, MI",-84.5996885,42.2583711
Pavillion,MI,"Pavillion, MI",-85.45818589999999,42.2057097
Peninsula,MI,"Peninsula, MI",-87.3952109,46.5374764
Penn,MI,"Penn, MI",-85.95089229999999,41.9475839
Pennfield,MI,"Pennfield, MI",-85.129834,42.3699055
Perry,MI,"Perry, MI",-84.21941269999999,42.8264205
Pine Grove,MI,"Pine Grove, MI",-85.8281458,42.377115
Pine Plains,MI,"Pine Plains, MI",-86.03420009999999,42.6028065
Pine River,MI,"Pine River, MI",-85.9075725,44.2269504
Pipestone,MI,"Pipestone, MI",-86.2767995,42.0377521
Pittsfield,MI,"Pittsfield, MI",-83.7241068,42.2103174
Pittsford,MI,"Pittsford, MI",-84.41726659999999,41.8437355
Plainfield,MI,"Plainfield, MI",-85.61384699999999,43.0582815
Plainwell,MI,"Plainwell, MI",-85.6489035,42.4400357
Plymouth,MI,"Plymouth, MI",-83.4702132,42.3714253
Pokagon,MI,"Pokagon, MI",-86.15482689999999,41.9545798
Polkton,MI,"Polkton, MI",-85.9917437,43.0465604
Pontiac,MI,"Pontiac, MI",-83.29104679999999,42.6389216
Port Huron,MI,"Port Huron, MI",-82.42491419999999,42.9708634
Portage,MI,"Portage, MI",-85.5800022,42.2011538
Porter,MI,"Porter, MI",-85.8281458,41.82424510000001
Portland,MI,"Portland, MI",-84.9100792,42.8672048
Prairie Ronde,MI,"Prairie Ronde, MI",-85.7051116,42.0968649
Prairieville,MI,"Prairieville, MI",-85.49941919999999,42.4824259
Pulaski,MI,"Pulaski, MI",-84.6688348,42.132373
Putnam,MI,"Putnam, MI",-83.9532571,42.4505198
Quincy,MI,"Quincy, MI",-84.8838525,41.9442145
Raisin,MI,"Raisin, MI",-83.9532571,41.93899469999999
Raisinville,MI,"Raisinville, MI",-83.528342,41.955345199999996
Ransom,MI,"Ransom, MI",-84.54318669999999,41.7704682
Ravenna,MI,"Ravenna, MI",-85.93699289999999,43.1894651
Ray,MI,"Ray, MI",-82.92864279999999,42.743032
Reading,MI,"Reading, MI",-84.74801339999999,41.8394928
Redford,MI,"Redford, MI",-83.2973732,42.3944486
Richfield,MI,"Richfield, MI",-83.528342,43.0887243
Richland,MI,"Richland, MI",-85.45500539999999,42.3761504
Richmond,MI,"Richmond, MI",-82.7557554,42.8091969
Ridgeway,MI,"Ridgeway, MI",-83.8260884,41.9717483
Riga,MI,"Riga, MI",-83.8260884,41.77385109999999
Riley,MI,"Riley, MI",-82.79941939999999,42.9290398
Rives,MI,"Rives, MI",-84.41726659999999,42.3956724
Robinson,MI,"Robinson, MI",-86.0733498,42.9717532
Rochester,MI,"Rochester, MI",-83.1338214,42.680588
Rockland,MI,"Rockland, MI",-89.1795511,46.7380483
Rodney,MI,"Rodney, MI",-85.3296892,43.6727174
Rogers,MI,"Rogers, MI",-83.8605137,45.42650769999999
Rollin,MI,"Rollin, MI",-84.3239029,41.9112338
Rome,MI,"Rome, MI",-84.20679919999999,41.9520652
Romulus,MI,"Romulus, MI",-83.39659940000001,42.2222614
Ronald,MI,"Ronald, MI",-85.0025539,43.0852059
Rose,MI,"Rose, MI",-84.0801613,44.4534954
Ross,MI,"Ross, MI",-85.37562489999999,42.359786
Roxand,MI,"Roxand, MI",-84.87763919999999,42.729993
Royal Oak,MI,"Royal Oak, MI",-83.1446485,42.4894801
Royalton,MI,"Royalton, MI",-86.4288534,42.01289999999999
Rubicon,MI,"Rubicon, MI",-82.669947,43.9180906
Rush,MI,"Rush, MI",-84.20679919999999,43.0864176
Rutland,MI,"Rutland, MI",-85.37562489999999,42.6340542
Saginaw,MI,"Saginaw, MI",-83.9508068,43.4194699
Saginaw City,MI,"Saginaw City, MI",-83.9508068,43.4194699
Salem,MI,"Salem, MI",-83.6135572,42.3929212
Saline,MI,"Saline, MI",-83.7816075,42.1667072
Sand Beach,MI,"Sand Beach, MI",-82.669947,43.8040404
Sandstone,MI,"Sandstone, MI",-84.54318669999999,42.2839378
Sanilac,MI,"Sanilac, MI",-82.7347142,43.4069041
Saulte Ste. Marie,MI,"Saulte Ste. Marie, MI",-84.3453169,46.4952996
Schoocraft,MI,"Schoocraft, MI",-85.63777759999999,42.11421070000001
Scipio,MI,"Scipio, MI",-84.6583745,42.0431051
Sebewaing,MI,"Sebewaing, MI",-83.4510724,43.7322394
Seneca,MI,"Seneca, MI",-84.16461629999999,41.7518743
Seweba,MI,"Seweba, MI",-85.0025539,42.81342350000001
Sharon,MI,"Sharon, MI",-84.0801613,42.2216618
Shelby,MI,"Shelby, MI",-86.3639633,43.6086194
Sheridan,MI,"Sheridan, MI",-85.0736264,43.2122541
Sherman,MI,"Sherman, MI",-85.6967343,44.42389259999999
Sherwood,MI,"Sherwood, MI",-85.2385898,42.0014374
Shiawassee,MI,"Shiawassee, MI",-84.1857115,42.949754
Siddons,MI,"Siddons, MI",NA,NA
Silver Creek,MI,"Silver Creek, MI",-86.15482689999999,42.0337398
Solon,MI,"Solon, MI",-85.62292959999999,43.265245
Somerset,MI,"Somerset, MI",-84.41726659999999,42.0415105
South Haven,MI,"South Haven, MI",-86.2736407,42.4030865
Southfield,MI,"Southfield, MI",-83.2218731,42.4733688
Sparta,MI,"Sparta, MI",-85.71003929999999,43.1608578
Speaker,MI,"Speaker, MI",-82.80409829999999,43.2050252
Spring Arbor,MI,"Spring Arbor, MI",-84.55273869999999,42.2050383
Spring Lake,MI,"Spring Lake, MI",-86.19699709999999,43.07696250000001
Spring?,MI,"Spring?, MI",-86.19699709999999,43.07696250000001
Springfield,MI,"Springfield, MI",-85.2391614,42.3264298
Springport,MI,"Springport, MI",-84.6985883,42.378372
Springwells,MI,"Springwells, MI",-83.1273705,42.310882600000006
St. Charles,MI,"St. Charles, MI",-84.1428734,43.2994596
St. Clair,MI,"St. Clair, MI",-82.486024,42.8208653
St. Clair City,MI,"St. Clair City, MI",-82.486024,42.8208653
St. Ignace,MI,"St. Ignace, MI",-84.7322959,45.8755685
St. John's,MI,"St. John's, MI",-84.55915209999999,43.001143
St. Joseph,MI,"St. Joseph, MI",-86.4895463,42.0938577
Sterling,MI,"Sterling, MI",-84.02277169999999,44.0333538
Stockbridge,MI,"Stockbridge, MI",-84.1805146,42.4511466
Stronach,MI,"Stronach, MI",-86.15482689999999,44.2023126
Sturgis,MI,"Sturgis, MI",-85.41914820000001,41.799217
Summerfield,MI,"Summerfield, MI",-83.6986568,41.8461748
Summir,MI,"Summir, MI",-84.4592701,42.20124269999999
Sumner,MI,"Sumner, MI",-84.79420909999999,43.34625339999999
Sumpter,MI,"Sumpter, MI",-83.49413179999999,42.1388717
Sunfield,MI,"Sunfield, MI",-84.9924962,42.7622568
Superior,MI,"Superior, MI",-83.6051935,42.3010178
Sylvan,MI,"Sylvan, MI",-84.0801613,42.3002726
Tallmadge,MI,"Tallmadge, MI",-85.8336155,42.9918041
Taylor,MI,"Taylor, MI",-83.2696509,42.240872
Taymouth,MI,"Taymouth, MI",-83.8685072,43.26186269999999
Tecumseh,MI,"Tecumseh, MI",-83.9449417,42.0039331
Tekonsha,MI,"Tekonsha, MI",-84.985805,42.0933791
Texas,MI,"Texas, MI",-85.7051116,42.2152042
Thetford,MI,"Thetford, MI",-83.6561215,43.1731395
Thomastown,MI,"Thomastown, MI",-94.78924390000002,46.3630489
Thornapple,MI,"Thornapple, MI",-85.49941919999999,42.7170757
Three Oaks,MI,"Three Oaks, MI",-86.6105778,41.7986545
Three Rivers,MI,"Three Rivers, MI",-85.632493,41.9439368
Tittabawassee,MI,"Tittabawassee, MI",-84.1224036,43.5059061
Tompkins,MI,"Tompkins, MI",-84.54318669999999,42.3624962
Traverse,MI,"Traverse, MI",-85.62063169999999,44.7630567
Traverse City,MI,"Traverse City, MI",-85.62063169999999,44.7630567
Trowbridge,MI,"Trowbridge, MI",-85.8281458,42.45562839999999
Troy,MI,"Troy, MI",-83.1497751,42.6064095
Tuscola,MI,"Tuscola, MI",-83.5070203,43.5301144
Tyrone,MI,"Tyrone, MI",-83.7411631,42.7514541
Unadilla,MI,"Unadilla, MI",-84.0801613,42.4571439
Union,MI,"Union, MI",-85.8677756,41.7861603
Union City,MI,"Union City, MI",-85.1360882,42.0667135
Van Buren,MI,"Van Buren, MI",-83.4838244,42.2203171
Vanderbilt,MI,"Vanderbilt, MI",-84.6603091,45.14279030000001
Venice,MI,"Venice, MI",-83.99558789999999,42.9980947
Vermontville,MI,"Vermontville, MI",-85.0241621,42.6289247
Vernon,MI,"Vernon, MI",-84.02940819999999,42.9391971
Vevay,MI,"Vevay, MI",-84.42777029999999,42.5430524
Victor,MI,"Victor, MI",-84.41726659999999,42.9030536
Vienna,MI,"Vienna, MI",-83.7836403,43.180142
Volinia,MI,"Volinia, MI",-85.95089229999999,42.0267419
Wakeshma,MI,"Wakeshma, MI",-85.3342973,42.1218857
Wales,MI,"Wales, MI",-82.669947,42.9595339
Walker,MI,"Walker, MI",-85.7680915,43.0014133
Walton,MI,"Walton, MI",-84.87763919999999,42.4563588
Warren,MI,"Warren, MI",-83.01465259999999,42.5144566
Washington,MI,"Washington, MI",-83.05761559999999,42.7509332
Waterford,MI,"Waterford, MI",-83.4066132,42.6907443
Waterloo,MI,"Waterloo, MI",-84.106203,42.333587
Watertown,MI,"Watertown, MI",-84.6688348,42.7983871
Watervliet,MI,"Watervliet, MI",-86.26057759999999,42.1867052
Watson,MI,"Watson, MI",-85.7051116,42.5686411
Waverly,MI,"Waverly, MI",-84.6208149,42.7392017
Wayland,MI,"Wayland, MI",-85.6447438,42.6739208
Wayne,MI,"Wayne, MI",-83.3863214,42.2814269
Webster,MI,"Webster, MI",-83.8260884,42.3653661
Weesaw,MI,"Weesaw, MI",-86.51986509999999,41.847234
West Bloomfield,MI,"West Bloomfield, MI",-83.373339,42.5678534
Westphalia,MI,"Westphalia, MI",-84.798605,42.9294782
Wheatfield,MI,"Wheatfield, MI",-84.3331694,42.6263379
Wheatland,MI,"Wheatland, MI",-85.1271907,43.5914677
White Lake,MI,"White Lake, MI",-83.4856913,42.6592995
White Oak,MI,"White Oak, MI",-84.20679919999999,42.541875
White Pigeon,MI,"White Pigeon, MI",-85.6433229,41.7981056
White River,MI,"White River, MI",-86.0555093,43.503201
Whiteford,MI,"Whiteford, MI",-83.6986568,41.76693119999999
Williams,MI,"Williams, MI",-84.1224036,43.6208628
Williamstown,MI,"Williamstown, MI",-84.3331694,42.7433368
Windsor,MI,"Windsor, MI",-84.6688348,42.6424404
Wisner,MI,"Wisner, MI",-83.6135572,43.5935611
Woodbridge,MI,"Woodbridge, MI",-83.0817699,42.349794
Woodhull,MI,"Woodhull, MI",-84.3331694,42.821189
Woodland,MI,"Woodland, MI",-85.1336129,42.7267014
Woodstock,MI,"Woodstock, MI",-84.2910759,42.03530629999999
Worth,MI,"Worth, MI",-82.5834947,43.2242068
Wright,MI,"Wright, MI",-85.8281458,43.0794949
Wyandotte,MI,"Wyandotte, MI",-83.14992389999999,42.21420639999999
Wyoming,MI,"Wyoming, MI",-85.7053085,42.9133602
York,MI,"York, MI",-83.71280949999999,42.1318816
Ypsilanti,MI,"Ypsilanti, MI",-83.61299389999999,42.2411499
Zeeland,MI,"Zeeland, MI",-86.01865099999999,42.8125246
Zilwaukee,MI,"Zilwaukee, MI",-83.9205291,43.4764138
NA,MI,"NA, MI",-85.60236429999999,44.3148443
Anoka,MN,"Anoka, MN",-93.3871758,45.1977428
Austin,MN,"Austin, MN",-92.97463669999999,43.6666296
Berlin,MN,"Berlin, MN",-93.35904459999999,43.8753769
Blue Earth City,MN,"Blue Earth City, MN",-94.10239059999999,43.6375818
Brainerd,MN,"Brainerd, MN",-94.2020084,46.3526733
Cambridge,MN,"Cambridge, MN",-93.2258999,45.5656755
Carlstadt,MN,"Carlstadt, MN",NA,NA
Carver,MN,"Carver, MN",-93.6254404,44.76339429999999
Chatfrield,MN,"Chatfrield, MN",-92.1890516,43.84551949999999
Collegeville,MN,"Collegeville, MN",-94.3641026,45.59388149999999
Dover Center,MN,"Dover Center, MN",-92.14043339999999,43.9744791
Duluth,MN,"Duluth, MN",-92.1004852,46.78667189999999
Fabault?,MN,"Fabault?, MN",-93.268827,44.2949636
Fairbault,MN,"Fairbault, MN",-93.268827,44.2949636
Fairboult,MN,"Fairboult, MN",-93.268827,44.2949636
Faribault,MN,"Faribault, MN",-93.268827,44.2949636
Farmington,MN,"Farmington, MN",-93.1435497,44.6402434
Fergus Falls,MN,"Fergus Falls, MN",-96.0777887,46.2835212
Fremont,MN,"Fremont, MN",-91.89904299999999,43.9138521
Glencoe,MN,"Glencoe, MN",-94.15175239999999,44.7690437
Goodhue,MN,"Goodhue, MN",-92.623802799999993,44.4005221
Grand Meadow,MN,"Grand Meadow, MN",-92.57212059999999,43.7057963
Hastings,MN,"Hastings, MN",-92.8513706,44.7443293
Hokah,MN,"Hokah, MN",-91.3465262,43.7594117
Hutchinson,MN,"Hutchinson, MN",-94.3692926,44.89254830000001
Jackson,MN,"Jackson, MN",-94.9886022,43.6207915
Lake City,MN,"Lake City, MN",-92.2666914,44.4492982
Lanesboro,MN,"Lanesboro, MN",-91.97682239999999,43.7207974
Litchfield,MN,"Litchfield, MN",-94.5283333,45.1258332
Mankato,MN,"Mankato, MN",-93.99939959999999,44.1635775
Mantorville,MN,"Mantorville, MN",-92.7557456,44.0691307
Mininger,MN,"Mininger, MN",-92.92758359999999,44.74760029999999
Minneapolis,MN,"Minneapolis, MN",-93.2650108,44.977753
Minnesota City,MN,"Minnesota City, MN",-91.7495959,44.0938521
New Ulm,MN,"New Ulm, MN",-94.45930179999999,44.3144394
Northfield,MN,"Northfield, MN",-93.161604,44.4582983
Owatonna,MN,"Owatonna, MN",-93.2259349,44.0855572
Owatowa,MN,"Owatowa, MN",-93.2259349,44.0855572
Plainview,MN,"Plainview, MN",-92.1715571,44.1649655
Preston,MN,"Preston, MN",-92.0832157,43.6702423
Red Wing,MN,"Red Wing, MN",-92.5369563,44.5660691
Rochester,MN,"Rochester, MN",-92.4801989,44.0121221
Rushford,MN,"Rushford, MN",-91.7529258,43.8082976
Saint Cloud,MN,"Saint Cloud, MN",-94.16324039999999,45.5579451
Sauk Center,MN,"Sauk Center, MN",-94.9525216,45.737465
Sibley,MN,"Sibley, MN",-94.15137639999999,44.5502089
Smithfield,MN,"Smithfield, MN",-94.61809869999999,43.9889537
Spring Valley,MN,"Spring Valley, MN",-92.38905869999999,43.686908
St. Anthony,MN,"St. Anthony, MN",-93.2179335,45.0205565
St. Cloud,MN,"St. Cloud, MN",-94.16324039999999,45.5579451
St. Joseph,MN,"St. Joseph, MN",-94.317966,45.5647724
St. Paul,MN,"St. Paul, MN",-93.0899578,44.9537029
St. Paul's,MN,"St. Paul's, MN",-93.0899578,44.9537029
St. Peter,MN,"St. Peter, MN",-93.955691,44.3258932
Stillwater,MN,"Stillwater, MN",-92.80884429999999,45.056004
Taylor's Falls,MN,"Taylor's Falls, MN",-92.65242920000001,45.4019062
Union,MN,"Union, MN",-93.1254802,43.8919066
Wabasha,MN,"Wabasha, MN",-92.0382346,44.3710051
Waseca,MN,"Waseca, MN",-93.50838429999999,44.0770411
White Bear,MN,"White Bear, MN",-93.02095419999999,45.09607159999999
Winona,MN,"Winona, MN",-91.6663523,44.0553908
Worthington,MN,"Worthington, MN",-95.59414360000001,43.6210985
Zumbrota,MN,"Zumbrota, MN",-92.6690806,44.294132
Barrens,MO,"Barrens, MO",-89.85477399999999,37.759994
Boonville,MO,"Boonville, MO",-92.74324179999999,38.9736392
Bowling Green,MO,"Bowling Green, MO",-91.1951437,39.3419891
Brunswick,MO,"Brunswick, MO",-93.1304782,39.4233576
Canton,MO,"Canton, MO",-91.6251597,40.1250446
Cape Girardeau,MO,"Cape Girardeau, MO",-89.51814759999999,37.3058839
Cape Girardequ,MO,"Cape Girardequ, MO",-89.51814759999999,37.3058839
Carondelet City,MO,"Carondelet City, MO",-90.2549631,38.5556397
Carrollton,MO,"Carrollton, MO",-93.4957675,39.3583539
College Mound,MO,"College Mound, MO",-92.5726866,39.6230877
Columbia,MO,"Columbia, MO",-92.3340724,38.9517053
Fayette,MO,"Fayette, MO",-92.6837943,39.1458654
Franklin,MO,"Franklin, MO",-92.7532411,39.0116954
Fulton,MO,"Fulton, MO",-91.94795859999999,38.84670819999999
Glasgow,MO,"Glasgow, MO",-92.8465757,39.2272513
Greenwood,MO,"Greenwood, MO",-94.34383779999999,38.8516751
Hannibal,MO,"Hannibal, MO",-91.35848159999999,39.7083789
Hillsboro,MO,"Hillsboro, MO",-90.5629034,38.2322766
Independence,MO,"Independence, MO",-94.41550679999999,39.0911161
Jefferson City,MO,"Jefferson City, MO",-92.1735164,38.57670170000001
Jefferson?,MO,"Jefferson?, MO",-92.1735164,38.57670170000001
Kansas City,MO,"Kansas City, MO",-94.5785667,39.0997265
Kidder,MO,"Kidder, MO",-94.1024439,39.7802827
La Grange,MO,"La Grange, MO",-91.4976544,40.0428236
Lexington,MO,"Lexington, MO",-93.87994259999999,39.1847339
Liberty,MO,"Liberty, MO",-94.4191177,39.2461138
Maryville,MO,"Maryville, MO",-94.8724706,40.3461017
May View,MO,"May View, MO",-93.8304979,39.0530655
Mexico,MO,"Mexico, MO",-91.887271,39.1730652
Moberly,MO,"Moberly, MO",-92.43823669999999,39.4183689
Oregon,MO,"Oregon, MO",-95.1449753,39.9869407
Palmyra,MO,"Palmyra, MO",-91.5232106,39.7942118
Parkville,MO,"Parkville, MO",-94.6821806,39.1950029
Rolla,MO,"Rolla, MO",-91.7715303,37.948544
Sedalia,MO,"Sedalia, MO",-93.2282613,38.7044609
Springfield,MO,"Springfield, MO",-93.29229889999999,37.2089572
St Louis,MO,"St Louis, MO",-90.19940419999999,38.6270025
St. Charles,MO,"St. Charles, MO",-90.4974359,38.7881062
St. Joseph,MO,"St. Joseph, MO",-94.84668099999999,39.7674578
St. Joseph's,MO,"St. Joseph's, MO",-94.84668099999999,39.7674578
St. Louis,MO,"St. Louis, MO",-90.19940419999999,38.6270025
Troy,MO,"Troy, MO",-90.9806954,38.9794922
Aberdeen,MS,"Aberdeen, MS",-88.5436553,33.8251139
Adams,MS,"Adams, MS",-91.28910359999999,31.5305353
Attala County,MS,"Attala County, MS",-89.62516459999999,33.1683267
Canton,MS,"Canton, MS",-90.0367512,32.6126381
Clinton,MS,"Clinton, MS",-90.3217585,32.3415342
Garlandsville,MS,"Garlandsville, MS",-89.1225584,32.219591200000004
Greene County,MS,"Greene County, MS",-88.7108964,31.1646163
Holly Springs,MS,"Holly Springs, MS",-89.44868939999999,34.76759670000001
Holy Springs,MS,"Holy Springs, MS",-89.44868939999999,34.76759670000001
Jackson,MS,"Jackson, MS",-90.1848103,32.2987573
Kosciusko,MS,"Kosciusko, MS",-89.58757639999999,33.0576295
Liberty,MS,"Liberty, MS",-90.8123243,31.1582312
Louisville,MS,"Louisville, MS",-89.0550624,33.1237377
Meridian Springs,MS,"Meridian Springs, MS",-88.70638199999999,32.4008295
Natchez,MS,"Natchez, MS",-91.40317100000001,31.5604442
Oakland,MS,"Oakland, MS",-89.91647809999999,34.0556679
Oxford,MS,"Oxford, MS",-89.5192484,34.3664951
Pike,MS,"Pike, MS",-90.37483540000001,31.1704959
Pontotoc,MS,"Pontotoc, MS",-88.998673,34.2478831
Port Gibson,MS,"Port Gibson, MS",-90.98173249999999,31.9607734
Rodney,MS,"Rodney, MS",-91.1998325,31.861272
Sharon,MS,"Sharon, MS",-89.9361935,32.65847
Springville,MS,"Springville, MS",-89.10367719999999,34.2317732
Tchula,MS,"Tchula, MS",-90.2228629,33.18290340000001
Washington,MS,"Washington, MS",-91.29927839999999,31.5787773
Woodville,MS,"Woodville, MS",-91.29955509999999,31.104619
Yazoo City,MS,"Yazoo City, MS",-90.4056468,32.8551326
Camp Baker,MT,"Camp Baker, MT",-111.1829019,46.803805
Ft. Ellis,MT,"Ft. Ellis, MT",-110.9516349,45.6530571
Ft. Shaw,MT,"Ft. Shaw, MT",-111.8102651,47.5055075
Helena,MT,"Helena, MT",-112.0245054,46.5883707
Albemarle?,NC,"Albemarle?, NC",-80.2000578,35.3501426
Asheville,NC,"Asheville, NC",-82.5514869,35.5950581
Bath,NC,"Bath, NC",-76.8116045,35.4771094
Beaufort,NC,"Beaufort, NC",-76.6638186,34.7182174
Brunswick,NC,"Brunswick, NC",-78.2020387,34.0275398
Cape Fear,NC,"Cape Fear, NC",-77.9602652,33.8404533
Chapel Hill,NC,"Chapel Hill, NC",-79.0558445,35.9131996
Charlotte,NC,"Charlotte, NC",-80.8431267,35.2270869
Chowan,NC,"Chowan, NC",-76.6181655,36.1354131
Currituck,NC,"Currituck, NC",-75.94632399999999,36.4189826
Davidson,NC,"Davidson, NC",-80.8486846,35.4993031
Davidson County,NC,"Davidson County, NC",-80.1875065,35.7748479
Edenton,NC,"Edenton, NC",-76.6077213,36.057938
Edgecombe,NC,"Edgecombe, NC",-77.6536125,35.8840053
Fayeteville,NC,"Fayeteville, NC",-78.87835849999999,35.0526641
Fayetteville,NC,"Fayetteville, NC",-78.87835849999999,35.0526641
Forestville,NC,"Forestville, NC",-78.51832999999999,35.96139
Greensboro,NC,"Greensboro, NC",-79.7919754,36.0726354
Guildford,NC,"Guildford, NC",-79.8296743,36.0899873
Guilford,NC,"Guilford, NC",-79.8296743,36.0899873
Happy Home,NC,"Happy Home, NC",-79.6283636,36.4962497
Hillsboro,NC,"Hillsboro, NC",-79.0997347,36.0754183
Hookerton,NC,"Hookerton, NC",-77.5883039,35.4251622
Iredell Co.,NC,"Iredell Co., NC",-80.89865019999999,35.8310501
Iredell County,NC,"Iredell County, NC",-80.89865019999999,35.8310501
Lenoir,NC,"Lenoir, NC",-81.5389849,35.9140196
Lincoln County,NC,"Lincoln County, NC",-81.20781640000001,35.4637028
Mechlenberg County,NC,"Mechlenberg County, NC",-80.8543847,35.2632655
Mecklenburg,NC,"Mecklenburg, NC",-80.8543847,35.2632655
Mt. Pleasant,NC,"Mt. Pleasant, NC",-80.4358963,35.399308
Nazareth,NC,"Nazareth, NC",-80.45531129999999,35.64887969999999
New Garden,NC,"New Garden, NC",-79.8900444,36.0910286
New Salem,NC,"New Salem, NC",-80.3692306,35.13098129999999
Newbern,NC,"Newbern, NC",-77.04411429999999,35.108493
Northampton Co.,NC,"Northampton Co., NC",-77.4242972,36.4159635
Olin,NC,"Olin, NC",-80.83979289999999,35.9526349
Oxford,NC,"Oxford, NC",-78.5908345,36.3107004
Pamplici?,NC,"Pamplici?, NC",NA,NA
Pamplier?,NC,"Pamplier?, NC",NA,NA
Person County,NC,"Person County, NC",-78.9288242,36.3528221
Raleigh,NC,"Raleigh, NC",-78.6381787,35.7795897
Randolph,NC,"Randolph, NC",-79.8296743,35.7449531
Randolph Co.,NC,"Randolph Co., NC",-79.8296743,35.7449531
Rowan County,NC,"Rowan County, NC",-80.54384499999999,35.6303455
Rowan Cty,NC,"Rowan Cty, NC",-80.54384499999999,35.6303455
Rutherford,NC,"Rutherford, NC",-81.909826,35.4258737
Salem,NC,"Salem, NC",-81.6970412,35.6987399
Statesville,NC,"Statesville, NC",-80.8872959,35.7826363
Stokes Co.,NC,"Stokes Co., NC",-80.23213129999999,36.4244396
Trinity,NC,"Trinity, NC",-79.9908729,35.894581
Wake Forest,NC,"Wake Forest, NC",-78.50972279999999,35.9798734
Weldon,NC,"Weldon, NC",-77.60303309999999,36.4159849
Williamsboro,NC,"Williamsboro, NC",-78.4316645,36.4304221
Williamston,NC,"Williamston, NC",-77.0555114,35.8546039
Wilmington,NC,"Wilmington, NC",-77.9447102,34.2257255
Wilson,NC,"Wilson, NC",-77.9155395,35.7212689
NA,NC,"NA, NC",-79.01929969999999,35.7595731
Bismark,ND,"Bismark, ND",-100.7837392,46.8083268
Fort Totten,ND,"Fort Totten, ND",-98.99290049999999,47.97999859999999
Ft Badford,ND,"Ft Badford, ND",NA,NA
Ft. Stevenson,ND,"Ft. Stevenson, ND",-101.4195672,47.5900566
Brownsville,NE,"Brownsville, NE",-95.6580455,40.3977793
Brownville,NE,"Brownville, NE",-95.6580455,40.3977793
Crete,NE,"Crete, NE",-96.9615141,40.6252173
Dakotah City,NE,"Dakotah City, NE",-96.41836370000001,42.4155496
Falls City,NE,"Falls City, NE",-95.60192939999999,40.0608352
Fremont,NE,"Fremont, NE",-96.49814669999999,41.4333909
Ft. McPherson,NE,"Ft. McPherson, NE",-100.525948,41.025165200000004
Ft. Robinson,NE,"Ft. Robinson, NE",-103.4665524,42.6684446
Lincoln,NE,"Lincoln, NE",-96.6851982,40.8257625
Nebraska City,NE,"Nebraska City, NE",-95.8593616,40.6765745
Omaha,NE,"Omaha, NE",-95.99798829999999,41.2523634
Otoe County,NE,"Otoe County, NE",-96.11029429999999,40.675971
NA,NE,"NA, NE",-99.9018131,41.4925374
Acworth,NH,"Acworth, NH",-72.2920317,43.2178539
Alstead,NH,"Alstead, NH",-72.3614201,43.149481
amherst,NH,"amherst, NH",-71.6253487,42.8614748
Amherst,NH,"Amherst, NH",-71.6253487,42.8614748
Andover,NH,"Andover, NH",-71.8234138,43.43701979999999
Antrim,NH,"Antrim, NH",-71.9389194,43.0308557
Ashland,NH,"Ashland, NH",-71.6306317,43.695318
Ashuelot,NH,"Ashuelot, NH",-72.42365319999999,42.7777057
Barnstead,NH,"Barnstead, NH",-71.2782381,43.33891939999999
Barrington,NH,"Barrington, NH",-71.0470077,43.2228599
Bath,NH,"Bath, NH",-71.96620089999999,44.1670079
Bedford,NH,"Bedford, NH",-71.51320079999999,42.9463291
Bethlehem,NH,"Bethlehem, NH",-71.6875364,44.2803843
Boscawen,NH,"Boscawen, NH",-71.636864,43.32439309999999
Bow,NH,"Bow, NH",-71.54923769999999,43.1320263
Bradford,NH,"Bradford, NH",-71.9576292,43.26870479999999
Brentwood,NH,"Brentwood, NH",-71.0735503,42.9780248
Bridgewater,NH,"Bridgewater, NH",-71.7364678,43.6384067
Bristol,NH,"Bristol, NH",-71.7367162,43.5911499
Brookfield,NH,"Brookfield, NH",-71.0653437,43.558968
Brookline,NH,"Brookline, NH",-71.6581267,42.73481020000001
Campton,NH,"Campton, NH",-71.64406149999999,43.8224604
Canaan,NH,"Canaan, NH",-72.0518883,43.6809381
Candia,NH,"Candia, NH",-71.2888619,43.0612461
Canterbury,NH,"Canterbury, NH",-71.5652802,43.3372738
Cenre Harbor,NH,"Cenre Harbor, NH",-71.49147470000001,43.71269849999999
Charleston,NH,"Charleston, NH",-72.4245117,43.2386275
Charlestown,NH,"Charlestown, NH",-72.4245117,43.2386275
Cheshire,NH,"Cheshire, NH",-72.236379,42.9259375
Chester,NH,"Chester, NH",-71.25728459999999,42.9567525
Chichester,NH,"Chichester, NH",-71.3997909,43.2492477
Claremont,NH,"Claremont, NH",-72.33787439999999,43.3728635
Colebrook and Monadnock,NH,"Colebrook and Monadnock, NH",-71.4981437,44.894963
Concord,NH,"Concord, NH",-71.5375718,43.2081366
Contoocook,NH,"Contoocook, NH",-71.7139655,43.2220234
Conway and Bartlett,NH,"Conway and Bartlett, NH",-71.1284041,44.0536805
Cornish,NH,"Cornish, NH",-72.3689794,43.4645164
Corydon,NH,"Corydon, NH",-72.1631276,43.45061159999999
Danbury,NH,"Danbury, NH",-71.8617481,43.5256297
Deerfield,NH,"Deerfield, NH",-71.2164524,43.146194
Deering,NH,"Deering, NH",-71.8445227,43.0731364
Derry,NH,"Derry, NH",-71.3273346,42.8806437
Dover,NH,"Dover, NH",-70.8736698,43.1978624
Dublin,NH,"Dublin, NH",-72.0625817,42.9075823
Dunbarton,NH,"Dunbarton, NH",-71.6164615,43.1025818
Durham,NH,"Durham, NH",-70.9264393,43.1339545
East Franklin,NH,"East Franklin, NH",-71.6472988,43.4442432
East Kingston,NH,"East Kingston, NH",-71.0165766,42.925219
East Lebanon,NH,"East Lebanon, NH",-72.2517569,43.6422934
East Rindge,NH,"East Rindge, NH",-72.0098021,42.7511964
Eaton,NH,"Eaton, NH",-71.0435452,43.89979049999999
Effingham,NH,"Effingham, NH",-70.996455,43.7611873
Enfield,NH,"Enfield, NH",-72.14398299999999,43.64064399999999
Epping,NH,"Epping, NH",-71.0735476,43.0534843
Epsom,NH,"Epsom, NH",-71.3445677,43.2249396
Exeter,NH,"Exeter, NH",-70.9477546,42.9814292
Farmington,NH,"Farmington, NH",-71.065062,43.3897609
Fisherville,NH,"Fisherville, NH",-71.6002039,43.280373
Fitzwilliam,NH,"Fitzwilliam, NH",-72.14174899999999,42.7806396
Francestown,NH,"Francestown, NH",-71.8125769,42.98758249999999
Franconia,NH,"Franconia, NH",-71.7479075,44.2271729
Franklin,NH,"Franklin, NH",-71.6472988,43.4442432
Gilford,NH,"Gilford, NH",-71.4067385,43.5475771
Gilmanton,NH,"Gilmanton, NH",-71.4138418,43.4248816
Gilsum,NH,"Gilsum, NH",-72.2628635,43.0484123
Goffstown,NH,"Goffstown, NH",-71.6002223,43.0204052
Goshen,NH,"Goshen, NH",-72.14800579999999,43.3011531
Grafton,NH,"Grafton, NH",-71.947327,43.561127
Grafton and Danbury,NH,"Grafton and Danbury, NH",-71.8617481,43.5256297
Grantham,NH,"Grantham, NH",-72.1534606,43.52254569999999
Great Falls,NH,"Great Falls, NH",-70.9040689,43.2458601
Greenfield,NH,"Greenfield, NH",-71.8723003,42.9506384
Greenland,NH,"Greenland, NH",-70.8328322,43.0361995
Groton,NH,"Groton, NH",-71.8367572,43.7018051
Groton and Heben,NH,"Groton and Heben, NH",NA,NA
Hampstead,NH,"Hampstead, NH",-71.1809803,42.87448819999999
Hampton,NH,"Hampton, NH",-70.83892190000002,42.93759319999999
Hampton Falls,NH,"Hampton Falls, NH",-70.863811,42.9162234
Hancock,NH,"Hancock, NH",-71.97569899999999,42.9782657
Hanover,NH,"Hanover, NH",-72.2895526,43.7022451
"Hanover, Lebanon, and Canaan",NH,"Hanover, Lebanon, and Canaan, NH",-72.0517832,43.6545917
Haverhill,NH,"Haverhill, NH",-72.0639781,44.0345102
Henniker,NH,"Henniker, NH",-71.82228719999999,43.1798323
Hillsborough,NH,"Hillsborough, NH",-71.895049,43.114728
Hinsdale,NH,"Hinsdale, NH",-72.4865089,42.7862065
Holderness,NH,"Holderness, NH",-71.5884095,43.7320175
Hollis,NH,"Hollis, NH",-71.58953439999999,42.74251659999999
Hopkinton,NH,"Hopkinton, NH",-71.69106599999999,43.1947744
Hudson,NH,"Hudson, NH",-71.43980739999999,42.7647763
Jackson,NH,"Jackson, NH",-71.1850996,44.1462613
Jaffrey,NH,"Jaffrey, NH",-72.0231238,42.8139651
Keene,NH,"Keene, NH",-72.2781409,42.933692
Kensington,NH,"Kensington, NH",-70.9439447,42.9270334
Kingston,NH,"Kingston, NH",-71.0533918,42.9364768
Laconia,NH,"Laconia, NH",-71.4703509,43.5278546
Lake Village,NH,"Lake Village, NH",-71.15111,43.24139
Lancaster,NH,"Lancaster, NH",-71.5692477,44.4889204
Landaff,NH,"Landaff, NH",-71.8874191,44.1752213
Langdon,NH,"Langdon, NH",-72.3795322,43.1670215
Lebanon,NH,"Lebanon, NH",-72.2517569,43.6422934
Lee,NH,"Lee, NH",-71.0120127,43.12224399999999
Lempster,NH,"Lempster, NH",-72.1771541,43.2270143
Lisbon,NH,"Lisbon, NH",-71.9109059,44.2133222
Litchfield,NH,"Litchfield, NH",-71.4797889,42.84425359999999
Litchfield and Merrimack,NH,"Litchfield and Merrimack, NH",-71.42251809999999,42.8989822
Littleton,NH,"Littleton, NH",-71.7701237,44.3061628
London,NH,"London, NH",-71.97569899999999,43.4284925
Londonderry,NH,"Londonderry, NH",-71.3739272,42.86512980000001
Lyman,NH,"Lyman, NH",-71.9490868,44.2495394
Lyme,NH,"Lyme, NH",-72.1559219,43.8095142
Lyndeborough,NH,"Lyndeborough, NH",-71.7664642,42.9075843
Manchester,NH,"Manchester, NH",-71.4547891,42.9956397
Marlborough,NH,"Marlborough, NH",-72.2078343,42.9042471
Marlow,NH,"Marlow, NH",-72.1970297,43.11591139999999
Mason,NH,"Mason, NH",-71.76888679999999,42.7431782
Meredith,NH,"Meredith, NH",-71.500317,43.65753309999999
Meriden,NH,"Meriden, NH",-72.25285819999999,43.5437467
Merrimack,NH,"Merrimack, NH",-71.49483219999999,42.8678693
Middleton,NH,"Middleton, NH",-71.07148339999999,43.4779229
Milford,NH,"Milford, NH",-71.6489836,42.8353619
Milton,NH,"Milton, NH",-71.00919979999999,43.4440953
Moultonborough,NH,"Moultonborough, NH",-71.39653059999999,43.7551145
Moultonborough and Sandwich,NH,"Moultonborough and Sandwich, NH",-71.4049759,43.8199741
Mount Vernon,NH,"Mount Vernon, NH",-71.6742393,42.8945294
Mt. Vernon,NH,"Mt. Vernon, NH",-71.6742393,42.8945294
Nashua,NH,"Nashua, NH",-71.46756599999999,42.7653662
Nelson,NH,"Nelson, NH",-72.13091659999999,42.9906361
New Boston,NH,"New Boston, NH",-71.69396259999999,42.9761945
New Chester,NH,"New Chester, NH",-71.7044092,43.52555359999999
New Durham,NH,"New Durham, NH",-71.1722886,43.4367466
New Hampton,NH,"New Hampton, NH",-71.6304407,43.6236211
New Ipswich,NH,"New Ipswich, NH",-71.8808499,42.7362307
New Ispwich,NH,"New Ispwich, NH",-71.8808499,42.7362307
New London,NH,"New London, NH",-71.97569899999999,43.4284925
New Market,NH,"New Market, NH",-70.9350382,43.0828551
Newington,NH,"Newington, NH",-70.8336668,43.1000871
Newport,NH,"Newport, NH",-72.1734388,43.3653585
Newton,NH,"Newton, NH",-71.0345018,42.8695335
North Enfield,NH,"North Enfield, NH",-72.14398299999999,43.64064399999999
North Guilford,NH,"North Guilford, NH",-71.4703509,43.5278546
North Hampton,NH,"North Hampton, NH",-70.8351792,42.9737623
Northfield,NH,"Northfield, NH",-71.5900508,43.4352102
Northwood,NH,"Northwood, NH",-71.15089689999999,43.194249
Nottingham,NH,"Nottingham, NH",-71.099784,43.1145285
Orford,NH,"Orford, NH",-72.1417216,43.9014167
Ossipee and Wolfeborough,NH,"Ossipee and Wolfeborough, NH",-71.1594611,43.7560116
Oxford,NH,"Oxford, NH",-72.1417216,43.9014167
Packersfield,NH,"Packersfield, NH",NA,NA
Pelham,NH,"Pelham, NH",-71.3245067,42.7345339
Pembroke,NH,"Pembroke, NH",-71.4418101,43.1814246
"Pemigewasset, Peeling",NH,"Pemigewasset, Peeling, NH",NA,NA
Penacook,NH,"Penacook, NH",-71.6002039,43.280373
Penbroke,NH,"Penbroke, NH",-71.4418101,43.1814246
Peterboro,NH,"Peterboro, NH",-71.95167459999999,42.8706048
Peterborough,NH,"Peterborough, NH",-71.95167459999999,42.8706048
Pittsfield,NH,"Pittsfield, NH",-71.3242331,43.3058983
Plainfield,NH,"Plainfield, NH",-72.2600655,43.5489556
Plymouth,NH,"Plymouth, NH",-71.6881528,43.7570196
Poplin,NH,"Poplin, NH",-71.1148534,42.97351
Portsmouth,NH,"Portsmouth, NH",-70.7625532,43.0717552
Richmond,NH,"Richmond, NH",-72.27158760000002,42.7544657
Rindge,NH,"Rindge, NH",-72.0098021,42.7511964
Rochester,NH,"Rochester, NH",-70.97561859999999,43.304526
Rumney,NH,"Rumney, NH",-71.8125811,43.80534859999999
Rye,NH,"Rye, NH",-70.7695547,43.0019301
Salem,NH,"Salem, NH",-71.2008912,42.78855530000001
Salisbury,NH,"Salisbury, NH",-71.7170222,43.3800768
Salmon Falls,NH,"Salmon Falls, NH",-70.8180507,43.2367263
Sambornton Bridge,NH,"Sambornton Bridge, NH",-71.46476580000001,43.5447469
Sanbornton,NH,"Sanbornton, NH",-71.58228369999999,43.4897584
Sanbornton Bridge,NH,"Sanbornton Bridge, NH",-71.46476580000001,43.5447469
Sanborton Bridge,NH,"Sanborton Bridge, NH",-71.6829845,43.7705596
Sandown,NH,"Sandown, NH",-71.1870053,42.928698
Sandwich,NH,"Sandwich, NH",-71.4104696,43.79087029999999
Seabrook,NH,"Seabrook, NH",-70.8655074,42.8909615
Shaker Village,NH,"Shaker Village, NH",-71.49073890000001,43.3587563
Shoreham,NH,"Shoreham, NH",-71.0116865,42.3009332
Social Library,NH,"Social Library, NH",-71.58926699999999,42.740003
Sommersworth,NH,"Sommersworth, NH",-70.8653372,43.2617503
Springfield,NH,"Springfield, NH",-72.0334187,43.4950734
Stewartstown,NH,"Stewartstown, NH",-71.5072399,45.0075703
Stoddard,NH,"Stoddard, NH",-72.1145281,43.0786901
Stratham,NH,"Stratham, NH",-70.9163873,43.0228677
Sullivan,NH,"Sullivan, NH",-72.2209182,43.01313529999999
Suncook,NH,"Suncook, NH",-71.4531241,43.130638
Surry,NH,"Surry, NH",-72.3211975,43.0178575
Sutton,NH,"Sutton, NH",-71.9514714,43.3342427
Swanzey,NH,"Swanzey, NH",-72.2795383,42.8741204
Tamworth,NH,"Tamworth, NH",-71.2631263,43.8597958
Temple,NH,"Temple, NH",-71.8513418,42.8188308
Troy,NH,"Troy, NH",-72.1771541,42.8314347
Tuftonborough,NH,"Tuftonborough, NH",-71.2221024,43.6963
Turtonborough,NH,"Turtonborough, NH",NA,NA
Tyngsborough and Dunstable,NH,"Tyngsborough and Dunstable, NH",-71.47430469999999,42.7198752
Union,NH,"Union, NH",-71.023921,43.4922083
Unity,NH,"Unity, NH",-72.3074326,43.2947268
Wakefield,NH,"Wakefield, NH",-71.0288751,43.5536938
Walpole,NH,"Walpole, NH",-72.4258229,43.0794944
Warner,NH,"Warner, NH",-71.8334145,43.2556568
Warren,NH,"Warren, NH",-71.89202829999999,43.9231239
Warren and Wentworth,NH,"Warren and Wentworth, NH",-71.8944672,43.9478719
Washington,NH,"Washington, NH",-72.0967507,43.1759107
Weare,NH,"Weare, NH",-71.7306313,43.0948033
Wendell,NH,"Wendell, NH",-72.1223601,43.3645896
Wentworth,NH,"Wentworth, NH",-71.91425040000001,43.8717359
West Lebanon,NH,"West Lebanon, NH",-72.31060649999999,43.6446508
Westmoreland,NH,"Westmoreland, NH",-72.4423102,42.9620253
Whitefield,NH,"Whitefield, NH",-71.6101011,44.3731103
Wilton,NH,"Wilton, NH",-71.7351077,42.8433943
Wincehster,NH,"Wincehster, NH",-72.38312359999999,42.7734022
Windham,NH,"Windham, NH",-71.30422899999999,42.8006441
Wolfborough,NH,"Wolfborough, NH",-71.20947989999999,43.5852069
Wolfeborough,NH,"Wolfeborough, NH",-71.20947989999999,43.5852069
Allowaystown,NJ,"Allowaystown, NJ",-75.3178952,39.5556617
Amboy,NJ,"Amboy, NJ",-74.2654234,40.5067723
Amwell,NJ,"Amwell, NJ",-74.75210609999999,40.43149409999999
Arneytown,NJ,"Arneytown, NJ",-74.5680919,40.102928
Ateo,NJ,"Ateo, NJ",NA,NA
Atlantic City,NJ,"Atlantic City, NJ",-74.4229266,39.3642834
Basking Ridge,NJ,"Basking Ridge, NJ",-74.5493284,40.7066174
Belvidere,NJ,"Belvidere, NJ",-75.07767470000002,40.82982
Beverly,NJ,"Beverly, NJ",-74.9190558,40.06538889999999
Bloomfield,NJ,"Bloomfield, NJ",-74.1854209,40.8067546
Bordentown,NJ,"Bordentown, NJ",-74.71182639999999,40.1462213
Bricksburg,NJ,"Bricksburg, NJ",-74.233738,40.025716
Bridgeton,NJ,"Bridgeton, NJ",-75.2340768,39.427337
Burlington,NJ,"Burlington, NJ",-74.86488729999999,40.071222
Caldwell,NJ,"Caldwell, NJ",-74.2765366,40.8398218
Camden,NJ,"Camden, NJ",-75.1196199,39.9259463
Cranford,NJ,"Cranford, NJ",-74.2995928,40.6584212
Cream Ridge,NJ,"Cream Ridge, NJ",-74.5236865,40.1340316
Dover,NJ,"Dover, NJ",-74.5621025,40.883988
Egg Harbor City,NJ,"Egg Harbor City, NJ",-74.64793639999999,39.5287282
Elizabeth,NJ,"Elizabeth, NJ",-74.2107006,40.6639916
Elizabethtown,NJ,"Elizabethtown, NJ",-74.2107006,40.6639916
Elzizabeth,NJ,"Elzizabeth, NJ",-74.2107006,40.6639916
Evesham,NJ,"Evesham, NJ",-74.88579890000001,39.8522951
Fairfield,NJ,"Fairfield, NJ",-74.3059959,40.8837406
Flemington,NJ,"Flemington, NJ",-74.85933179999999,40.5123258
Florence,NJ,"Florence, NJ",-74.7863387,40.0967369
Forest Grove,NJ,"Forest Grove, NJ",-75.04267589999999,39.52678220000001
Franklinville,NJ,"Franklinville, NJ",-75.080747,39.61779689999999
Freehold,NJ,"Freehold, NJ",-74.3000878,40.2136754
Greenwich,NJ,"Greenwich, NJ",-75.338263,39.3899304
Hackensack,NJ,"Hackensack, NJ",-74.0434736,40.8859325
Hackettstown,NJ,"Hackettstown, NJ",-74.8290555,40.8539879
Haddonfield,NJ,"Haddonfield, NJ",-75.03767069999999,39.8915022
Hamilton Square,NJ,"Hamilton Square, NJ",-74.65321329999999,40.2273316
Hancock's Bridge,NJ,"Hancock's Bridge, NJ",-75.46186519999999,39.5053904
Hardwick,NJ,"Hardwick, NJ",-74.9326129,41.0543894
Hoboken,NJ,"Hoboken, NJ",-74.0323626,40.7439905
Hopewell,NJ,"Hopewell, NJ",-74.7618284,40.3892726
Jamesburg,NJ,"Jamesburg, NJ",-74.4401513,40.3526079
Jersey City,NJ,"Jersey City, NJ",-74.0776417,40.72815749999999
Kingston,NJ,"Kingston, NJ",-74.6134903,40.3753844
Lakewood,NJ,"Lakewood, NJ",-74.2097014,40.08212899999999
Livingston,NJ,"Livingston, NJ",-74.3300842,40.7862871
Lodi,NJ,"Lodi, NJ",-74.08319709999999,40.8823215
Madison,NJ,"Madison, NJ",-74.417097,40.7598227
Matawan,NJ,"Matawan, NJ",-74.2295891,40.41482999999999
Mendham,NJ,"Mendham, NJ",-74.6007142,40.7759334
Middlebush,NJ,"Middlebush, NJ",-74.52932539999999,40.4977182
Millville,NJ,"Millville, NJ",-75.0393438,39.4020596
Montclair,NJ,"Montclair, NJ",-74.2090053,40.8259007
Moorestown,NJ,"Moorestown, NJ",-74.948886,39.9688817
Morrestown,NJ,"Morrestown, NJ",-74.948886,39.9688817
Morristown,NJ,"Morristown, NJ",-74.4815438,40.79676670000001
Mount Holly,NJ,"Mount Holly, NJ",-74.78793929999999,39.9931438
Mount Laurel,NJ,"Mount Laurel, NJ",-74.89099879999999,39.934002
Mt. Holly,NJ,"Mt. Holly, NJ",-74.78793929999999,39.9931438
Mullica Hill,NJ,"Mullica Hill, NJ",-75.22407179999999,39.7392804
New Brunswick,NJ,"New Brunswick, NJ",-74.4518188,40.4862157
New Market,NJ,"New Market, NJ",-74.4523749,40.5742699
newark,NJ,"newark, NJ",-74.1723667,40.735657
Newark,NJ,"Newark, NJ",-74.1723667,40.735657
Newton,NJ,"Newton, NJ",-74.7526651,41.0581527
Orange,NJ,"Orange, NJ",-74.2326478,40.7706187
Paterson,NJ,"Paterson, NJ",-74.17181099999999,40.9167654
Pennington,NJ,"Pennington, NJ",-74.790718,40.3284402
Perth Amboy,NJ,"Perth Amboy, NJ",-74.2654234,40.5067723
Pittsgrove,NJ,"Pittsgrove, NJ",-75.1311874,39.5314846
Plainfield,NJ,"Plainfield, NJ",-74.4073736,40.6337136
Princeton,NJ,"Princeton, NJ",-74.6672226,40.3572976
Rahway,NJ,"Rahway, NJ",-74.2776468,40.60815909999999
Red Bank,NJ,"Red Bank, NJ",-74.0643065,40.3470543
Ringoes,NJ,"Ringoes, NJ",-74.86750669999999,40.4289892
Rockaway,NJ,"Rockaway, NJ",-74.51432319999999,40.9012101
Roxbury and Chester,NJ,"Roxbury and Chester, NJ",-73.6636982,40.71917759999999
Salem,NJ,"Salem, NJ",-75.46714229999999,39.5717796
Scotch Plains,NJ,"Scotch Plains, NJ",-74.369018,40.6400404
Sharptown,NJ,"Sharptown, NJ",-75.3651917,39.6556693
Shiloh,NJ,"Shiloh, NJ",-75.2990798,39.4590032
Shrewsbury,NJ,"Shrewsbury, NJ",-74.0615285,40.3295547
Somerville,NJ,"Somerville, NJ",-74.60987999999999,40.5742696
South Hanover,NJ,"South Hanover, NJ",-74.41738769999999,40.8257746
South Orange,NJ,"South Orange, NJ",-74.2609903,40.7489277
South Vineland,NJ,"South Vineland, NJ",-75.02878729999999,39.4459487
Summit,NJ,"Summit, NJ",-74.3646122,40.7146376
Swedesboro,NJ,"Swedesboro, NJ",-75.3104654,39.7476136
trenton,NJ,"trenton, NJ",-74.7429384,40.2170534
Trenton,NJ,"Trenton, NJ",-74.7429384,40.2170534
Tuckerton,NJ,"Tuckerton, NJ",-74.34014499999999,39.603174
Upper Greenwich,NJ,"Upper Greenwich, NJ",-75.3398208,39.422576
Upper Penns Neck,NJ,"Upper Penns Neck, NJ",-75.5149218,39.6209462
Vincentown,NJ,"Vincentown, NJ",-74.7483371,39.9319279
Vineland,NJ,"Vineland, NJ",-75.02596369999999,39.4863773
West Hoboken,NJ,"West Hoboken, NJ",-74.0323626,40.7439905
Woodbridge,NJ,"Woodbridge, NJ",-74.2846022,40.5575986
Woodbury,NJ,"Woodbury, NJ",-75.1526774,39.83816909999999
Woodstown,NJ,"Woodstown, NJ",-75.32824540000001,39.65150269999999
Ft. Bayard,NM,"Ft. Bayard, NM",-108.1503221,32.7961863
Ft. Craig,NM,"Ft. Craig, NM",-107.0127582,33.6348408
Ft. Stanton,NM,"Ft. Stanton, NM",-105.5230362,33.495914
Las Vegas,NM,"Las Vegas, NM",-105.2227978,35.5942137
Santa Fe,NM,"Santa Fe, NM",-105.937799,35.6869752
Sante Fe,NM,"Sante Fe, NM",-105.937799,35.6869752
Silver City,NM,"Silver City, NM",-108.280326,32.770075
NA,NM,"NA, NM",-105.8700901,34.5199402
Carlin,NV,"Carlin, NV",-116.1039663,40.7138067
Carson City,NV,"Carson City, NV",-119.7674034,39.1637984
Gold Hill,NV,"Gold Hill, NV",-119.6574011,39.29046779999999
Virginia City,NV,"Virginia City, NV",-119.6499793,39.3095135
Albany,NY,"Albany, NY",-73.7562317,42.6525793
Albion,NY,"Albion, NY",-78.1936319,43.2464477
Alfred,NY,"Alfred, NY",-77.7905509,42.2542366
Alfred Centre,NY,"Alfred Centre, NY",-77.7917779,42.253844
Alleghany,NY,"Alleghany, NY",-78.4941887,42.0900647
Amber,NY,"Amber, NY",-76.2965968,42.88728930000001
Annandale,NY,"Annandale, NY",-73.9095279,42.0218762
Attica,NY,"Attica, NY",-78.28029459999999,42.8642267
Auburn,NY,"Auburn, NY",-76.5660529,42.9317335
Aurora,NY,"Aurora, NY",-76.7024485,42.7539591
Ballston,NY,"Ballston, NY",-73.86542949999999,42.9653961
Batavia,NY,"Batavia, NY",-78.1875167,42.9981156
Bath,NY,"Bath, NY",-77.31775770000002,42.3370164
Bay Ridge,NY,"Bay Ridge, NY",-74.03294989999999,40.6261638
Beacon,NY,"Beacon, NY",-73.9695832,41.5048158
Bedford,NY,"Bedford, NY",-73.6437397,41.204262
Belleville,NY,"Belleville, NY",-76.11951359999999,43.7834783
Belmont,NY,"Belmont, NY",-78.0344506,42.2231241
Bennington,NY,"Bennington, NY",-78.3975195,42.8370044
Binghampton,NY,"Binghampton, NY",-75.91797380000001,42.09868669999999
Binghamton,NY,"Binghamton, NY",-75.91797380000001,42.09868669999999
Binhampton,NY,"Binhampton, NY",-75.91797380000001,42.09868669999999
Blooming Grove,NY,"Blooming Grove, NY",-74.20478750000001,41.4227446
Bridgehampton,NY,"Bridgehampton, NY",-72.3009158,40.9378777
Brockport,NY,"Brockport, NY",-77.9391797,43.2136713
brooklyn,NY,"brooklyn, NY",-73.9441579,40.6781784
Brooklyn,NY,"Brooklyn, NY",-73.9441579,40.6781784
Buffalo,NY,"Buffalo, NY",-78.8783689,42.88644679999999
Buffaol,NY,"Buffaol, NY",-78.8783689,42.88644679999999
Canandaigua,NY,"Canandaigua, NY",-77.2816984,42.887535
Canandaigua?,NY,"Canandaigua?, NY",-77.2816984,42.887535
Canenlaigua,NY,"Canenlaigua, NY",-77.2816984,42.887535
Canton,NY,"Canton, NY",-75.1690942,44.5956163
Carmel,NY,"Carmel, NY",-73.6801297,41.4300937
Castle Creek,NY,"Castle Creek, NY",-75.91825299999999,42.2275753
Catskill,NY,"Catskill, NY",-73.95949399999999,42.21460709999999
Champlain,NY,"Champlain, NY",-73.4465251,44.9864273
Charleston,NY,"Charleston, NY",-74.3822058,42.81054779999999
Chittenago,NY,"Chittenago, NY",-75.86658,43.0450671
Clarkson,NY,"Clarkson, NY",-77.927621,43.2331655
Clifton Springs,NY,"Clifton Springs, NY",-77.1399756,42.9617304
Clinton,NY,"Clinton, NY",-75.3785034,43.0484029
Cohoes,NY,"Cohoes, NY",-73.70011869999999,42.7742446
Cohoes?,NY,"Cohoes?, NY",-73.70011869999999,42.7742446
Cold Spring,NY,"Cold Spring, NY",-73.954583,41.4200937
College Point,NY,"College Point, NY",-73.8389657,40.786395
Collins,NY,"Collins, NY",-78.8620736,42.4957331
Conervango,NY,"Conervango, NY",-79.0311516,42.238671600000004
Cooperstown,NY,"Cooperstown, NY",-74.92432099999999,42.7006303
Corning,NY,"Corning, NY",-77.05469029999999,42.1428521
Cornwall,NY,"Cornwall, NY",-74.0353681,41.4343383
Cortlandville,NY,"Cortlandville, NY",-76.1088001,42.5776902
Cuba,NY,"Cuba, NY",-78.2752927,42.2175668
Dannemora,NY,"Dannemora, NY",-73.7237528,44.7214301
Dunkink,NY,"Dunkink, NY",-79.3339324,42.4795019
Dunkirk,NY,"Dunkirk, NY",-79.3339324,42.4795019
East Hampton,NY,"East Hampton, NY",-72.1848009,40.96343350000001
East Maine,NY,"East Maine, NY",-75.99297779999999,42.1920192
East New York,NY,"East New York, NY",-73.8830701,40.6568312
Elizabethtown?,NY,"Elizabethtown?, NY",-73.59044779999999,44.2163337
Elmira,NY,"Elmira, NY",-76.8077338,42.0897965
Elmira?,NY,"Elmira?, NY",-76.8077338,42.0897965
Farmingdale,NY,"Farmingdale, NY",-73.4454009,40.7325997
Flushing,NY,"Flushing, NY",-73.833079,40.7674987
Fonda,NY,"Fonda, NY",-74.3765241,42.9545179
Fordham,NY,"Fordham, NY",-73.8992392,40.85790739999999
Fredonia,NY,"Fredonia, NY",-79.3317105,42.4400576
Genesee,NY,"Genesee, NY",-78.2703951,42.0469596
Geneseo,NY,"Geneseo, NY",-77.816947,42.795896
Geneseo Village,NY,"Geneseo Village, NY",-77.816947,42.795896
Geneva,NY,"Geneva, NY",-76.985557,42.8679836
Glens Falls,NY,"Glens Falls, NY",-73.6440058,43.3095164
Goshen,NY,"Goshen, NY",-74.3243191,41.4020382
Governors Island,NY,"Governors Island, NY",-74.016792,40.68945009999999
Greenwich,NY,"Greenwich, NY",-73.48872879999999,43.1374547
Hamilton,NY,"Hamilton, NY",-75.5446238,42.8270136
Harlem,NY,"Harlem, NY",-73.9464769,40.8115504
Hartwick,NY,"Hartwick, NY",-75.049126,42.6597113
Havana,NY,"Havana, NY",-73.985247,40.751786
Henrietta,NY,"Henrietta, NY",-77.6128039,43.0592452
Herkeimer,NY,"Herkeimer, NY",-74.9859889,43.0256259
Hess Road,NY,"Hess Road, NY",-78.6489422,43.3065765
Hicksville,NY,"Hicksville, NY",-73.5251253,40.7684331
Homestead,NY,"Homestead, NY",-74.0048089,40.7412108
Hornellsville,NY,"Hornellsville, NY",-77.7108686,42.3284854
Hudson,NY,"Hudson, NY",-73.790959,42.2528649
Huntington,NY,"Huntington, NY",-73.425676,40.8681539
Ilion,NY,"Ilion, NY",-75.0354347,43.0150703
Ithaca,NY,"Ithaca, NY",-76.5018807,42.4439614
Jamaica,NY,"Jamaica, NY",-73.7889689,40.702677
Jamestown,NY,"Jamestown, NY",-79.23532589999999,42.0970023
Kingston,NY,"Kingston, NY",-73.9973608,41.9270367
Le Roy,NY,"Le Roy, NY",-77.9841776,42.9783944
LeRoy,NY,"LeRoy, NY",-77.9841776,42.9783944
Liederkranz,NY,"Liederkranz, NY",-73.9593672,40.7817455
Lina,NY,"Lina, NY",-73.9192994,40.8643909
Little Falls,NY,"Little Falls, NY",-74.8595957,43.0434039
Little Valley,NY,"Little Valley, NY",-78.80558959999999,42.2525629
Louisville,NY,"Louisville, NY",-75.01576279999999,44.8975496
Lowville,NY,"Lowville, NY",-75.4918505,43.786736
Ludlow,NY,"Ludlow, NY",-73.90364869999999,40.9188967
Lyons,NY,"Lyons, NY",-76.9902456,43.0642305
Maine,NY,"Maine, NY",-76.0610361,42.1925746
Manhattan,NY,"Manhattan, NY",-73.9712488,40.7830603
Matteawan,NY,"Matteawan, NY",-73.965423,41.502603
McGranville,NY,"McGranville, NY",-73.259553,43.4078495
Mendon,NY,"Mendon, NY",-77.50486959999999,42.9976979
Middletown,NY,"Middletown, NY",-74.42293409999999,41.4459271
Millbrook,NY,"Millbrook, NY",-73.6940175,41.7850937
Mineola,NY,"Mineola, NY",-73.64068449999999,40.7492678
Monticello,NY,"Monticello, NY",-74.68932819999999,41.6556465
Morrisville,NY,"Morrisville, NY",-75.6401825,42.8986791
Mount Vernon,NY,"Mount Vernon, NY",-73.8370786,40.9125992
Mt. Kisco,NY,"Mt. Kisco, NY",-73.72707609999999,41.2042616
Mt. Vernon,NY,"Mt. Vernon, NY",-73.8370786,40.9125992
Mumford,NY,"Mumford, NY",-77.8602856,42.9928396
Murray,NY,"Murray, NY",-78.04585019999999,43.2739482
Naples,NY,"Naples, NY",-77.4024853,42.6153453
New Brighton,NY,"New Brighton, NY",-74.090226,40.6404369
New Lebanon,NY,"New Lebanon, NY",-73.39680400000002,42.4642991
New Rochelle,NY,"New Rochelle, NY",-73.7823549,40.9114882
new york,NY,"new york, NY",-74.0059413,40.7127837
New York,NY,"New York, NY",-74.0059413,40.7127837
Newburg,NY,"Newburg, NY",-74.0104178,41.5034271
Newburgh,NY,"Newburgh, NY",-74.0104178,41.5034271
Niagara Falls,NY,"Niagara Falls, NY",-79.0377388,43.0962143
Nimrods?,NY,"Nimrods?, NY",-73.3321881,40.7423805
North Hampstead? (Queens County),NY,"North Hampstead? (Queens County), NY",-73.6771662,40.8099413
North Penfield,NY,"North Penfield, NY",-77.475551,43.1303407
Northfield,NY,"Northfield, NY",-75.18878219999999,42.2470282
Norwich,NY,"Norwich, NY",-75.5235149,42.531184
Nyack,NY,"Nyack, NY",-73.9179146,41.0906519
Ogden,NY,"Ogden, NY",-77.8138553,43.1579962
Olean,NY,"Olean, NY",-78.42992699999999,42.083639
Oneida,NY,"Oneida, NY",-75.65129309999999,43.0925684
Oswego,NY,"Oswego, NY",-76.5104973,43.4553461
Oyster Bay,NY,"Oyster Bay, NY",-73.5358541,40.7893778
Parma,NY,"Parma, NY",-77.8138553,43.2343532
Penfield,NY,"Penfield, NY",-77.475551,43.1303407
Penn Yan,NY,"Penn Yan, NY",-77.0538577,42.6609026
Peughkeepsie?,NY,"Peughkeepsie?, NY",-73.9209701,41.7003713
Phelps,NY,"Phelps, NY",-77.05747099999999,42.957564
Pittsford,NY,"Pittsford, NY",-77.5149969,43.0906186
Plattsburgh,NY,"Plattsburgh, NY",-73.4529124,44.6994873
Port Chester,NY,"Port Chester, NY",-73.66568339999999,41.0017643
Portsmouth,NY,"Portsmouth, NY",-70.7625532,43.0717552
Poughkeepsie,NY,"Poughkeepsie, NY",-73.9209701,41.7003713
Randolph,NY,"Randolph, NY",-78.9966888,42.1195846
Rhinebeck,NY,"Rhinebeck, NY",-73.90743719999999,41.9318294
Richmond,NY,"Richmond, NY",-77.53901270000001,42.8214796
Riverhead,NY,"Riverhead, NY",-72.66204019999999,40.9170435
rochester,NY,"rochester, NY",-77.6109219,43.16103
Rochester,NY,"Rochester, NY",-77.6109219,43.16103
Rome,NY,"Rome, NY",-75.4557303,43.2128473
Rondout,NY,"Rondout, NY",-73.9851381,41.920648
Roundout,NY,"Roundout, NY",-73.9851381,41.920648
Rush,NY,"Rush, NY",-77.6298188,42.9954553
Rye,NY,"Rye, NY",-73.68373989999999,40.9806535
Sachell's Harbor,NY,"Sachell's Harbor, NY",NA,NA
Sag Harbor,NY,"Sag Harbor, NY",-72.2925819,40.99787730000001
Sageville,NY,"Sageville, NY",NA,NA
Sand Lake,NY,"Sand Lake, NY",-73.54066970000001,42.63730169999999
Saratoga Springs,NY,"Saratoga Springs, NY",-73.7845651,43.0831301
Saugerties,NY,"Saugerties, NY",-73.95291259999999,42.0775906
Schenectady,NY,"Schenectady, NY",-73.9395687,42.8142432
Schnectady,NY,"Schnectady, NY",-73.9395687,42.8142432
Schoharie,NY,"Schoharie, NY",-74.3095787,42.6659087
Scottsville,NY,"Scottsville, NY",-77.7452826,43.0258957
Seneca,NY,"Seneca, NY",-77.0794705,42.8466914
Setauket,NY,"Setauket, NY",-73.1025502,40.9293759
Sing Sing,NY,"Sing Sing, NY",-73.8679897,41.1511759
Skeneateles,NY,"Skeneateles, NY",-76.42910169999999,42.947011
Somers,NY,"Somers, NY",-73.7360175,41.29963050000001
Springfield,NY,"Springfield, NY",-74.85348379999999,42.836184
Springville,NY,"Springville, NY",-78.6672482,42.5083952
Stamford,NY,"Stamford, NY",-74.614318,42.4073024
Stanfordville,NY,"Stanfordville, NY",-73.7137984,41.8671647
Stapleton,NY,"Stapleton, NY",-74.07764139999999,40.6264929
Starkey,NY,"Starkey, NY",-76.9244059,42.5353489
Staten Island,NY,"Staten Island, NY",-74.1502007,40.5795317
Stephentown,NY,"Stephentown, NY",-73.3739973,42.5486929
Stratford,NY,"Stratford, NY",-74.6968146,43.1797921
Strathmore,NY,"Strathmore, NY",-73.677352,40.79204530000001
Success,NY,"Success, NY",-73.7176312,40.7706572
Suspension Bridge,NY,"Suspension Bridge, NY",-74.0446602,40.6066162
Sweden,NY,"Sweden, NY",-77.9510209,43.1726909
Syracuse,NY,"Syracuse, NY",-76.14742439999999,43.0481221
Tarrytown,NY,"Tarrytown, NY",-73.85874609999999,41.0762077
Thorn Hill,NY,"Thorn Hill, NY",-73.7337623,40.761574
Trenton,NY,"Trenton, NY",-75.2245693,43.228708
Troy,NY,"Troy, NY",-73.69178509999999,42.7284117
Utica,NY,"Utica, NY",-75.232664,43.100903
Vernon,NY,"Vernon, NY",-75.5393442,43.0795135
Walden,NY,"Walden, NY",-74.18848059999999,41.5612048
Wappinger's Falls,NY,"Wappinger's Falls, NY",-73.91096999999999,41.5964825
Watertown,NY,"Watertown, NY",-75.91075649999999,43.9747838
Watkins,NY,"Watkins, NY",-76.8732921,42.3806287
Weestchester,NY,"Weestchester, NY",-73.7948516,41.1220194
Wellsville,NY,"Wellsville, NY",-77.94805749999999,42.1220124
West Hennietta,NY,"West Hennietta, NY",-77.6632587,43.0384885
West Mendon,NY,"West Mendon, NY",-77.50486959999999,42.9976979
West Point,NY,"West Point, NY",-73.95597210000001,41.3914827
West Troy,NY,"West Troy, NY",-73.7012299,42.7300783
Westchester,NY,"Westchester, NY",-73.7948516,41.1220194
Westchester County,NY,"Westchester County, NY",-73.7948516,41.1220194
Wheatland,NY,"Wheatland, NY",-77.81830520000001,43.0134418
White Plains,NY,"White Plains, NY",-73.7629097,41.03398620000001
Willard,NY,"Willard, NY",-76.86856159999999,42.6820889
Willets Point,NY,"Willets Point, NY",-73.840436,40.7606911
Yonkers,NY,"Yonkers, NY",-73.89874689999999,40.9312099
Yorkville,NY,"Yorkville, NY",-75.2709991,43.1128475
NA,NY,"NA, NY",-74.00820039999999,40.7323142
Ada,OH,"Ada, OH",-83.8227148,40.7694969
Akron,OH,"Akron, OH",-81.51900529999999,41.0814447
Alliance,OH,"Alliance, OH",-81.10593089999999,40.9153362
Amesville,OH,"Amesville, OH",-81.9556956,39.4006285
Amherst,OH,"Amherst, OH",-82.2223774,41.3978217
Andover,OH,"Andover, OH",-80.572296,41.6067211
Ashtabula,OH,"Ashtabula, OH",-80.7898089,41.8650534
Astabula,OH,"Astabula, OH",-80.7898089,41.8650534
Athens,OH,"Athens, OH",-82.1012554,39.3292396
Aurora,OH,"Aurora, OH",-81.3453858,41.3175549
Austinburg,OH,"Austinburg, OH",-80.8547589,41.77198629999999
Barlow,OH,"Barlow, OH",-81.66485159999999,39.3986852
Bedford,OH,"Bedford, OH",-81.5365094,41.3931096
Bellefontaine,OH,"Bellefontaine, OH",-83.7596557,40.3611643
Bellevue,OH,"Bellevue, OH",-82.8415763,41.2736647
Bellville,OH,"Bellville, OH",-82.51072219999999,40.6200588
Belpre,OH,"Belpre, OH",-81.5729029,39.27396390000001
Berea,OH,"Berea, OH",-81.8543026,41.3661614
Berkshire,OH,"Berkshire, OH",-82.9178838,40.2452897
Blendon,OH,"Blendon, OH",-82.8694464,40.11503889999999
Bloomfield,OH,"Bloomfield, OH",-80.8765205,41.4580972
Bowling Green,OH,"Bowling Green, OH",-83.6513229,41.3747744
Brecksville,OH,"Brecksville, OH",-81.62679039999999,41.31977630000001
Broceville,OH,"Broceville, OH",-80.9539475,41.2354593
Brookfield,OH,"Brookfield, OH",-80.5660657,41.2340728
Brooklyn,OH,"Brooklyn, OH",-81.7512107,41.4301349
Bucyous,OH,"Bucyous, OH",-82.97546489999999,40.8083909
Buffalo,OH,"Buffalo, OH",-81.52076919999999,39.9158025
Burlington,OH,"Burlington, OH",-82.53571269999999,38.4073044
Burton,OH,"Burton, OH",-81.1450995,41.47060889999999
Butler County,OH,"Butler County, OH",-84.5222189,39.440463
Cadiz,OH,"Cadiz, OH",-80.9967628,40.2728452
Canton,OH,"Canton, OH",-81.378447,40.79894729999999
Carlisle,OH,"Carlisle, OH",-84.3202194,39.5820026
Carthage,OH,"Carthage, OH",-84.485507,39.1955782
Carthagena,OH,"Carthagena, OH",-84.56218229999999,40.4378453
Cass,OH,"Cass, OH",-82.06250519999999,40.1388308
Chagrin Falls,OH,"Chagrin Falls, OH",-81.3910999,41.4298516
Champaign County,OH,"Champaign County, OH",-83.804868,40.10258169999999
Champeon,OH,"Champeon, OH",-80.8765205,41.2990487
Chester,OH,"Chester, OH",-81.9226372,39.0875777
Cheviot,OH,"Cheviot, OH",-84.6132787,39.1570028
Chilicothe,OH,"Chilicothe, OH",-82.9824019,39.3331197
Chillcothe,OH,"Chillcothe, OH",-82.9824019,39.3331197
Chillicathe,OH,"Chillicathe, OH",-82.9824019,39.3331197
Chillicothe,OH,"Chillicothe, OH",-82.9824019,39.3331197
cincinnati,OH,"cincinnati, OH",-84.5120196,39.1031182
Cincinnati,OH,"Cincinnati, OH",-84.5120196,39.1031182
Cincinnatti,OH,"Cincinnatti, OH",-84.5120196,39.1031182
Circleville,OH,"Circleville, OH",-82.9460133,39.600618
Claridon,OH,"Claridon, OH",-81.1526976,41.5293807
Clarksfield,OH,"Clarksfield, OH",-82.4273903,41.1906086
Cleveland,OH,"Cleveland, OH",-81.6943605,41.49932
College Hill,OH,"College Hill, OH",-84.5484275,39.19853630000001
Columbia,OH,"Columbia, OH",-81.931657,41.2984264
columbus,OH,"columbus, OH",-82.99879419999999,39.9611755
Columbus,OH,"Columbus, OH",-82.99879419999999,39.9611755
Crestline,OH,"Crestline, OH",-82.7365677,40.78755719999999
Cuyahoga Falls,OH,"Cuyahoga Falls, OH",-81.48455849999999,41.1339449
Dane,OH,"Dane, OH",-83.97733,38.960344
Darby Creek,OH,"Darby Creek, OH",-83.09722029999999,39.7708144
Darke County,OH,"Darke County, OH",-84.68974949999999,40.1056572
Darrtown,OH,"Darrtown, OH",-84.6613395,39.4956099
Dayton,OH,"Dayton, OH",-84.1916069,39.7589478
Defiance,OH,"Defiance, OH",-84.3557802,41.2844933
Defiance?,OH,"Defiance?, OH",-84.3557802,41.2844933
Delaware,OH,"Delaware, OH",-83.067965,40.2986724
Donnellsville .,OH,"Donnellsville ., OH",-83.948544,39.9183927
Donnelsville,OH,"Donnelsville, OH",-83.948544,39.9183927
Dover,OH,"Dover, OH",-81.4740054,40.5206198
Dresden,OH,"Dresden, OH",-82.01069179999999,40.1214579
Eaton,OH,"Eaton, OH",-84.6366201,39.7439405
Eden,OH,"Eden, OH",-83.1434573,41.05700119999999
Eldridge,OH,"Eldridge, OH",-90.5845822,41.65808639999999
Elizabethtown,OH,"Elizabethtown, OH",-84.80467209999999,39.158668
Elyria,OH,"Elyria, OH",-82.10764859999999,41.3683798
Euclid,OH,"Euclid, OH",-81.5267873,41.5931049
Fairfield,OH,"Fairfield, OH",-84.5603187,39.3454673
Fayete County,OH,"Fayete County, OH",-83.46435509999999,39.5919809
Fearing,OH,"Fearing, OH",-81.40591859999999,39.4783262
Fitchville,OH,"Fitchville, OH",-82.4885036,41.0947762
Flat Rock,OH,"Flat Rock, OH",-82.85905919999999,41.2348571
Franklin,OH,"Franklin, OH",-84.30410739999999,39.5589474
Franklin Township,OH,"Franklin Township, OH",-81.32893969999999,41.18462540000001
Frederickstown,OH,"Frederickstown, OH",-82.5407213,40.48117209999999
Fredonia,OH,"Fredonia, OH",-82.5198829,40.152008
Fremont,OH,"Fremont, OH",-83.1218634,41.3503303
Galbrath,OH,"Galbrath, OH",-84.5857953,39.2167571
Galbreath,OH,"Galbreath, OH",-84.217311,40.045435
Galbreath Sketchio,OH,"Galbreath Sketchio, OH",NA,NA
Gambier,OH,"Gambier, OH",-82.3971038,40.3756194
Glendale,OH,"Glendale, OH",-84.4593871,39.27061339999999
Granger,OH,"Granger, OH",-81.7568253,41.16621260000001
Granville,OH,"Granville, OH",-82.51960369999999,40.06811920000001
Granville?,OH,"Granville?, OH",-82.51960369999999,40.06811920000001
Greene,OH,"Greene, OH",-83.8897057,39.697399
Greenfield,OH,"Greenfield, OH",-83.38269280000002,39.3520084
Greensville,OH,"Greensville, OH",-84.63301150000001,40.1028264
Greenville,OH,"Greenville, OH",-84.63301150000001,40.1028264
Guernesey,OH,"Guernesey, OH",-81.42789839999999,40.0731129
Guilford,OH,"Guilford, OH",-81.8333656,41.0215808
Gustavus,OH,"Gustavus, OH",-80.6659842,41.4708933
Hamilton,OH,"Hamilton, OH",-84.5613355,39.3995008
Hamilton and Rossville,OH,"Hamilton and Rossville, OH",-84.568637,39.401458
Hanover,OH,"Hanover, OH",-82.2609801,40.0797892
Harlem,OH,"Harlem, OH",-82.8101975,40.1572199
Harmar,OH,"Harmar, OH",-81.4661545,39.4154825
Harpersfield,OH,"Harpersfield, OH",-80.9650023,41.74236130000001
Harrison,OH,"Harrison, OH",-84.7915999,39.2536967
Harrisville,OH,"Harrisville, OH",-80.8875903,40.1814586
Hartford,OH,"Hartford, OH",-82.68626309999999,40.2389477
Highland,OH,"Highland, OH",-83.5974203,39.3445075
Hillsborough,OH,"Hillsborough, OH",-83.611587,39.2022866
Hinckley,OH,"Hinckley, OH",-81.71305219999999,41.2429494
Hiram,OH,"Hiram, OH",-81.1437098,41.3125552
Hopewell,OH,"Hopewell, OH",-82.1496049,39.9408999
Hubbard,OH,"Hubbard, OH",-80.569239,41.1564463
Hudson,OH,"Hudson, OH",-81.44066699999999,41.240056
Ivanton,OH,"Ivanton, OH",-81.378447,40.79894729999999
Jefferson,OH,"Jefferson, OH",-80.7698066,41.7386662
Kalida,OH,"Kalida, OH",-84.1993907,40.9828289
Kendal,OH,"Kendal, OH",-82.53930319999999,40.0576808
Kennard,OH,"Kennard, OH",-83.6796519,40.1931125
Lagrange,OH,"Lagrange, OH",-82.119872,41.2372753
Lancaster,OH,"Lancaster, OH",-82.5993294,39.7136754
Lebanon,OH,"Lebanon, OH",-84.2029922,39.4353373
Lebanon?,OH,"Lebanon?, OH",-84.2029922,39.4353373
Lee,OH,"Lee, OH",-80.9981576,40.5167174
Lenox,OH,"Lenox, OH",-80.7436141,41.6851376
Lewis Centre,OH,"Lewis Centre, OH",-83.0100987,40.1983884
Lexington,OH,"Lexington, OH",-82.5823931,40.6786691
Linton,OH,"Linton, OH",-81.7568253,40.1987643
Litchfield,OH,"Litchfield, OH",-82.0229219,41.1678322
Little Sandy (Little Sandusky),OH,"Little Sandy (Little Sandusky), OH",NA,NA
London,OH,"London, OH",-83.4482529,39.8864493
Lorain County,OH,"Lorain County, OH",-82.12783999999999,41.4116881
Loveland,OH,"Loveland, OH",-84.26382600000001,39.2689476
Lyme; Ridgefield,OH,"Lyme; Ridgefield, OH",-82.789774,41.2800749
Madison,OH,"Madison, OH",-81.049819,41.7711633
Mansfield,OH,"Mansfield, OH",-82.5154471,40.75839
Marietta,OH,"Marietta, OH",-81.45484359999999,39.41535200000001
Martinsville,OH,"Martinsville, OH",-83.814926,39.3239508
Marysville,OH,"Marysville, OH",-83.3671432,40.2364486
Massillon,OH,"Massillon, OH",-81.52150929999999,40.7967244
Massilon,OH,"Massilon, OH",-81.52150929999999,40.7967244
Mayfield,OH,"Mayfield, OH",-81.4392828,41.5519952
McConnellsville,OH,"McConnellsville, OH",-81.8531912,39.6486822
McConnelsville,OH,"McConnelsville, OH",-81.8531912,39.6486822
Medina,OH,"Medina, OH",-81.8552196,41.143245
Mercer County,OH,"Mercer County, OH",-84.68974949999999,40.59405479999999
Mesopotamia,OH,"Mesopotamia, OH",-80.9650023,41.4651132
Miami County,OH,"Miami County, OH",-84.1857115,40.081473
Miamisburg,OH,"Miamisburg, OH",-84.2866083,39.6428362
Middleberry,OH,"Middleberry, OH",-82.5943072,40.5293234
Milan,OH,"Milan, OH",-82.6054547,41.29755189999999
Milford,OH,"Milford, OH",-84.29438209999999,39.1753377
Monroe,OH,"Monroe, OH",-84.3621634,39.44033599999999
Monroeville,OH,"Monroeville, OH",-82.69629259999999,41.2442202
Montville,OH,"Montville, OH",-81.0503741,41.6072757
Morgan; Crosby,OH,"Morgan; Crosby, OH",-84.75533,39.22687130000001
Mount Vernon,OH,"Mount Vernon, OH",-82.4857181,40.3933956
Mt. Union,OH,"Mt. Union, OH",-81.1097204,40.9046928
Nelson,OH,"Nelson, OH",-81.0533854,41.31299380000001
Nelsonville,OH,"Nelsonville, OH",-82.23181559999999,39.458681
Neville,OH,"Neville, OH",-84.21215649999999,38.81006860000001
New Athens,OH,"New Athens, OH",-80.9956521,40.1847909
New Carlisle,OH,"New Carlisle, OH",-84.0254913,39.9361699
New Concord,OH,"New Concord, OH",-81.73401679999999,39.9936837
New London,OH,"New London, OH",-82.39988869999999,41.08505419999999
New Lyme,OH,"New Lyme, OH",-80.7436141,41.6060151
New Paris,OH,"New Paris, OH",-84.7932918,39.8569934
New Philadelphia,OH,"New Philadelphia, OH",-81.4456706,40.4897871
Newark,OH,"Newark, OH",-82.4012642,40.0581205
Newburg,OH,"Newburg, OH",-81.6634617,41.450052
Newburgh,OH,"Newburgh, OH",-81.6634617,41.450052
Newtown,OH,"Newtown, OH",-84.361606,39.1245047
North Royalton,OH,"North Royalton, OH",-81.7245739,41.3136644
Northwood,OH,"Northwood, OH",-83.46882040000001,41.60727199999999
Norwalk,OH,"Norwalk, OH",-82.6157331,41.24255309999999
Norwark,OH,"Norwark, OH",-82.6157331,41.24255309999999
Oberlin,OH,"Oberlin, OH",-82.21737859999999,41.2939386
Olive,OH,"Olive, OH",-81.8005724,39.1358048
Olmsted,OH,"Olmsted, OH",-81.9261999,41.3727861
Orange,OH,"Orange, OH",-81.48067440000001,41.4497758
Orwell,OH,"Orwell, OH",-80.86814369999999,41.5350551
Ottawa,OH,"Ottawa, OH",-84.0471666,41.0192185
Oxford,OH,"Oxford, OH",-84.74523099999999,39.5069974
Paddy's Run,OH,"Paddy's Run, OH",-84.719915,39.329549
Painesville,OH,"Painesville, OH",-81.245657,41.7244885
Paris,OH,"Paris, OH",-81.1648244,40.7975589
Parma,OH,"Parma, OH",-81.7229086,41.4047742
Penfield,OH,"Penfield, OH",-82.11695499999999,41.1615038
Perrysburgh,OH,"Perrysburgh, OH",-83.627157,41.556996
Plain,OH,"Plain, OH",-81.31566579999999,40.8283918
Poland,OH,"Poland, OH",-80.61479539999999,41.0242258
Port Clinton,OH,"Port Clinton, OH",-82.93769189999999,41.511995400000004
Port Washington,OH,"Port Washington, OH",-81.5206731,40.328124
Portland,OH,"Portland, OH",-81.7712428,39.0034129
Portsmouth,OH,"Portsmouth, OH",-82.9976742,38.7317431
Potter,OH,"Potter, OH",-81.96996759999999,41.3138571
Preble County,OH,"Preble County, OH",-84.68974949999999,39.7778251
Ravenna,OH,"Ravenna, OH",-81.2420473,41.1575566
Reading,OH,"Reading, OH",-84.44216410000001,39.2236694
Richfield,OH,"Richfield, OH",-81.6381785,41.2397772
Richmond,OH,"Richmond, OH",-80.7717478,40.4333996
Ripley,OH,"Ripley, OH",-83.84492449999999,38.7456277
Rome,OH,"Rome, OH",-83.3802744,38.66611959999999
Roscoe,OH,"Roscoe, OH",-81.87575799999999,40.281434
Ruggler,OH,"Ruggler, OH",-82.37773349999999,41.0389157
Rutland,OH,"Rutland, OH",-82.1304226,39.045355
Salem,OH,"Salem, OH",-80.8567501,40.9008923
Sandusky,OH,"Sandusky, OH",-82.7079605,41.4489396
Scio,OH,"Scio, OH",-81.0848211,40.3958988
Selena Township,OH,"Selena Township, OH",NA,NA
Seneca Co.,OH,"Seneca Co., OH",-83.1649001,41.1585179
Sharon Center,OH,"Sharon Center, OH",-81.7355206,41.0991732
Sidney,OH,"Sidney, OH",-84.1554987,40.2842164
South Amherst,OH,"South Amherst, OH",-82.2537689,41.3558794
Springboro,OH,"Springboro, OH",-84.2332718,39.5522815
Springdale,OH,"Springdale, OH",-84.48522129999999,39.287002
Springfield,OH,"Springfield, OH",-83.8088171,39.9242266
Steubenville,OH,"Steubenville, OH",-80.63396379999999,40.3697905
Sunbury,OH,"Sunbury, OH",-82.85906729999999,40.2425623
"Sunbury, Berkshire",OH,"Sunbury, Berkshire, OH",-82.8968189,40.231755
Tallmadge,OH,"Tallmadge, OH",-81.441779,41.1014451
Tallmadge Township,OH,"Tallmadge Township, OH",-81.441779,41.1014451
Thompson,OH,"Thompson, OH",-81.0533854,41.6702348
Tiffin,OH,"Tiffin, OH",-83.1779746,41.1144992
toledo,OH,"toledo, OH",-83.55521200000001,41.6639383
Toledo,OH,"Toledo, OH",-83.55521200000001,41.6639383
Troy,OH,"Troy, OH",-84.20327669999999,40.0394982
Trumbull Co.,OH,"Trumbull Co., OH",-80.7214417,41.3064984
Twinsburg,OH,"Twinsburg, OH",-81.4401129,41.3125552
Union Village,OH,"Union Village, OH",-84.3063343,39.8978327
Urbana,OH,"Urbana, OH",-83.7524298,40.1083912
Utica,OH,"Utica, OH",-82.4512699,40.2342313
Venice,OH,"Venice, OH",-82.8855961,41.0413536
Vermilion,OH,"Vermilion, OH",-82.36460679999999,41.4219889
Vernon,OH,"Vernon, OH",-82.4857181,40.3933956
Wadsworth,OH,"Wadsworth, OH",-81.72985190000001,41.0256101
Warren,OH,"Warren, OH",-80.81841659999999,41.2375569
Washington,OH,"Washington, OH",-83.4390843,39.5364511
Waterford,OH,"Waterford, OH",-81.6406827,39.5425161
Wauseon,OH,"Wauseon, OH",-84.14161469999999,41.5492182
Waverly Village,OH,"Waverly Village, OH",-82.9854553,39.1267349
"Wayne, Cherry Valley",OH,"Wayne, Cherry Valley, OH",-80.6659842,41.530383
Waynesville,OH,"Waynesville, OH",-84.086601,39.52978239999999
Wellington,OH,"Wellington, OH",-82.2179354,41.1689421
Wellsville,OH,"Wellsville, OH",-80.64896279999999,40.6028419
West Canaan,OH,"West Canaan, OH",-81.9937573,40.9450562
West Geneva,OH,"West Geneva, OH",-80.94814889999999,41.8050539
West Lodi,OH,"West Lodi, OH",-82.93824479999999,41.1642214
Westerville,OH,"Westerville, OH",-82.92906959999999,40.1261743
Westfield,OH,"Westfield, OH",-81.93319740000001,41.0264442
Whipstown,OH,"Whipstown, OH",-82.1645905,39.6445136
Wilberforce,OH,"Wilberforce, OH",-83.8777063,39.716171
Williamsburg,OH,"Williamsburg, OH",-84.05298859999999,39.0542311
Williamsfield,OH,"Williamsfield, OH",-80.5706292,41.5333874
Willoughby,OH,"Willoughby, OH",-81.4065011,41.6397696
Wilmington,OH,"Wilmington, OH",-83.8285375,39.4453393
Windham,OH,"Windham, OH",-81.0492611,41.2350562
Windsor,OH,"Windsor, OH",-80.93425789999999,41.535055
Woodstock,OH,"Woodstock, OH",-83.5274254,40.1739475
Wooster,OH,"Wooster, OH",-81.935143,40.8050565
Worthington,OH,"Worthington, OH",-83.017962,40.0931191
Worthington?,OH,"Worthington?, OH",-83.017962,40.0931191
Xenia,OH,"Xenia, OH",-83.9296526,39.6847822
Yellow Spring,OH,"Yellow Spring, OH",-83.88687399999999,39.8064486
Yellow Springs,OH,"Yellow Springs, OH",-83.88687399999999,39.8064486
Youngstown,OH,"Youngstown, OH",-80.6495194,41.0997803
Zanesville,OH,"Zanesville, OH",-82.0131924,39.9403453
Indian Terr.,OK,"Indian Terr., OK",-97.9065232,36.3863782
Indian Territory - Tallequah,OK,"Indian Territory - Tallequah, OK",-94.966185,35.9205888
Albany,OR,"Albany, OR",-123.1059282,44.6365107
Amity,OR,"Amity, OR",-123.2073257,45.1156724
Astoria,OR,"Astoria, OR",-123.8312534,46.1878841
Astoria?,OR,"Astoria?, OR",-123.8312534,46.1878841
Benton Co.,OR,"Benton Co., OR",-123.3873877,44.6281686
Butte Creeke,OR,"Butte Creeke, OR",-122.7667339,45.1299869
Clackamas Co.,OR,"Clackamas Co., OR",-122.1188945,45.2023855
Clatsop Co.,OR,"Clatsop Co., OR",-123.7653042,46.0210796
Columbia,OR,"Columbia, OR",-73.96008549999999,40.8093548
Coos County,OR,"Coos County, OR",-124.1057369,43.242897
Corvallis,OR,"Corvallis, OR",-123.2620435,44.5645659
Dalles,OR,"Dalles, OR",-121.1786823,45.5945645
Eugene,OR,"Eugene, OR",-123.0867536,44.0520691
Forest Grove,OR,"Forest Grove, OR",-123.1106631,45.5198364
Ft. Klamath,OR,"Ft. Klamath, OR",-121.9958544,42.7045782
Ft. Stevens,OR,"Ft. Stevens, OR",-123.9628714,46.2063469
Ft. Vancouver,OR,"Ft. Vancouver, OR",-122.6565852,45.6261746
Jackson Co.,OR,"Jackson Co., OR",-122.7646577,42.334535
Jackson County,OR,"Jackson County, OR",-122.7646577,42.334535
Lapwai,OR,"Lapwai, OR",-116.62116,46.238512
Manning/Clatsop Co.,OR,"Manning/Clatsop Co., OR",NA,NA
Manning/Grant Co,OR,"Manning/Grant Co, OR",NA,NA
McMinnville,OR,"McMinnville, OR",-123.1987163,45.21011619999999
Multnomal Masonic Lodge?,OR,"Multnomal Masonic Lodge?, OR",-122.5575496,45.558224
Oregon City,OR,"Oregon City, OR",-122.6067583,45.3573429
Philomath,OR,"Philomath, OR",-123.3676014,44.540121
Portland,OR,"Portland, OR",-122.6764816,45.5230622
Protland,OR,"Protland, OR",-122.6764816,45.5230622
Salem,OR,"Salem, OR",-123.0350963,44.9428975
Waiiltpu,OR,"Waiiltpu, OR",NA,NA
Willamette,OR,"Willamette, OR",-122.6574714,45.3474735
Yam Hill,OR,"Yam Hill, OR",-123.1873291,45.3415036
Allegheny,PA,"Allegheny, PA",-80.0087746,40.4450813
Allegheny City,PA,"Allegheny City, PA",-80.0157633,40.45199330000001
Allentown,PA,"Allentown, PA",-75.4901833,40.6084305
Altoona,PA,"Altoona, PA",-78.3947359,40.5186809
Andalusia,PA,"Andalusia, PA",-74.9705585,40.06688949999999
Anderson,PA,"Anderson, PA",-77.64554810000001,40.5397966
Annville,PA,"Annville, PA",-76.51524429999999,40.3295359
Ashland,PA,"Ashland, PA",-76.3457825,40.78175419999999
Attlelborough,PA,"Attlelborough, PA",-71.3985268,41.93940509999999
Bart Township,PA,"Bart Township, PA",-76.07399989999999,39.9231627
Beaty,PA,"Beaty, PA",-75.8737554,41.2433693
Bedford,PA,"Bedford, PA",-78.50390689999999,40.0186921
Beers,PA,"Beers, PA",-75.1356455,39.9624156
Bellefonte,PA,"Bellefonte, PA",-77.7783348,40.91339430000001
Bethleham,PA,"Bethleham, PA",-75.37045789999999,40.6259316
Bethlehem,PA,"Bethlehem, PA",-75.37045789999999,40.6259316
Bettysburg,PA,"Bettysburg, PA",-77.2310955,39.8309293
Birmingham,PA,"Birmingham, PA",-78.19528919999999,40.6478421
Bloomsburg,PA,"Bloomsburg, PA",-76.4549457,41.003698
Bridgewater,PA,"Bridgewater, PA",-80.29656279999999,40.7038717
Bristol,PA,"Bristol, PA",-74.8518311,40.1006661
Brookville,PA,"Brookville, PA",-79.0830924,41.1611746
Brownsville,PA,"Brownsville, PA",-79.8839357,40.0236854
Buckingham,PA,"Buckingham, PA",-75.0494329,40.3149535
Burgettstown,PA,"Burgettstown, PA",-80.3928423,40.3820132
Butler,PA,"Butler, PA",-79.89533279999999,40.8611755
Camp Hill,PA,"Camp Hill, PA",-76.9199742,40.23981180000001
Canonsburg,PA,"Canonsburg, PA",-80.18727969999999,40.2625702
Carbondale,PA,"Carbondale, PA",-75.5018508,41.5736935
Carlisle,PA,"Carlisle, PA",-77.20027449999999,40.2010241
Centerville,PA,"Centerville, PA",-79.7631081,41.7361695
Chambersburg,PA,"Chambersburg, PA",-77.6611022,39.9375911
Charlestown,PA,"Charlestown, PA",-75.55678209999999,40.0851595
Chester,PA,"Chester, PA",-75.3557457,39.849557
Chester Co.,PA,"Chester Co., PA",-75.8069082,40.0010204
Chester Springs,PA,"Chester Springs, PA",-75.6342521,40.0784461
Cnessona,PA,"Cnessona, PA",-76.19272219999999,40.6267574
Coatsville,PA,"Coatsville, PA",-75.8238355,39.9831616
Collegeville,PA,"Collegeville, PA",-75.451571,40.1856597
Columbia,PA,"Columbia, PA",-76.50440979999999,40.0337085
Concordville,PA,"Concordville, PA",-75.5280085,39.8856076
Conewago,PA,"Conewago, PA",-77.02766,39.7877712
Coudersport,PA,"Coudersport, PA",-78.02056019999999,41.7747878
Cressona,PA,"Cressona, PA",-76.19272219999999,40.6267574
Danville,PA,"Danville, PA",-76.6127329,40.96342
Darby,PA,"Darby, PA",-75.2590721,39.9184461
Dayton,PA,"Dayton, PA",-79.24198299999999,40.8803431
Dimocksville,PA,"Dimocksville, PA",-80.6038717,35.9173063
Doylestown,PA,"Doylestown, PA",-75.1298939,40.3101063
Easton,PA,"Easton, PA",-75.2207323,40.688432
Ebensburg,PA,"Ebensburg, PA",-78.7247426,40.4850717
Edinboro,PA,"Edinboro, PA",-80.1317236,41.87422249999999
Erie,PA,"Erie, PA",-80.085059,42.12922409999999
Ernest,PA,"Ernest, PA",-79.16170240000001,40.678121
Fallsington,PA,"Fallsington, PA",-74.8187743,40.1873314
Frankford,PA,"Frankford, PA",-75.07863569999999,40.0134124
Franklin,PA,"Franklin, PA",-79.8314437,41.3978358
Fredericktown,PA,"Fredericktown, PA",-79.9976689,40.0002463
Germantown,PA,"Germantown, PA",-75.1749671,40.028521
Gettysburg,PA,"Gettysburg, PA",-77.2310955,39.8309293
Girard,PA,"Girard, PA",-80.31811929999999,42.0003337
Glenside,PA,"Glenside, PA",-75.1527928,40.0999077
Goldsboro,PA,"Goldsboro, PA",-76.75024669999999,40.152593
Greensburgh,PA,"Greensburgh, PA",-79.5389289,40.3014581
greenville,PA,"greenville, PA",-80.39117850000001,41.404499
Greenville,PA,"Greenville, PA",-80.39117850000001,41.404499
Hainesburgh,PA,"Hainesburgh, PA",-75.06166999999999,40.955
Hallenbeck,PA,"Hallenbeck, PA",-78.6511736,41.9548944
Harleysville,PA,"Harleysville, PA",-75.3871206,40.2795476
Harrisburg,PA,"Harrisburg, PA",-76.8867008,40.2731911
Hartford,PA,"Hartford, PA",-75.6906241,41.7894121
Haverford,PA,"Haverford, PA",-75.3208107,40.0022406
Hoboken,PA,"Hoboken, PA",-76.3834145,41.1935145
Honesdale,PA,"Honesdale, PA",-75.25878709999999,41.5767552
Honeybrook,PA,"Honeybrook, PA",-75.9113306,40.0942664
Honeybrook Township,PA,"Honeybrook Township, PA",-75.8882508,40.0815127
Hopewell,PA,"Hopewell, PA",-80.2655846,40.5779972
Horsham,PA,"Horsham, PA",-75.1285061,40.1784422
Hulmesville,PA,"Hulmesville, PA",-74.9109996,40.14316549999999
Irvington,PA,"Irvington, PA",-74.22639699999999,40.7259354
Jenkinstown,PA,"Jenkinstown, PA",-75.1251743,40.0959438
Jenkintown,PA,"Jenkintown, PA",-75.1251743,40.0959438
Jewett,PA,"Jewett, PA",-78.6383591,41.725618
Johnstown,PA,"Johnstown, PA",-78.9219698,40.32674069999999
Kennett Square,PA,"Kennett Square, PA",-75.7116032,39.8467767
King of Prussia,PA,"King of Prussia, PA",-75.3835525,40.1012856
Kittaning,PA,"Kittaning, PA",-79.5219893,40.816453
Kittanning,PA,"Kittanning, PA",-79.5219893,40.816453
Lamberton,PA,"Lamberton, PA",-79.87893869999999,39.91368689999999
Lancanster,PA,"Lancanster, PA",-76.3055144,40.0378755
Lancaster,PA,"Lancaster, PA",-76.3055144,40.0378755
Lanchaster,PA,"Lanchaster, PA",-76.3055144,40.0378755
Latrobe,PA,"Latrobe, PA",-79.37948109999999,40.3211808
Lebanon,PA,"Lebanon, PA",-76.4113497,40.3409251
Lewisburg,PA,"Lewisburg, PA",-76.8844101,40.9645293
Lewistown,PA,"Lewistown, PA",-77.571382,40.5992395
Littlestown,PA,"Littlestown, PA",-77.0880385,39.744544
Lock Haven,PA,"Lock Haven, PA",-77.4469263,41.1370133
London Grove,PA,"London Grove, PA",-75.8185314,39.8513595
London Grove Township,PA,"London Grove Township, PA",-75.8185314,39.8513595
Londongrove,PA,"Londongrove, PA",-75.8185314,39.8513595
Loretto,PA,"Loretto, PA",-78.630296,40.5031263
Lower Merion,PA,"Lower Merion, PA",-75.2829046,40.0249667
Makefield,PA,"Makefield, PA",-74.8624092,40.2302142
Manayunk,PA,"Manayunk, PA",-75.2231106,40.0260015
Manch Chunk,PA,"Manch Chunk, PA",-75.7324127,40.8759235
Manheim,PA,"Manheim, PA",-76.3949614,40.16342789999999
Marietta,PA,"Marietta, PA",-76.5521882,40.0570411
Mauch Chunk?,PA,"Mauch Chunk?, PA",-75.7324127,40.8759235
McAlisterville,PA,"McAlisterville, PA",-77.2747096,40.6361901
Meadville,PA,"Meadville, PA",-80.15144839999999,41.6414438
Mechanicsburg,PA,"Mechanicsburg, PA",-77.0085876,40.2142565
Media,PA,"Media, PA",-75.387693,39.9167783
Mercersburg,PA,"Mercersburg, PA",-77.9033314,39.82786979999999
Merion,PA,"Merion, PA",-75.2508229,39.9982136
Mingo Creek?,PA,"Mingo Creek?, PA",-80.0283415,40.2016487
Monongahela,PA,"Monongahela, PA",-79.92616029999999,40.2031265
Montgomery,PA,"Montgomery, PA",-76.8769076,41.1703592
Montgomery Twp.,PA,"Montgomery Twp., PA",-75.2362381,40.2394356
Montrose,PA,"Montrose, PA",-75.8771388,41.8339653
Mountville,PA,"Mountville, PA",-76.43079639999999,40.03926420000001
Mt. Joy,PA,"Mt. Joy, PA",-76.50329959999999,40.109818
Mt. Pleasant,PA,"Mt. Pleasant, PA",-79.54114969999999,40.1489607
Muncy,PA,"Muncy, PA",-76.78551519999999,41.2056373
Nazareth,PA,"Nazareth, PA",-75.3096237,40.740375
New Bedford,PA,"New Bedford, PA",-80.5050184,41.0972681
New Berlin,PA,"New Berlin, PA",-76.9869178,40.8789732
New Brighton,PA,"New Brighton, PA",-80.3100627,40.7303434
New Castle,PA,"New Castle, PA",-80.34700900000001,41.0036719
New London,PA,"New London, PA",-75.8882508,39.7792561
New London Township,PA,"New London Township, PA",-75.8882508,39.7792561
New Wilmington,PA,"New Wilmington, PA",-80.33284280000001,41.1222812
Newtown,PA,"Newtown, PA",-74.9322596,40.2283371
Nicetown,PA,"Nicetown, PA",-75.1632937,40.0119395
Norristown,PA,"Norristown, PA",-75.3399048,40.121497
North East,PA,"North East, PA",-79.8342163,42.2156131
Oil City,PA,"Oil City, PA",-79.7064413,41.4339484
Orwigsboro,PA,"Orwigsboro, PA",-76.10077129999999,40.654813
Oxford,PA,"Oxford, PA",-75.9788349,39.785386
Palmer,PA,"Palmer, PA",-75.2493444,40.7167647
Paradise Township,PA,"Paradise Township, PA",-75.27123929999999,41.108057
Peach Bottom,PA,"Peach Bottom, PA",-76.22692119999999,39.7506049
Penn's Square,PA,"Penn's Square, PA",-76.3051321,40.03751949999999
Perkioman Bridge,PA,"Perkioman Bridge, PA",-75.4476822,40.1842709
Perkiomen,PA,"Perkiomen, PA",-75.4636031,40.2337131
phiadelphia,PA,"phiadelphia, PA",-75.1652215,39.9525839
Philadelphia,PA,"Philadelphia, PA",-75.1652215,39.9525839
Philadelphia?,PA,"Philadelphia?, PA",-75.1652215,39.9525839
Philadephia,PA,"Philadephia, PA",-75.1652215,39.9525839
Philipsburg,PA,"Philipsburg, PA",-78.2205688,40.8964465
Phoenixville,PA,"Phoenixville, PA",-75.51491279999999,40.1303822
Pittsburgh,PA,"Pittsburgh, PA",-79.9958864,40.44062479999999
Pittston,PA,"Pittston, PA",-75.78936039999999,41.3259134
Plumstead Twp.,PA,"Plumstead Twp., PA",-75.11951069999999,40.3840568
Plymouth,PA,"Plymouth, PA",-75.9446428,41.2403596
Port Carbon,PA,"Port Carbon, PA",-76.16883039999999,40.6964788
Pottstown,PA,"Pottstown, PA",-75.6496302,40.2453741
pottsville,PA,"pottsville, PA",-76.195499,40.6856456
Pottsville,PA,"Pottsville, PA",-76.195499,40.6856456
Quakertown,PA,"Quakertown, PA",-75.3415667,40.4417682
Radnor,PA,"Radnor, PA",-75.3754599,40.043912
Radnor Twp.,PA,"Radnor Twp., PA",-75.3754599,40.043912
Reading,PA,"Reading, PA",-75.9268747,40.3356483
Renova,PA,"Renova, PA",-77.75082019999999,41.3264556
Renovo,PA,"Renovo, PA",-77.75082019999999,41.3264556
Roxborough,PA,"Roxborough, PA",-75.2420722,40.0548134
Scranton,PA,"Scranton, PA",-75.66241219999999,41.408969
Selin's Grove,PA,"Selin's Grove, PA",-76.8621935,40.7989735
Semin's Grove,PA,"Semin's Grove, PA",-76.8621935,40.7989735
Sewickley,PA,"Sewickley, PA",-80.1844243,40.5364846
Shenango,PA,"Shenango, PA",-80.2990246,40.9322045
Shippensberg,PA,"Shippensberg, PA",-77.5202647,40.0506453
Shippensburg,PA,"Shippensburg, PA",-77.5202647,40.0506453
Somerset,PA,"Somerset, PA",-79.0780831,40.008411
South Bethlehem,PA,"South Bethlehem, PA",-79.3408743,40.9995097
South Hermitage,PA,"South Hermitage, PA",-75.98078079999999,40.05982270000001
Spring Garden,PA,"Spring Garden, PA",-75.16878919999999,39.9656683
Springfield,PA,"Springfield, PA",-75.32018780000001,39.9306677
St. Clair,PA,"St. Clair, PA",-76.1910536,40.72064510000001
St. Mary's,PA,"St. Mary's, PA",-78.5609398,41.42737380000001
Stroudsburg,PA,"Stroudsburg, PA",-75.1946248,40.9867609
Susquehanna,PA,"Susquehanna, PA",-75.5991789,41.9436071
Susquehanna Depot,PA,"Susquehanna Depot, PA",-75.5991789,41.9436071
Swarthmore,PA,"Swarthmore, PA",-75.3499123,39.9020565
Tamaqua,PA,"Tamaqua, PA",-75.9693707,40.7973112
Tarentum,PA,"Tarentum, PA",-79.75977089999999,40.6014555
Ten Mile (Washington Co.),PA,"Ten Mile (Washington Co.), PA",-80.0178598,39.9793843
Tidionte,PA,"Tidionte, PA",-79.40310339999999,41.6850604
Tioga,PA,"Tioga, PA",-77.1330265,41.9086848
Titusville,PA,"Titusville, PA",-79.6736631,41.62700359999999
Towanda,PA,"Towanda, PA",-76.4427188,41.767575
Uniontown,PA,"Uniontown, PA",-79.71643259999999,39.900076
Unionville,PA,"Unionville, PA",-77.87555870000001,40.907282
Upland,PA,"Upland, PA",-75.3826921,39.8526124
Uplands,PA,"Uplands, PA",-75.3826921,39.8526124
Upper Dublin,PA,"Upper Dublin, PA",-75.1895576,40.15326839999999
Villanova,PA,"Villanova, PA",-75.3491813,40.0375832
Warren,PA,"Warren, PA",-79.1450445,41.8439486
Washington,PA,"Washington, PA",-80.2461714,40.17396
Washington Co.,PA,"Washington Co., PA",-80.1875065,40.1367719
Washington County,PA,"Washington County, PA",-80.1875065,40.1367719
Wayne,PA,"Wayne, PA",-75.3698895,40.0415996
Waynesboro,PA,"Waynesboro, PA",-77.57776919999999,39.755927
Waynesburg,PA,"Waynesburg, PA",-80.1792299,39.8964641
Wellsboro,PA,"Wellsboro, PA",-77.3005304,41.74868379999999
West Chester,PA,"West Chester, PA",-75.6054882,39.9606643
West Chester Borough,PA,"West Chester Borough, PA",-75.6054882,39.9606643
West Grove,PA,"West Grove, PA",-75.82744129999999,39.8220535
Westchester,PA,"Westchester, PA",-75.6054882,39.9606643
Whitpain,PA,"Whitpain, PA",-75.2829046,40.1653934
Wilkes Barre,PA,"Wilkes Barre, PA",-75.88130749999999,41.2459149
Wilkes-Barre,PA,"Wilkes-Barre, PA",-75.88130749999999,41.2459149
Williamsport,PA,"Williamsport, PA",-77.00107860000001,41.2411897
Wormelsdorf,PA,"Wormelsdorf, PA",-76.1841139,40.3617591
Wormelsdorf?,PA,"Wormelsdorf?, PA",-76.1841139,40.3617591
Wyoming,PA,"Wyoming, PA",-75.83741739999999,41.3117471
Yardleyville,PA,"Yardleyville, PA",NA,NA
York,PA,"York, PA",-76.727745,39.9625984
NA,PA,"NA, PA",-122.286865,38.2975381
Anthony,RI,"Anthony, RI",-71.5492285,41.6951003
Ashaway,RI,"Ashaway, RI",-71.78562380000001,41.4234329
Ashton,RI,"Ashton, RI",-71.4306138,41.93898799999999
Barrington,RI,"Barrington, RI",-71.30860899999999,41.7406798
Bristol,RI,"Bristol, RI",-71.26620249999999,41.6771101
Briston,RI,"Briston, RI",-71.2825493,41.7303793
Burrellville,RI,"Burrellville, RI",-71.6847247,41.9661165
Burrillville,RI,"Burrillville, RI",-71.6847247,41.9661165
Camden,RI,"Camden, RI",-71.4902687,41.4443912
Central Falls,RI,"Central Falls, RI",-71.3922785,41.8906553
Centredale,RI,"Centredale, RI",-71.46766389999999,41.8535518
Charlestown,RI,"Charlestown, RI",-71.64187439999999,41.3832162
Chepacket,RI,"Chepacket, RI",-71.6714162,41.9152194
Coventry,RI,"Coventry, RI",-71.5642076,41.6885978
Cranston,RI,"Cranston, RI",-71.4372796,41.7798226
Cumberland,RI,"Cumberland, RI",-71.4061876,41.9721816
Cumberland Hill,RI,"Cumberland Hill, RI",-71.4670043,41.9745431
East Greenwich,RI,"East Greenwich, RI",-71.51304449999999,41.6342619
East Providence,RI,"East Providence, RI",-71.3700545,41.8137116
Exeter,RI,"Exeter, RI",-71.5351476,41.5750676
Fort Adams,RI,"Fort Adams, RI",-71.336224,41.4788755
Foster,RI,"Foster, RI",-71.7581249,41.8537098
Glocester,RI,"Glocester, RI",-71.69106599999999,41.9043113
Greenwich,RI,"Greenwich, RI",-71.51304449999999,41.6342619
Harrisville,RI,"Harrisville, RI",-71.6745112,41.96565390000001
Hopkinton,RI,"Hopkinton, RI",-71.7775501,41.46127190000001
Hopkinton and Richmond,RI,"Hopkinton and Richmond, RI",-71.710346,41.4723453
Jamestown,RI,"Jamestown, RI",-71.3711656,41.4963134
Johnston,RI,"Johnston, RI",-71.51261699999999,41.8205199
Kingston,RI,"Kingston, RI",-71.52255980000001,41.48037910000001
Knightsville,RI,"Knightsville, RI",-71.4622808,41.7814892
Lansdale,RI,"Lansdale, RI",NA,NA
Little Compton,RI,"Little Compton, RI",-71.17115629999999,41.5101032
Lonsdale,RI,"Lonsdale, RI",-71.403668,41.9073217
Manville,RI,"Manville, RI",-71.47357989999999,41.9698686
Middletown,RI,"Middletown, RI",-71.2834538,41.5218243
Mt. Hope,RI,"Mt. Hope, RI",-71.2400475,41.6739909
New Shoreham,RI,"New Shoreham, RI",-71.5576045,41.172137
Newport,RI,"Newport, RI",-71.3128285,41.4901024
North Kingstown,RI,"North Kingstown, RI",-71.4536835,41.5568315
North Scituate,RI,"North Scituate, RI",-71.5870939,41.8326629
North Shoreham,RI,"North Shoreham, RI",-71.5576045,41.172137
North Smithfield,RI,"North Smithfield, RI",-71.5495071,41.9667652
Old Warwick,RI,"Old Warwick, RI",-71.4648672,41.713261
Olneyville,RI,"Olneyville, RI",-71.44626269999999,41.8217302
Pawtucket,RI,"Pawtucket, RI",-71.38255579999999,41.878711
Pawtuxet,RI,"Pawtuxet, RI",-71.39050619999999,41.7638237
Peacedale,RI,"Peacedale, RI",-71.4998791,41.4510088
Phoenix,RI,"Phoenix, RI",-71.4709641,41.6960819
Phoenix?,RI,"Phoenix?, RI",-71.4709641,41.6960819
Portsmouth,RI,"Portsmouth, RI",-71.25032569999999,41.60232449999999
Providence,RI,"Providence, RI",-71.4128343,41.8239891
Scituate,RI,"Scituate, RI",-71.6198686,41.7964495
Sharren,RI,"Sharren, RI",-71.4546708,41.709511
Slatensville,RI,"Slatensville, RI",-71.5801719,42.0005695
Slatersville,RI,"Slatersville, RI",-71.5801719,42.0005695
Smithfield,RI,"Smithfield, RI",-71.54951009999999,41.9220496
South Kingston,RI,"South Kingston, RI",-71.524667,41.4475686
South Kingstown,RI,"South Kingstown, RI",-71.524667,41.4475686
Tiventon,RI,"Tiventon, RI",-71.2134231,41.6259211
Tiverton,RI,"Tiverton, RI",-71.2134231,41.6259211
Union,RI,"Union, RI",-71.4097349,41.8225653
Warren,RI,"Warren, RI",-71.2825493,41.7303793
Warwick,RI,"Warwick, RI",-71.4161671,41.7001009
West Greenwich,RI,"West Greenwich, RI",-71.66381319999999,41.62854979999999
Westerly,RI,"Westerly, RI",-71.82728709999999,41.3775987
Wickford,RI,"Wickford, RI",-71.4524587,41.5711221
Woonsocket,RI,"Woonsocket, RI",-71.51478390000001,42.00287609999999
Woonsocket Falls,RI,"Woonsocket Falls, RI",-71.51694619999999,41.9988022
NA,RI,"NA, RI",106.1110501,22.1406595
Abbeville Dist.,SC,"Abbeville Dist., SC",-82.3796778,34.1854321
Abbeville Dist. (or county),SC,"Abbeville Dist. (or county), SC",-82.3796778,34.1854321
Barnwell,SC,"Barnwell, SC",-81.3587177,33.2448733
Beaufort,SC,"Beaufort, SC",-80.6698286,32.4315813
Berkeley Co.,SC,"Berkeley Co., SC",-80.0087746,33.1260618
Camden,SC,"Camden, SC",-80.6070237,34.24653929999999
Charleston,SC,"Charleston, SC",-79.93105120000001,32.7764749
Chatham,SC,"Chatham, SC",-81.1196075,31.9994194
Cheram,SC,"Cheram, SC",-81.667374,35.063735
Cheraw,SC,"Cheraw, SC",-79.8833971,34.6976564
Chester dist. (or county),SC,"Chester dist. (or county), SC",-81.1804836,34.71510740000001
Clinton,SC,"Clinton, SC",-81.88065619999999,34.4726276
Columbia,SC,"Columbia, SC",-81.0348144,34.0007104
Deal,SC,"Deal, SC",1.4025262,51.2158849
Due West,SC,"Due West, SC",-82.387902,34.3334469
Duw West,SC,"Duw West, SC",-82.387902,34.3334469
Edgefield,SC,"Edgefield, SC",-81.9295582,33.7895774
Edisto Island (near Charleston),SC,"Edisto Island (near Charleston), SC",-80.2971369,32.5503474
Fair Forest,SC,"Fair Forest, SC",-82.0104452,34.9566544
Fairfield County,SC,"Fairfield County, SC",-81.0754657,34.4478348
Georgetown,SC,"Georgetown, SC",-79.2944964,33.376834
Gravesend,SC,"Gravesend, SC",0.3816479,51.4435258
Greenfield,SC,"Greenfield, SC",-81.9409479,33.5345802
Greenville,SC,"Greenville, SC",-82.3940104,34.85261759999999
Greenville Co.,SC,"Greenville Co., SC",-82.34518899999999,34.9297484
Greenwood,SC,"Greenwood, SC",-82.1617883,34.1954001
Hamburgh,SC,"Hamburgh, SC",-81.957893,33.4798589
Indian Land,SC,"Indian Land, SC",-80.8558097,35.0016097
James Island,SC,"James Island, SC",-79.95284509999999,32.7534721
Laurens,SC,"Laurens, SC",-82.0142597,34.4990116
lexington,SC,"lexington, SC",-81.2362107,33.9815369
Lexington,SC,"Lexington, SC",-81.2362107,33.9815369
Mayesville,SC,"Mayesville, SC",-80.20813190000001,33.9876575
Newberry,SC,"Newberry, SC",-81.6187178,34.2745833
Pendleton,SC,"Pendleton, SC",-82.7837514,34.6517733
Pineville,SC,"Pineville, SC",-80.0292462,33.4282228
Port Royall,SC,"Port Royall, SC",-80.6926069,32.3790843
Prince Williams,SC,"Prince Williams, SC",-82.1599368,34.7814171
Santee,SC,"Santee, SC",-80.4864764,33.4751634
Society Hill,SC,"Society Hill, SC",-79.8508976,34.5126567
Spartanburg,SC,"Spartanburg, SC",-81.9320482,34.9495672
St. Bartholomew,SC,"St. Bartholomew, SC",-80.069453,34.376046
St. George,SC,"St. George, SC",-80.57565330000001,33.1859958
St. John,SC,"St. John, SC",-80.0646682,32.7177248
Stateburgh,SC,"Stateburgh, SC",-80.53480689999999,33.9576546
Statesburgh,SC,"Statesburgh, SC",-80.529809,33.94950499999999
Sumterville,SC,"Sumterville, SC",-80.3414693,33.9204354
Sumterville (Sumter),SC,"Sumterville (Sumter), SC",NA,NA
Union,SC,"Union, SC",-81.623711,34.7154122
Waccamaw,SC,"Waccamaw, SC",-79.1460293,33.4518078
Walhalla,SC,"Walhalla, SC",-83.06404169999999,34.7648176
Walterboro,SC,"Walterboro, SC",-80.6667688,32.9051704
Welsh Neck,SC,"Welsh Neck, SC",-79.849031,34.511844
Williamsburg,SC,"Williamsburg, SC",-79.6502105,33.62936060000001
Winnsboro,SC,"Winnsboro, SC",-81.0864776,34.3807012
Winyah,SC,"Winyah, SC",-79.24229559999999,33.2702072
York Dist.,SC,"York Dist., SC",-81.24201750000002,34.9943021
York Dist. (or county),SC,"York Dist. (or county), SC",-81.2027157,34.9863891
NA,SC,"NA, SC",-81.1637245,33.836081
Aberdeen,SD,"Aberdeen, SD",-98.4864829,45.4646985
Ft. Randall,SD,"Ft. Randall, SD",-98.475512,43.083096
Ft. Sully,SD,"Ft. Sully, SD",-100.4573215,44.5979584
Ft. Wadsworth,SD,"Ft. Wadsworth, SD",-97.53186240000001,45.6587904
Yankton,SD,"Yankton, SD",-97.39728129999999,42.87110879999999
Athens,TN,"Athens, TN",-84.5929898,35.4428512
Briston,TN,"Briston, TN",-82.18874439999999,36.5951059
Charlotte,TN,"Charlotte, TN",-87.33973189999999,36.1772797
Chattanooga,TN,"Chattanooga, TN",-85.3096801,35.0456297
Clarksville,TN,"Clarksville, TN",-87.3594528,36.5297706
Columbia,TN,"Columbia, TN",-87.0352831,35.6150716
Culleoka,TN,"Culleoka, TN",-86.9830602,35.4795186
Dyersburg,TN,"Dyersburg, TN",-89.38562809999999,36.0345159
Edgefield,TN,"Edgefield, TN",-82.13985319999999,36.5898299
Fayetteville,TN,"Fayetteville, TN",-86.57055079999999,35.1520266
Fountain,TN,"Fountain, TN",-83.9374084,36.0320262
Franklin,TN,"Franklin, TN",-86.8688899,35.9250637
Franklin College,TN,"Franklin College, TN",-86.8282162,35.9561462
Gallatin,TN,"Gallatin, TN",-86.4466599,36.3883809
Greeneville,TN,"Greeneville, TN",-82.83098609999999,36.1631574
Greenville,TN,"Greenville, TN",-82.83098609999999,36.1631574
Irving College,TN,"Irving College, TN",-85.713312,35.58396
Jackson,TN,"Jackson, TN",-88.81394689999999,35.6145169
Knoxville,TN,"Knoxville, TN",-83.9207392,35.9606384
Knoxville Lib.,TN,"Knoxville Lib., TN",-83.919461,35.962303
LaGrange,TN,"LaGrange, TN",-89.2436803,35.0453673
lebanon,TN,"lebanon, TN",-86.2911024,36.2081098
Lebanon,TN,"Lebanon, TN",-86.2911024,36.2081098
Madisonville,TN,"Madisonville, TN",-84.3635338,35.5197984
Maryville,TN,"Maryville, TN",-83.9704593,35.7564719
Massy Creek,TN,"Massy Creek, TN",-83.48346149999999,36.1116278
McKenzie,TN,"McKenzie, TN",-88.5186636,36.1325616
McMinnville,TN,"McMinnville, TN",-85.7801453,35.6865889
memphis,TN,"memphis, TN",-90.0489801,35.1495343
Memphis,TN,"Memphis, TN",-90.0489801,35.1495343
Mifflin,TN,"Mifflin, TN",-88.5800517,35.5528512
Mossy Creek,TN,"Mossy Creek, TN",-83.48346149999999,36.1116278
Murfreesboro,TN,"Murfreesboro, TN",-86.39027,35.8456213
Nashville,TN,"Nashville, TN",-86.7816016,36.1626638
Pulaski,TN,"Pulaski, TN",-87.0308412,35.1998023
Savannah,TN,"Savannah, TN",-88.2492037,35.2248034
Sewanee,TN,"Sewanee, TN",-85.9210899,35.2031373
Somerville,TN,"Somerville, TN",-89.35007139999999,35.2436969
Stockton,TN,"Stockton, TN",-84.8227225,36.40535029999999
Trenton,TN,"Trenton, TN",-88.94145379999999,35.9806239
Tusculum,TN,"Tusculum, TN",-82.7587626,36.1751031
Washington County,TN,"Washington County, TN",-82.5185837,36.3321016
Williamsport,TN,"Williamsport, TN",-87.21920310000002,35.6866467
Winchester,TN,"Winchester, TN",-86.11220709999999,35.1859163
NA,TN,"NA, TN",-86.5804473,35.5174913
Austin,TX,"Austin, TX",-97.7430608,30.267153
Bastrop,TX,"Bastrop, TX",-97.3152701,30.1104947
Belton,TX,"Belton, TX",-97.46445299999999,31.0560132
Brownsville,TX,"Brownsville, TX",-97.4974838,25.9017472
Chapel Hill,TX,"Chapel Hill, TX",-96.2571708,30.14249319999999
Clarksville,TX,"Clarksville, TX",-95.05272199999999,33.6106648
College Station,TX,"College Station, TX",-96.3344068,30.627977
Content,TX,"Content, TX",-97.778764,30.2850698
Corsicana,TX,"Corsicana, TX",-96.46887269999999,32.0954304
Dallas,TX,"Dallas, TX",-96.79698789999999,32.7766642
Fort Worth,TX,"Fort Worth, TX",-97.3307658,32.7554883
Ft. Clark,TX,"Ft. Clark, TX",-100.4194417,29.3064207
Galveston,TX,"Galveston, TX",-94.7976958,29.3013479
Georgetown,TX,"Georgetown, TX",-97.6779842,30.6332618
Henderson,TX,"Henderson, TX",-94.7993802,32.1532156
houston,TX,"houston, TX",-95.3698028,29.7604267
Houston,TX,"Houston, TX",-95.3698028,29.7604267
Huntsville,TX,"Huntsville, TX",-95.55077709999999,30.7235263
Independence,TX,"Independence, TX",-96.346389,30.319167
Jefferson,TX,"Jefferson, TX",-94.34519259999999,32.7573626
Leon County,TX,"Leon County, TX",-95.9832577,31.2152685
Liberty County,TX,"Liberty County, TX",-94.81059549999999,30.1633593
Marshall,TX,"Marshall, TX",-94.36741839999999,32.5448714
Matagorda,TX,"Matagorda, TX",-95.96827139999999,28.691133
near San Antonio,TX,"near San Antonio, TX",-98.49362819999999,29.4241219
New Braunfels,TX,"New Braunfels, TX",-98.1244531,29.7030024
Nocogdoches,TX,"Nocogdoches, TX",-94.6554874,31.6035129
Phantom Hill,TX,"Phantom Hill, TX",-99.6789831,32.6423673
Rio Grande,TX,"Rio Grande, TX",-98.8203046,26.3797874
Rutersville,TX,"Rutersville, TX",-96.7972005,29.9477242
San Antonio,TX,"San Antonio, TX",-98.49362819999999,29.4241219
Sherman,TX,"Sherman, TX",-96.6088805,33.6356618
Sisterdale,TX,"Sisterdale, TX",-98.7208615,29.9729915
tehuacana,TX,"tehuacana, TX",-96.54692829999999,31.7412763
Tehuacana,TX,"Tehuacana, TX",-96.54692829999999,31.7412763
Tyler,TX,"Tyler, TX",-95.30106239999999,32.3512601
Waco,TX,"Waco, TX",-97.1466695,31.549333
Waxahachie,TX,"Waxahachie, TX",-96.8483311,32.3865312
NA,TX,"NA, TX",-99.9018131,31.9685988
Alpine City,UT,"Alpine City, UT",-111.7779865,40.4532833
American Fork,UT,"American Fork, UT",-111.7957645,40.3768954
Beaver,UT,"Beaver, UT",-112.6410518,38.2769149
Beaver City,UT,"Beaver City, UT",-112.6410518,38.2769149
Cedar City,UT,"Cedar City, UT",-113.0618931,37.67747689999999
Coalville,UT,"Coalville, UT",-111.3993634,40.9177251
Desaret City,UT,"Desaret City, UT",NA,NA
Ephraim,UT,"Ephraim, UT",-111.5863052,39.3596841
Fillmore,UT,"Fillmore, UT",-112.3397377,38.9638553
Gardnersville,UT,"Gardnersville, UT",NA,NA
Gunnison,UT,"Gunnison, UT",-111.8182582,39.1552391
Harrisburg,UT,"Harrisburg, UT",-113.3943953,37.2058153
Lehi,UT,"Lehi, UT",-111.8507662,40.3916172
Logan,UT,"Logan, UT",-111.8338359,41.7369803
Manti,UT,"Manti, UT",-111.6368627,39.2682951
Minersville,UT,"Minersville, UT",-112.9235621,38.2141363
Moroni,UT,"Moroni, UT",-111.5904725,39.5249615
Mount Pleasant,UT,"Mount Pleasant, UT",-111.4554659,39.5469073
Nephi,UT,"Nephi, UT",-111.8363216,39.7102336
Ogden City,UT,"Ogden City, UT",-111.9738304,41.223
Parowan,UT,"Parowan, UT",-112.8279996,37.8421975
Payson,UT,"Payson, UT",-111.7321518,40.0443989
Provo,UT,"Provo, UT",-111.6585337,40.2338438
Rockville,UT,"Rockville, UT",-113.0382745,37.1610939
Salt Lake City,UT,"Salt Lake City, UT",-111.8910474,40.7607793
Spanish Forks,UT,"Spanish Forks, UT",-111.654923,40.114955
Springville,UT,"Springville, UT",-111.6107526,40.1652335
St. George,UT,"St. George, UT",-113.5684164,37.0965278
Tooele,UT,"Tooele, UT",-112.29828,40.53077760000001
Toquersville,UT,"Toquersville, UT",-113.2846707,37.2533157
Washington,UT,"Washington, UT",-113.5082867,37.1305373
Abington,VA,"Abington, VA",-81.9773482,36.70983349999999
Alexandria,VA,"Alexandria, VA",-77.0469214,38.8048355
Ashland,VA,"Ashland, VA",-77.47998369999999,37.7590318
Aylett's,VA,"Aylett's, VA",-77.1056529,37.7851462
Berryville,VA,"Berryville, VA",-77.9822193,39.1517713
Blacksburg,VA,"Blacksburg, VA",-80.4139393,37.2295733
Boydtown,VA,"Boydtown, VA",-78.38749779999999,36.6676413
Bruton,VA,"Bruton, VA",-76.6915035,37.3107749
Charlotesville,VA,"Charlotesville, VA",-78.47667810000002,38.0293059
Charlottesville,VA,"Charlottesville, VA",-78.47667810000002,38.0293059
Charlottesville?,VA,"Charlottesville?, VA",-78.47667810000002,38.0293059
Christiansburg,VA,"Christiansburg, VA",-80.4089389,37.1298517
Dimveddie?,VA,"Dimveddie?, VA",NA,NA
emory,VA,"emory, VA",-81.834939,36.77381099999999
Emory,VA,"Emory, VA",-81.834939,36.77381099999999
Fairfax,VA,"Fairfax, VA",-77.30637329999999,38.84622359999999
Fairfax County,VA,"Fairfax County, VA",-77.2405153,38.9085472
Fort Monroe,VA,"Fort Monroe, VA",-76.3110354,37.0015693
Frederickburg,VA,"Frederickburg, VA",-77.4605399,38.3031837
Fredricksburg,VA,"Fredricksburg, VA",-77.4605399,38.3031837
Front Royal,VA,"Front Royal, VA",-78.1944446,38.9181671
Gate City,VA,"Gate City, VA",-82.5809876,36.6378774
Germanna,VA,"Germanna, VA",-77.783543,38.377679
Hampden Sidney,VA,"Hampden Sidney, VA",-78.46102979999999,37.2403758
Hampden Sydney,VA,"Hampden Sydney, VA",-78.46102979999999,37.2403758
Hampton,VA,"Hampton, VA",-76.34522179999999,37.0298687
Harrisonburg,VA,"Harrisonburg, VA",-78.8689155,38.4495688
Hillsborough (now Hillsboro),VA,"Hillsborough (now Hillsboro), VA",-77.7339496,39.2057315
Hollins,VA,"Hollins, VA",-79.94309520000002,37.3412463
Jeffersonville (now Tazemell),VA,"Jeffersonville (now Tazemell), VA",-81.4988981,37.1189024
Kikotan,VA,"Kikotan, VA",-76.346333,37.0143135
King George's Co.,VA,"King George's Co., VA",-77.17972209999999,38.26643749999999
Leeds,VA,"Leeds, VA",-72.6820638,42.351168
Lewisburg,VA,"Lewisburg, VA",-80.44563029999999,37.8017879
Lexington,VA,"Lexington, VA",-79.4428157,37.78402080000001
Lynchburg,VA,"Lynchburg, VA",-79.14224639999999,37.4137536
Madison,VA,"Madison, VA",-78.25750350000001,38.3804062
Manicantown,VA,"Manicantown, VA",-77.7022145,37.6015357
New Market,VA,"New Market, VA",-78.6714064,38.647896
Norfolk,VA,"Norfolk, VA",-76.28587259999999,36.8507689
Orange Co.,VA,"Orange Co., VA",-77.973865,38.24266739999999
Orange County,VA,"Orange County, VA",-77.973865,38.24266739999999
Palmyra,VA,"Palmyra, VA",-78.2633426,37.8609872
Petersburg,VA,"Petersburg, VA",-77.40192669999999,37.2279279
Portsmouth,VA,"Portsmouth, VA",-76.2982742,36.8354258
Richmond,VA,"Richmond, VA",-77.4360481,37.5407246
Romney,VA,"Romney, VA",-78.75668390000001,39.3420431
Salem,VA,"Salem, VA",-80.05476259999999,37.2934681
St. Staunton,VA,"St. Staunton, VA",-79.0724178,38.1514461
Staunton,VA,"Staunton, VA",-79.0716958,38.149576
Warm Springs,VA,"Warm Springs, VA",-79.7905863,38.0460901
Williamsburg,VA,"Williamsburg, VA",-76.7074571,37.2707022
Winchester,VA,"Winchester, VA",-78.1633341,39.1856597
NA,VA,"NA, VA",-78.6568942,37.4315734
Andover,VT,"Andover, VT",-72.6965278,43.27735860000001
Arlington,VT,"Arlington, VT",-73.1539734,43.0747858
Barnard,VT,"Barnard, VT",-72.6189876,43.728679
Barnet,VT,"Barnet, VT",-72.0493779,44.2968323
Barre,VT,"Barre, VT",-72.50204939999999,44.1970055
Bennington,VT,"Bennington, VT",-73.1967741,42.8781345
Benson,VT,"Benson, VT",-73.3001233,43.7099497
Bradford,VT,"Bradford, VT",-72.1290054,43.9925315
Brandon,VT,"Brandon, VT",-73.087648,43.7981572
Brattleboro,VT,"Brattleboro, VT",-72.5578678,42.8509152
Brattleborough,VT,"Brattleborough, VT",-72.5578678,42.8509152
Brookfield,VT,"Brookfield, VT",-72.6034385,44.0422861
burlington,VT,"burlington, VT",-73.21207199999999,44.4758825
Burlington,VT,"Burlington, VT",-73.21207199999999,44.4758825
Calais,VT,"Calais, VT",-72.46634259999999,44.363296
Cavendish,VT,"Cavendish, VT",-72.5914616,43.4145061
Chelsea,VT,"Chelsea, VT",-72.4475994,43.989788
Chester,VT,"Chester, VT",-72.5951082,43.2628476
Cornwall,VT,"Cornwall, VT",-73.2103951,43.960893
Derby,VT,"Derby, VT",-72.13450689999999,44.9639953
Dorset,VT,"Dorset, VT",-73.0987801,43.2548074
East Calais,VT,"East Calais, VT",-72.4299853,44.366446
East Dorset,VT,"East Dorset, VT",-73.0101622,43.2399366
Fair Haven,VT,"Fair Haven, VT",-73.2657155,43.594801
Felchville,VT,"Felchville, VT",-72.53787,43.4564604
Grafton,VT,"Grafton, VT",-72.6064633,43.1716817
Grand-Isle,VT,"Grand-Isle, VT",-73.2923538,44.72254359999999
Guilford,VT,"Guilford, VT",-72.575487,42.8170235
Hartford,VT,"Hartford, VT",-72.3696992,43.6637411
Hinesburgh,VT,"Hinesburgh, VT",-73.11067899999999,44.3292199
Hyde Park,VT,"Hyde Park, VT",-72.6165192,44.5939318
Irasburg,VT,"Irasburg, VT",-72.2795489,44.80338159999999
Lowell,VT,"Lowell, VT",-72.4476024,44.7992084
Lunenburgh,VT,"Lunenburgh, VT",-71.6820321,44.4631136
Manchester,VT,"Manchester, VT",-73.0723268,43.16368749999999
Marlborough,VT,"Marlborough, VT",-72.72592709999999,42.859526
Middleburg,VT,"Middleburg, VT",-73.16734,44.015337100000004
Middlebury,VT,"Middlebury, VT",-73.16734,44.015337100000004
Middletown Springs,VT,"Middletown Springs, VT",-73.1181624,43.4856255
Montpelier,VT,"Montpelier, VT",-72.5753869,44.26005929999999
New Hampton,VT,"New Hampton, VT",-72.969889,43.583904
New Haven,VT,"New Haven, VT",-73.1535713,44.12432769999999
Newbury,VT,"Newbury, VT",-72.1341806,44.128342
Newfone,VT,"Newfone, VT",-72.65593129999999,42.9856736
Northfield,VT,"Northfield, VT",-72.65649859999999,44.1511723
Orwell,VT,"Orwell, VT",-73.2978936,43.8039502
Pawlet,VT,"Pawlet, VT",-73.177286,43.3465552
Peacham,VT,"Peacham, VT",-72.1704048,44.3286166
Pittsfield,VT,"Pittsfield, VT",-72.8128828,43.7722884
Pittsford,VT,"Pittsford, VT",-73.02816469999999,43.7067329
Pomfret,VT,"Pomfret, VT",-72.4801821,43.7270391
Post Mills Village,VT,"Post Mills Village, VT",-72.26057279999999,43.886043
Poultney,VT,"Poultney, VT",-73.2362261,43.5170325
Proctorsville,VT,"Proctorsville, VT",-72.638558,43.3826236
Reading,VT,"Reading, VT",-72.5914616,43.4893362
Rochester,VT,"Rochester, VT",-72.80801799999999,43.8745646
Rockingham,VT,"Rockingham, VT",-72.4889288,43.1876028
Royalton,VT,"Royalton, VT",-72.5427505,43.81765739999999
Rupert,VT,"Rupert, VT",-73.2228853,43.2597979
Rutland,VT,"Rutland, VT",-72.9726065,43.6106237
Ryegate,VT,"Ryegate, VT",-72.1160864,44.2387639
Shoreham,VT,"Shoreham, VT",-73.3159515,43.8936708
Springfield,VT,"Springfield, VT",-72.4823117,43.2984078
St. Albans,VT,"St. Albans, VT",-73.0835582,44.8107132
St. Johnsburg,VT,"St. Johnsburg, VT",-72.0151183,44.4192627
St. Johnsbury,VT,"St. Johnsbury, VT",-72.0151183,44.4192627
Stafford,VT,"Stafford, VT",-72.37787279999999,43.86645679999999
Stowe,VT,"Stowe, VT",-72.6874023,44.4654332
Sutton,VT,"Sutton, VT",-72.02565249999999,44.6331085
Thetford,VT,"Thetford, VT",-72.2434689,43.8250578
Vergennes,VT,"Vergennes, VT",-73.2540111,44.1672771
Vernon,VT,"Vernon, VT",-72.5134223,42.7620271
Wallingford,VT,"Wallingford, VT",-72.9773692,43.4717467
Wells River,VT,"Wells River, VT",-72.0470357,44.1542302
West Randolph,VT,"West Randolph, VT",-72.6656948,43.9247446
West Windsor,VT,"West Windsor, VT",-72.48792879999999,43.4858881
Weston,VT,"Weston, VT",-72.7929085,43.29130079999999
Williamstown,VT,"Williamstown, VT",-72.5414937,44.1217292
Wilmington,VT,"Wilmington, VT",-72.8714468,42.8683889
Windsor,VT,"Windsor, VT",-72.3865679,43.4799996
Woodstock,VT,"Woodstock, VT",-72.51851119999999,43.6242442
Astoria,WA,"Astoria, WA",-123.8312534,46.1878841
Colville,WA,"Colville, WA",-117.9009544,48.5449971
Ft. Vancouver,WA,"Ft. Vancouver, WA",-122.6643376,45.62810169999999
Olympia,WA,"Olympia, WA",-122.9006951,47.0378741
Port Madison,WA,"Port Madison, WA",-122.5303301,47.7324415
Seattle,WA,"Seattle, WA",-122.3320708,47.6062095
Spokane,WA,"Spokane, WA",-117.4260466,47.6587802
Steilacoom,WA,"Steilacoom, WA",-122.6026274,47.1698197
Vancouver,WA,"Vancouver, WA",-122.6716063,45.6318397
Walla Walla,WA,"Walla Walla, WA",-118.3430209,46.0645809
Washington City,WA,"Washington City, WA",-122.3320708,47.6062095
Allen's Grove,WI,"Allen's Grove, WI",-88.7625,42.58027999999999
Appleton,WI,"Appleton, WI",-88.41538469999999,44.2619309
Astor,WI,"Astor, WI",-87.90019,43.04596249999999
Bayfield,WI,"Bayfield, WI",-90.81824,46.8107671
Beaver Dam,WI,"Beaver Dam, WI",-88.837329,43.4577692
Belleville,WI,"Belleville, WI",-89.5381766,42.8597241
Beloit,WI,"Beloit, WI",-89.03177649999999,42.5083482
Black River Falls,WI,"Black River Falls, WI",-90.8515311,44.2946833
Bloomington,WI,"Bloomington, WI",-90.9234604,42.8852664
De Pere,WI,"De Pere, WI",-88.0603806,44.4488805
Delafield / Nashotah,WI,"Delafield / Nashotah, WI",-88.41394679999999,43.0516403
Delavan,WI,"Delavan, WI",-88.6437138,42.6330703
Du Lac,WI,"Du Lac, WI",-88.4470508,43.7730448
Eau Claire,WI,"Eau Claire, WI",-91.4984941,44.811349
Fond du Lac,WI,"Fond du Lac, WI",-88.4470508,43.7730448
Fort Atkinson,WI,"Fort Atkinson, WI",-88.8370509,42.9288944
Fort Howard,WI,"Fort Howard, WI",-88.0451846,44.5438377
Fox Lake,WI,"Fox Lake, WI",-88.90649839999999,43.565543
Franklin,WI,"Franklin, WI",-88.03841949999999,42.888627
Fremont,WI,"Fremont, WI",-88.86483439999999,44.2597027
Galesville,WI,"Galesville, WI",-91.3490376,44.0816282
Gilmanton,WI,"Gilmanton, WI",-91.6765674,44.4695725
Hudson,WI,"Hudson, WI",-92.7568703,44.9746896
Iturgeon Bay,WI,"Iturgeon Bay, WI",-87.3770419,44.8341639
Jamesville,WI,"Jamesville, WI",-89.0187222,42.6827885
Janesville,WI,"Janesville, WI",-89.0187222,42.6827885
Kenosha,WI,"Kenosha, WI",-87.82118539999999,42.5847425
Kewanee,WI,"Kewanee, WI",-87.50313969999999,44.4583321
LaCrosse,WI,"LaCrosse, WI",-91.23958069999999,43.8013556
Madison,WI,"Madison, WI",-89.4012302,43.0730517
Manitowoc,WI,"Manitowoc, WI",-87.657584,44.0886059
Manston,WI,"Manston, WI",NA,NA
Mendota,WI,"Mendota, WI",-89.3977261,43.1320121
Menominee,WI,"Menominee, WI",-88.6507943,44.88577919999999
Milton,WI,"Milton, WI",-88.94399899999999,42.7755645
Milwaukee,WI,"Milwaukee, WI",-87.9064736,43.0389025
Monroe,WI,"Monroe, WI",-89.6384532,42.60111939999999
Near Milwaukee,WI,"Near Milwaukee, WI",-87.9064736,43.0389025
Neenah,WI,"Neenah, WI",-88.462609,44.1858193
New Holstein,WI,"New Holstein, WI",-88.08426419999999,43.9499924
Oshkosh,WI,"Oshkosh, WI",-88.5426136,44.0247062
Pewaukee,WI,"Pewaukee, WI",-88.21690269999999,43.0542058
Platteville,WI,"Platteville, WI",-90.4784621,42.73416
Prairie du Chien,WI,"Prairie du Chien, WI",-91.1412404,43.0516505
Racine,WI,"Racine, WI",-87.78285230000002,42.7261309
Racine Junction,WI,"Racine Junction, WI",-87.7965622,42.7139815
Ripon,WI,"Ripon, WI",-88.8359447,43.8422049
Sheboygan,WI,"Sheboygan, WI",-87.71453,43.7508284
Sheboygan Falls,WI,"Sheboygan Falls, WI",-87.8106439,43.7291617
Sinsinawa,WI,"Sinsinawa, WI",-90.5411621,42.5229821
Sinsinawa Mound,WI,"Sinsinawa Mound, WI",-90.547147,42.523767
Sparta,WI,"Sparta, WI",-90.8129118,43.9441328
Spring Green,WI,"Spring Green, WI",-90.0679016,43.1752695
St. Francis,WI,"St. Francis, WI",-87.8758939,42.9716437
Stevens Point,WI,"Stevens Point, WI",-89.574563,44.52357920000001
Superior,WI,"Superior, WI",-92.10407959999999,46.7207737
Wanpoca,WI,"Wanpoca, WI",-89.0859464,44.3580348
Warikesha,WI,"Warikesha, WI",-88.2314813,43.0116784
Watertown,WI,"Watertown, WI",-88.7289918,43.1947211
Waukesha,WI,"Waukesha, WI",-88.2314813,43.0116784
Waupun,WI,"Waupun, WI",-88.72955189999999,43.6333219
Wausau,WI,"Wausau, WI",-89.6301221,44.9591352
West Allis,WI,"West Allis, WI",-88.0070315,43.0166806
Winnebago,WI,"Winnebago, WI",-88.5251126,44.0758178
NA,WI,"NA, WI",-88.7878678,43.7844397
Barnesville,WV,"Barnesville, WV",-80.6548179,38.8562068
bethany,WV,"bethany, WV",-80.55673840000001,40.205627
Bethany,WV,"Bethany, WV",-80.55673840000001,40.205627
Bethany College,WV,"Bethany College, WV",-80.559834,40.206055
Charles Town,WV,"Charles Town, WV",-77.8597175,39.28899029999999
Charleston,WV,"Charleston, WV",-81.6326234,38.3498195
Charlestown,WV,"Charlestown, WV",-77.8597175,39.28899029999999
Flemington,WV,"Flemington, WV",-80.1320277,39.2664815
Guyandotte,WV,"Guyandotte, WV",-82.3851517,38.4270282
Harper's Ferry,WV,"Harper's Ferry, WV",-77.7388818,39.3253786
Harpers Ferry,WV,"Harpers Ferry, WV",-77.7388818,39.3253786
Lewisburg,WV,"Lewisburg, WV",-80.44563029999999,37.8017879
Martinsburg,WV,"Martinsburg, WV",-77.96388689999999,39.4562099
Morgantown,WV,"Morgantown, WV",-79.95589679999999,39.629526
Moundsville,WV,"Moundsville, WV",-80.7431407,39.9203526
New Cumberland,WV,"New Cumberland, WV",-80.6067392,40.4967329
Ohio County,WV,"Ohio County, WV",-80.610489,40.1111311
Parkensburg,WV,"Parkensburg, WV",-81.56151349999999,39.2667418
Parkersburg,WV,"Parkersburg, WV",-81.56151349999999,39.2667418
Preston,WV,"Preston, WV",-79.6502105,39.4372135
Preston county,WV,"Preston county, WV",-79.6502105,39.4372135
Preston County,WV,"Preston County, WV",-79.6502105,39.4372135
Pruntytown,WV,"Pruntytown, WV",-80.073775,39.3296769
Sheperdstown,WV,"Sheperdstown, WV",-77.8041609,39.4300996
Shepherds town,WV,"Shepherds town, WV",-77.8041609,39.4300996
Wellsburg,WV,"Wellsburg, WV",-80.6095187,40.2720146
Weston,WV,"Weston, WV",-80.46731299999999,39.0384274
Wheeling,WV,"Wheeling, WV",-80.7209149,40.0639616
Bridger,WY,"Bridger, WY",-110.3843251,41.3166168
Cheyenne,WY,"Cheyenne, WY",-104.8202462,41.1399814
Fetterman,WY,"Fetterman, WY",-105.4860448,42.84305670000001
Fort D.A. Russell?,WY,"Fort D.A. Russell?, WY",-104.8629746,41.1446846
Fort Laramie,WY,"Fort Laramie, WY",-104.5560183,42.2036873
Ft. D.A. Russell,WY,"Ft. D.A. Russell, WY",-104.8629746,41.1446846
Ft. Fred Steele,WY,"Ft. Fred Steele, WY",-106.9464303,41.7780155
Laramie,WY,"Laramie, WY",-105.5911007,41.3113669
Sanders,WY,"Sanders, WY",-82.90561389999999,40.16154849999999
NA,WY,"NA, WY",-107.2902839,43.0759678
